{"Saitama ken":{"cities":[{"districts":[],"postal_code":"3310058","city_en":"Saitama","city_jp":"さいたま市　西区"},{"districts":[],"postal_code":"3310800","city_en":"Saitama","city_jp":"さいたま市　北区"},{"districts":[],"postal_code":"3300800","city_en":"Saitama","city_jp":"さいたま市　大宮区"},{"districts":[],"postal_code":"3370000","city_en":"Saitama","city_jp":"さいたま市　見沼区"},{"districts":[],"postal_code":"3300000","city_en":"Saitama","city_jp":"さいたま市　中央区"},{"districts":[],"postal_code":"3380800","city_en":"Saitama","city_jp":"さいたま市　桜区"},{"districts":[],"postal_code":"3300000","city_en":"Saitama","city_jp":"さいたま市　浦和区"},{"districts":[],"postal_code":"3360000","city_en":"Saitama","city_jp":"さいたま市　南区"},{"districts":[],"postal_code":"3360900","city_en":"Saitama","city_jp":"さいたま市　緑区"},{"districts":[],"postal_code":"3390000","city_en":"Saitama","city_jp":"さいたま市　岩槻区"},{"districts":[],"postal_code":"3501100","city_en":"Kawagoe","city_jp":"川越市"},{"districts":[],"postal_code":"3600000","city_en":"Kumagaya","city_jp":"熊谷市"},{"districts":[],"postal_code":"3320000","city_en":"Kawaguchi","city_jp":"川口市"},{"districts":[],"postal_code":"3610000","city_en":"Gyoda","city_jp":"行田市"},{"districts":[],"postal_code":"3680000","city_en":"Chichibu","city_jp":"秩父市"},{"districts":[],"postal_code":"3590000","city_en":"Tokorozawa","city_jp":"所沢市"},{"districts":[],"postal_code":"3570000","city_en":"Hanno","city_jp":"飯能市"},{"districts":[],"postal_code":"3470000","city_en":"Kazo","city_jp":"加須市"},{"districts":[],"postal_code":"3670000","city_en":"Honjo","city_jp":"本庄市"},{"districts":[],"postal_code":"3550000","city_en":"Higashimatsuyama","city_jp":"東松山市"},{"districts":[],"postal_code":"3440000","city_en":"Kasukabe","city_jp":"春日部市"},{"districts":[],"postal_code":"3501300","city_en":"Sayama","city_jp":"狭山市"},{"districts":[],"postal_code":"3480000","city_en":"Hanyu","city_jp":"羽生市"},{"districts":[],"postal_code":"3650000","city_en":"Konosu","city_jp":"鴻巣市"},{"districts":[],"postal_code":"3660000","city_en":"Fukaya","city_jp":"深谷市"},{"districts":[],"postal_code":"3620000","city_en":"Ageo","city_jp":"上尾市"},{"districts":[],"postal_code":"3400000","city_en":"Soka","city_jp":"草加市"},{"districts":[],"postal_code":"3430000","city_en":"Koshigaya","city_jp":"越谷市"},{"districts":[],"postal_code":"3350000","city_en":"Warabi","city_jp":"蕨市"},{"districts":[],"postal_code":"3350000","city_en":"Toda","city_jp":"戸田市"},{"districts":[],"postal_code":"3580000","city_en":"Iruma","city_jp":"入間市"},{"districts":[],"postal_code":"3510000","city_en":"Asaka","city_jp":"朝霞市"},{"districts":[],"postal_code":"3530000","city_en":"Shiki","city_jp":"志木市"},{"districts":[],"postal_code":"3510100","city_en":"Wako","city_jp":"和光市"},{"districts":[],"postal_code":"3520000","city_en":"Niiza","city_jp":"新座市"},{"districts":[],"postal_code":"3630000","city_en":"Okegawa","city_jp":"桶川市"},{"districts":[],"postal_code":"3460000","city_en":"Kuki","city_jp":"久喜市"},{"districts":[],"postal_code":"3640000","city_en":"Kitamoto","city_jp":"北本市"},{"districts":[],"postal_code":"3400800","city_en":"Yashio","city_jp":"八潮市"},{"districts":[],"postal_code":"3540000","city_en":"Fujimi","city_jp":"富士見市"},{"districts":[],"postal_code":"3410000","city_en":"Misato","city_jp":"三郷市"},{"districts":[],"postal_code":"3490100","city_en":"Hasuda","city_jp":"蓮田市"},{"districts":[],"postal_code":"3500200","city_en":"Sakado","city_jp":"坂戸市"},{"districts":[],"postal_code":"3400100","city_en":"Satte","city_jp":"幸手市"},{"districts":[],"postal_code":"3502200","city_en":"Tsurugashima","city_jp":"鶴ヶ島市"},{"districts":[],"postal_code":"3501200","city_en":"Hidaka","city_jp":"日高市"},{"districts":[],"postal_code":"3420000","city_en":"Yoshikawa","city_jp":"吉川市"},{"districts":[],"postal_code":"3560000","city_en":"Fujimino","city_jp":"ふじみ野市"},{"districts":[],"postal_code":"3490200","city_en":"Shiraoka","city_jp":"白岡市"},{"districts":[],"postal_code":"3620800","city_en":"","city_jp":"北足立郡　伊奈町"},{"districts":[],"postal_code":"3540000","city_en":"","city_jp":"入間郡　三芳町"},{"districts":[],"postal_code":"3500400","city_en":"","city_jp":"入間郡　毛呂山町"},{"districts":[],"postal_code":"3500400","city_en":"","city_jp":"入間郡　越生町"},{"districts":[],"postal_code":"3550800","city_en":"","city_jp":"比企郡　滑川町"},{"districts":[],"postal_code":"3550200","city_en":"","city_jp":"比企郡　嵐山町"},{"districts":[],"postal_code":"3550300","city_en":"","city_jp":"比企郡　小川町"},{"districts":[],"postal_code":"3500100","city_en":"","city_jp":"比企郡　川島町"},{"districts":[],"postal_code":"3550100","city_en":"","city_jp":"比企郡　吉見町"},{"districts":[],"postal_code":"3500300","city_en":"","city_jp":"比企郡　鳩山町"},{"districts":[],"postal_code":"3550300","city_en":"","city_jp":"比企郡　ときがわ町"},{"districts":[],"postal_code":"3680000","city_en":"","city_jp":"秩父郡　横瀬町"},{"districts":[],"postal_code":"3691400","city_en":"","city_jp":"秩父郡　皆野町"},{"districts":[],"postal_code":"3691300","city_en":"","city_jp":"秩父郡　長瀞町"},{"districts":[],"postal_code":"3680100","city_en":"","city_jp":"秩父郡　小鹿野町"},{"districts":[],"postal_code":"3550300","city_en":"","city_jp":"秩父郡　東秩父村"},{"districts":[],"postal_code":"3670100","city_en":"","city_jp":"児玉郡　美里町"},{"districts":[],"postal_code":"3670200","city_en":"","city_jp":"児玉郡　神川町"},{"districts":[],"postal_code":"3690300","city_en":"","city_jp":"児玉郡　上里町"},{"districts":[],"postal_code":"3691200","city_en":"","city_jp":"大里郡　寄居町"},{"districts":[],"postal_code":"3450000","city_en":"","city_jp":"南埼玉郡　宮代町"},{"districts":[],"postal_code":"3450000","city_en":"","city_jp":"北葛飾郡　杉戸町"},{"districts":[],"postal_code":"3430100","city_en":"","city_jp":"北葛飾郡　松伏町"}],"prefecture_en":"Saitama ken","prefecture_jp":"埼玉県"}}