{"Hokkaido":{"cities":[{"districts":[],"postal_code":"0640941","city_en":"Sapporo","city_jp":"札幌市　中央区"},{"districts":[],"postal_code":"0010000","city_en":"Sapporo","city_jp":"札幌市　北区"},{"districts":[],"postal_code":"0650000","city_en":"Sapporo","city_jp":"札幌市　東区"},{"districts":[],"postal_code":"0030000","city_en":"Sapporo shi","city_jp":"札幌市　白石区"},{"districts":[],"postal_code":"0620000","city_en":"Sapporo","city_jp":"札幌市　豊平区"},{"districts":[],"postal_code":"0050000","city_en":"Sapporo","city_jp":"札幌市　南区"},{"districts":[],"postal_code":"0630000","city_en":"Sapporo","city_jp":"札幌市　西区"},{"districts":[],"postal_code":"0040000","city_en":"Sapporo","city_jp":"札幌市　厚別区"},{"districts":[],"postal_code":"0060000","city_en":"Sapporo","city_jp":"札幌市　手稲区"},{"districts":[],"postal_code":"0040000","city_en":"Sapporo","city_jp":"札幌市　清田区"},{"districts":[],"postal_code":"0400000","city_en":"Hakodate","city_jp":"函館市"},{"districts":[],"postal_code":"0470000","city_en":"Otaru","city_jp":"小樽市"},{"districts":[],"postal_code":"0700000","city_en":"Asahikawa","city_jp":"旭川市"},{"districts":[],"postal_code":"0500000","city_en":"Muroran","city_jp":"室蘭市"},{"districts":[],"postal_code":"0850000","city_en":"Kushiro","city_jp":"釧路市"},{"districts":[],"postal_code":"0800000","city_en":"Obihiro","city_jp":"帯広市"},{"districts":[],"postal_code":"0900000","city_en":"Kitami","city_jp":"北見市"},{"districts":[],"postal_code":"0680400","city_en":"Yubari","city_jp":"夕張市"},{"districts":[],"postal_code":"0680000","city_en":"Iwamizawa","city_jp":"岩見沢市"},{"districts":[],"postal_code":"0930000","city_en":"Abashiri","city_jp":"網走市"},{"districts":[],"postal_code":"0770000","city_en":"Rumoi","city_jp":"留萌市"},{"districts":[],"postal_code":"0530000","city_en":"Tomakomai","city_jp":"苫小牧市"},{"districts":[],"postal_code":"0970000","city_en":"Wakkanai","city_jp":"稚内市"},{"districts":[],"postal_code":"0720000","city_en":"Bibai","city_jp":"美唄市"},{"districts":[],"postal_code":"0750000","city_en":"Ashibetsu","city_jp":"芦別市"},{"districts":[],"postal_code":"0670000","city_en":"Ebetsu","city_jp":"江別市"},{"districts":[],"postal_code":"0791100","city_en":"Akabira","city_jp":"赤平市"},{"districts":[],"postal_code":"0940000","city_en":"Mombetsu","city_jp":"紋別市"},{"districts":[],"postal_code":"0950000","city_en":"Shibetsu","city_jp":"士別市"},{"districts":[],"postal_code":"0960000","city_en":"Nayoro","city_jp":"名寄市"},{"districts":[],"postal_code":"0682100","city_en":"Mikasa","city_jp":"三笠市"},{"districts":[],"postal_code":"0870000","city_en":"Nemuro","city_jp":"根室市"},{"districts":[],"postal_code":"0660000","city_en":"Chitose","city_jp":"千歳市"},{"districts":[],"postal_code":"0730000","city_en":"Takikawa","city_jp":"滝川市"},{"districts":[],"postal_code":"0730100","city_en":"Sunagawa","city_jp":"砂川市"},{"districts":[],"postal_code":"0730400","city_en":"Utashinai","city_jp":"歌志内市"},{"districts":[],"postal_code":"0740000","city_en":"Fukagawa","city_jp":"深川市"},{"districts":[],"postal_code":"0760000","city_en":"Furano","city_jp":"富良野市"},{"districts":[],"postal_code":"0590000","city_en":"Noboribetsu","city_jp":"登別市"},{"districts":[],"postal_code":"0611400","city_en":"Eniwa","city_jp":"恵庭市"},{"districts":[],"postal_code":"0520000","city_en":"Date","city_jp":"伊達市"},{"districts":[],"postal_code":"0611100","city_en":"Kitahiroshima","city_jp":"北広島市"},{"districts":[],"postal_code":"0613200","city_en":"Ishikari","city_jp":"石狩市"},{"districts":[],"postal_code":"0490100","city_en":"Hokuto","city_jp":"北斗市"},{"districts":[],"postal_code":"0610200","city_en":"","city_jp":"石狩郡　当別町"},{"districts":[],"postal_code":"0681100","city_en":"Ishikari gun","city_jp":"石狩郡　新篠津村"},{"districts":[],"postal_code":"0491500","city_en":"","city_jp":"松前郡　松前町"},{"districts":[],"postal_code":"0491300","city_en":"","city_jp":"松前郡　福島町"},{"districts":[],"postal_code":"0491100","city_en":"Kamiiso gun","city_jp":"上磯郡　知内町"},{"districts":[],"postal_code":"0490400","city_en":"","city_jp":"上磯郡　木古内町"},{"districts":[],"postal_code":"0411100","city_en":"","city_jp":"亀田郡　七飯町"},{"districts":[],"postal_code":"0411400","city_en":"Kayabe gun","city_jp":"茅部郡　鹿部町"},{"districts":[],"postal_code":"0492300","city_en":"","city_jp":"茅部郡　森町"},{"districts":[],"postal_code":"0493100","city_en":"","city_jp":"二海郡　八雲町"},{"districts":[],"postal_code":"0493500","city_en":"","city_jp":"山越郡　長万部町"},{"districts":[],"postal_code":"0430000","city_en":"","city_jp":"檜山郡　江差町"},{"districts":[],"postal_code":"0490600","city_en":"","city_jp":"檜山郡　上ノ国町"},{"districts":[],"postal_code":"0431100","city_en":"","city_jp":"檜山郡　厚沢部町"},{"districts":[],"postal_code":"0430100","city_en":"","city_jp":"爾志郡　乙部町"},{"districts":[],"postal_code":"0431400","city_en":"","city_jp":"奥尻郡　奥尻町"},{"districts":[],"postal_code":"0494300","city_en":"","city_jp":"瀬棚郡　今金町"},{"districts":[],"postal_code":"0494500","city_en":"","city_jp":"久遠郡　せたな町"},{"districts":[],"postal_code":"0480600","city_en":"Shimamaki gun","city_jp":"島牧郡　島牧村"},{"districts":[],"postal_code":"0480400","city_en":"","city_jp":"寿都郡　寿都町"},{"districts":[],"postal_code":"0480100","city_en":"","city_jp":"寿都郡　黒松内町"},{"districts":[],"postal_code":"0481300","city_en":"","city_jp":"磯谷郡　蘭越町"},{"districts":[],"postal_code":"0481500","city_en":"","city_jp":"虻田郡　ニセコ町"},{"districts":[],"postal_code":"0481600","city_en":"","city_jp":"虻田郡　真狩村"},{"districts":[],"postal_code":"0481700","city_en":"","city_jp":"虻田郡　留寿都村"},{"districts":[],"postal_code":"0440200","city_en":"","city_jp":"虻田郡　喜茂別町"},{"districts":[],"postal_code":"0440100","city_en":"","city_jp":"虻田郡　京極町"},{"districts":[],"postal_code":"0440000","city_en":"","city_jp":"虻田郡　倶知安町"},{"districts":[],"postal_code":"0482200","city_en":"","city_jp":"岩内郡　共和町"},{"districts":[],"postal_code":"0450000","city_en":"","city_jp":"岩内郡　岩内町"},{"districts":[],"postal_code":"0450200","city_en":"","city_jp":"古宇郡　泊村"},{"districts":[],"postal_code":"0450300","city_en":"","city_jp":"古宇郡　神恵内村"},{"districts":[],"postal_code":"0460200","city_en":"","city_jp":"積丹郡　積丹町"},{"districts":[],"postal_code":"0460100","city_en":"","city_jp":"古平郡　古平町"},{"districts":[],"postal_code":"0482400","city_en":"","city_jp":"余市郡　仁木町"},{"districts":[],"postal_code":"0460000","city_en":"","city_jp":"余市郡　余市町"},{"districts":[],"postal_code":"0460500","city_en":"","city_jp":"余市郡　赤井川村"},{"districts":[],"postal_code":"0690200","city_en":"","city_jp":"空知郡　南幌町"},{"districts":[],"postal_code":"0790300","city_en":"","city_jp":"空知郡　奈井江町"},{"districts":[],"postal_code":"0730200","city_en":"","city_jp":"空知郡　上砂川町"},{"districts":[],"postal_code":"0691200","city_en":"","city_jp":"夕張郡　由仁町"},{"districts":[],"postal_code":"0691300","city_en":"","city_jp":"夕張郡　長沼町"},{"districts":[],"postal_code":"0691500","city_en":"","city_jp":"夕張郡　栗山町"},{"districts":[],"postal_code":"0610500","city_en":"","city_jp":"樺戸郡　月形町"},{"districts":[],"postal_code":"0610600","city_en":"","city_jp":"樺戸郡　浦臼町"},{"districts":[],"postal_code":"0731100","city_en":"Kabato gun","city_jp":"樺戸郡　新十津川町"},{"districts":[],"postal_code":"0790500","city_en":"","city_jp":"雨竜郡　妹背牛町"},{"districts":[],"postal_code":"0782100","city_en":"","city_jp":"雨竜郡　秩父別町"},{"districts":[],"postal_code":"0782600","city_en":"","city_jp":"雨竜郡　雨竜町"},{"districts":[],"postal_code":"0782500","city_en":"","city_jp":"雨竜郡　北竜町"},{"districts":[],"postal_code":"0782200","city_en":"","city_jp":"雨竜郡　沼田町"},{"districts":[],"postal_code":"0711200","city_en":"","city_jp":"上川郡　鷹栖町"},{"districts":[],"postal_code":"0711500","city_en":"","city_jp":"上川郡　東神楽町"},{"districts":[],"postal_code":"0781300","city_en":"","city_jp":"上川郡　当麻町"},{"districts":[],"postal_code":"0780300","city_en":"","city_jp":"上川郡　比布町"},{"districts":[],"postal_code":"0781400","city_en":"","city_jp":"上川郡　愛別町"},{"districts":[],"postal_code":"0781700","city_en":"","city_jp":"上川郡　上川町"},{"districts":[],"postal_code":"0711400","city_en":"","city_jp":"上川郡　東川町"},{"districts":[],"postal_code":"0710200","city_en":"","city_jp":"上川郡　美瑛町"},{"districts":[],"postal_code":"0710500","city_en":"","city_jp":"空知郡　上富良野町"},{"districts":[],"postal_code":"0710700","city_en":"","city_jp":"空知郡　中富良野町"},{"districts":[],"postal_code":"0792400","city_en":"","city_jp":"空知郡　南富良野町"},{"districts":[],"postal_code":"0792200","city_en":"Yufutsu gun","city_jp":"勇払郡　占冠村"},{"districts":[],"postal_code":"0980100","city_en":"","city_jp":"上川郡　和寒町"},{"districts":[],"postal_code":"0980300","city_en":"","city_jp":"上川郡　剣淵町"},{"districts":[],"postal_code":"0981200","city_en":"Kamikawa gun","city_jp":"上川郡　下川町"},{"districts":[],"postal_code":"0982200","city_en":"","city_jp":"中川郡　美深町"},{"districts":[],"postal_code":"0982500","city_en":"","city_jp":"中川郡　音威子府村"},{"districts":[],"postal_code":"0982800","city_en":"","city_jp":"中川郡　中川町"},{"districts":[],"postal_code":"0740400","city_en":"","city_jp":"雨竜郡　幌加内町"},{"districts":[],"postal_code":"0770200","city_en":"","city_jp":"増毛郡　増毛町"},{"districts":[],"postal_code":"0783300","city_en":"","city_jp":"留萌郡　小平町"},{"districts":[],"postal_code":"0783700","city_en":"","city_jp":"苫前郡　苫前町"},{"districts":[],"postal_code":"0784100","city_en":"","city_jp":"苫前郡　羽幌町"},{"districts":[],"postal_code":"0784400","city_en":"","city_jp":"苫前郡　初山別村"},{"districts":[],"postal_code":"0983500","city_en":"","city_jp":"天塩郡　遠別町"},{"districts":[],"postal_code":"0983300","city_en":"","city_jp":"天塩郡　天塩町"},{"districts":[],"postal_code":"0986200","city_en":"","city_jp":"宗谷郡　猿払村"},{"districts":[],"postal_code":"0985700","city_en":"","city_jp":"枝幸郡　浜頓別町"},{"districts":[],"postal_code":"0985500","city_en":"","city_jp":"枝幸郡　中頓別町"},{"districts":[],"postal_code":"0985800","city_en":"","city_jp":"枝幸郡　枝幸町"},{"districts":[],"postal_code":"0984100","city_en":"","city_jp":"天塩郡　豊富町"},{"districts":[],"postal_code":"0971200","city_en":"","city_jp":"礼文郡　礼文町"},{"districts":[],"postal_code":"0970400","city_en":"","city_jp":"利尻郡　利尻町"},{"districts":[],"postal_code":"0970100","city_en":"","city_jp":"利尻郡　利尻富士町"},{"districts":[],"postal_code":"0983200","city_en":"","city_jp":"天塩郡　幌延町"},{"districts":[],"postal_code":"0920000","city_en":"","city_jp":"網走郡　美幌町"},{"districts":[],"postal_code":"0920200","city_en":"","city_jp":"網走郡　津別町"},{"districts":[],"postal_code":"0994100","city_en":"","city_jp":"斜里郡　斜里町"},{"districts":[],"postal_code":"0994400","city_en":"","city_jp":"斜里郡　清里町"},{"districts":[],"postal_code":"0993600","city_en":"","city_jp":"斜里郡　小清水町"},{"districts":[],"postal_code":"0991400","city_en":"","city_jp":"常呂郡　訓子府町"},{"districts":[],"postal_code":"0991100","city_en":"","city_jp":"常呂郡　置戸町"},{"districts":[],"postal_code":"0930500","city_en":"","city_jp":"常呂郡　佐呂間町"},{"districts":[],"postal_code":"0990400","city_en":"","city_jp":"紋別郡　遠軽町"},{"districts":[],"postal_code":"0996400","city_en":"","city_jp":"紋別郡　湧別町"},{"districts":[],"postal_code":"0995600","city_en":"","city_jp":"紋別郡　滝上町"},{"districts":[],"postal_code":"0981600","city_en":"","city_jp":"紋別郡　興部町"},{"districts":[],"postal_code":"0981500","city_en":"","city_jp":"紋別郡　西興部村"},{"districts":[],"postal_code":"0981700","city_en":"","city_jp":"紋別郡　雄武町"},{"districts":[],"postal_code":"0992300","city_en":"","city_jp":"網走郡　大空町"},{"districts":[],"postal_code":"0495400","city_en":"","city_jp":"虻田郡　豊浦町"},{"districts":[],"postal_code":"0520100","city_en":"","city_jp":"有珠郡　壮瞥町"},{"districts":[],"postal_code":"0590900","city_en":"Shiraoi gun","city_jp":"白老郡　白老町"},{"districts":[],"postal_code":"0591600","city_en":"","city_jp":"勇払郡　厚真町"},{"districts":[],"postal_code":"0495600","city_en":"","city_jp":"虻田郡　洞爺湖町"},{"districts":[],"postal_code":"0591500","city_en":"","city_jp":"勇払郡　安平町"},{"districts":[],"postal_code":"0540000","city_en":"","city_jp":"勇払郡　むかわ町"},{"districts":[],"postal_code":"0550000","city_en":"","city_jp":"沙流郡　日高町"},{"districts":[],"postal_code":"0550100","city_en":"","city_jp":"沙流郡　平取町"},{"districts":[],"postal_code":"0592400","city_en":"","city_jp":"新冠郡　新冠町"},{"districts":[],"postal_code":"0570000","city_en":"","city_jp":"浦河郡　浦河町"},{"districts":[],"postal_code":"0580000","city_en":"","city_jp":"様似郡　様似町"},{"districts":[],"postal_code":"0580200","city_en":"","city_jp":"幌泉郡　えりも町"},{"districts":[],"postal_code":"0560000","city_en":"Hidaka gun","city_jp":"日高郡　新ひだか町"},{"districts":[],"postal_code":"0800100","city_en":"","city_jp":"河東郡　音更町"},{"districts":[],"postal_code":"0801200","city_en":"Kato gun","city_jp":"河東郡　士幌町"},{"districts":[],"postal_code":"0801400","city_en":"","city_jp":"河東郡　上士幌町"},{"districts":[],"postal_code":"0810200","city_en":"Kato gun","city_jp":"河東郡　鹿追町"},{"districts":[],"postal_code":"0810000","city_en":"Kamikawa gun","city_jp":"上川郡　新得町"},{"districts":[],"postal_code":"0890100","city_en":"Kamikawa gun","city_jp":"上川郡　清水町"},{"districts":[],"postal_code":"0820000","city_en":"","city_jp":"河西郡　芽室町"},{"districts":[],"postal_code":"0891300","city_en":"","city_jp":"河西郡　中札内村"},{"districts":[],"postal_code":"0891500","city_en":"","city_jp":"河西郡　更別村"},{"districts":[],"postal_code":"0892100","city_en":"","city_jp":"広尾郡　大樹町"},{"districts":[],"postal_code":"0892600","city_en":"","city_jp":"広尾郡　広尾町"},{"districts":[],"postal_code":"0890600","city_en":"","city_jp":"中川郡　幕別町"},{"districts":[],"postal_code":"0830000","city_en":"","city_jp":"中川郡　池田町"},{"districts":[],"postal_code":"0895300","city_en":"","city_jp":"中川郡　豊頃町"},{"districts":[],"postal_code":"0893300","city_en":"","city_jp":"中川郡　本別町"},{"districts":[],"postal_code":"0893700","city_en":"","city_jp":"足寄郡　足寄町"},{"districts":[],"postal_code":"0894300","city_en":"","city_jp":"足寄郡　陸別町"},{"districts":[],"postal_code":"0895600","city_en":"","city_jp":"十勝郡　浦幌町"},{"districts":[],"postal_code":"0880600","city_en":"","city_jp":"釧路郡　釧路町"},{"districts":[],"postal_code":"0881100","city_en":"","city_jp":"厚岸郡　厚岸町"},{"districts":[],"postal_code":"0881500","city_en":"","city_jp":"厚岸郡　浜中町"},{"districts":[],"postal_code":"0882300","city_en":"Kawakami gun","city_jp":"川上郡　標茶町"},{"districts":[],"postal_code":"0883200","city_en":"","city_jp":"川上郡　弟子屈町"},{"districts":[],"postal_code":"0851200","city_en":"","city_jp":"阿寒郡　鶴居村"},{"districts":[],"postal_code":"0880300","city_en":"Shiranuka gun","city_jp":"白糠郡　白糠町"},{"districts":[],"postal_code":"0860200","city_en":"","city_jp":"野付郡　別海町"},{"districts":[],"postal_code":"0861100","city_en":"","city_jp":"標津郡　中標津町"},{"districts":[],"postal_code":"0861600","city_en":"Shibetsu gun","city_jp":"標津郡　標津町"},{"districts":[],"postal_code":"0861800","city_en":"","city_jp":"目梨郡　羅臼町"}],"prefecture_en":"Hokkaido","prefecture_jp":"北海道"},"Aomori ken":{"cities":[{"districts":[],"postal_code":"0300846","city_en":"Aomori","city_jp":"青森市"},{"districts":[],"postal_code":"0360000","city_en":"Hirosaki","city_jp":"弘前市"},{"districts":[],"postal_code":"0310000","city_en":"Hachinohe","city_jp":"八戸市"},{"districts":[],"postal_code":"0360300","city_en":"Kuroishi","city_jp":"黒石市"},{"districts":[],"postal_code":"0370000","city_en":"Goshogawara","city_jp":"五所川原市"},{"districts":[],"postal_code":"0340000","city_en":"Towada","city_jp":"十和田市"},{"districts":[],"postal_code":"0330000","city_en":"Misawa","city_jp":"三沢市"},{"districts":[],"postal_code":"0350000","city_en":"Mutsu","city_jp":"むつ市"},{"districts":[],"postal_code":"0383100","city_en":"Tsugaru","city_jp":"つがる市"},{"districts":[],"postal_code":"0360100","city_en":"Hirakawa","city_jp":"平川市"},{"districts":[],"postal_code":"0393300","city_en":"","city_jp":"東津軽郡　平内町"},{"districts":[],"postal_code":"0301500","city_en":"","city_jp":"東津軽郡　今別町"},{"districts":[],"postal_code":"0301200","city_en":"","city_jp":"東津軽郡　蓬田村"},{"districts":[],"postal_code":"0301400","city_en":"","city_jp":"東津軽郡　外ヶ浜町"},{"districts":[],"postal_code":"0382700","city_en":"","city_jp":"西津軽郡　鰺ヶ沢町"},{"districts":[],"postal_code":"0382300","city_en":"","city_jp":"西津軽郡　深浦町"},{"districts":[],"postal_code":"0361400","city_en":"","city_jp":"中津軽郡　西目屋村"},{"districts":[],"postal_code":"0383800","city_en":"","city_jp":"南津軽郡　藤崎町"},{"districts":[],"postal_code":"0380200","city_en":"","city_jp":"南津軽郡　大鰐町"},{"districts":[],"postal_code":"0381100","city_en":"","city_jp":"南津軽郡　田舎館村"},{"districts":[],"postal_code":"0383600","city_en":"","city_jp":"北津軽郡　板柳町"},{"districts":[],"postal_code":"0383500","city_en":"","city_jp":"北津軽郡　鶴田町"},{"districts":[],"postal_code":"0370300","city_en":"","city_jp":"北津軽郡　中泊町"},{"districts":[],"postal_code":"0393100","city_en":"","city_jp":"上北郡　野辺地町"},{"districts":[],"postal_code":"0392500","city_en":"Kamikita gun","city_jp":"上北郡　七戸町"},{"districts":[],"postal_code":"0392300","city_en":"","city_jp":"上北郡　六戸町"},{"districts":[],"postal_code":"0394100","city_en":"","city_jp":"上北郡　横浜町"},{"districts":[],"postal_code":"0392600","city_en":"","city_jp":"上北郡　東北町"},{"districts":[],"postal_code":"0393200","city_en":"","city_jp":"上北郡　六ヶ所村"},{"districts":[],"postal_code":"0392200","city_en":"","city_jp":"上北郡　おいらせ町"},{"districts":[],"postal_code":"0394600","city_en":"","city_jp":"下北郡　大間町"},{"districts":[],"postal_code":"0350000","city_en":"","city_jp":"下北郡　東通村"},{"districts":[],"postal_code":"0394500","city_en":"","city_jp":"下北郡　風間浦村"},{"districts":[],"postal_code":"0394700","city_en":"","city_jp":"下北郡　佐井村"},{"districts":[],"postal_code":"0390100","city_en":"","city_jp":"三戸郡　三戸町"},{"districts":[],"postal_code":"0391500","city_en":"","city_jp":"三戸郡　五戸町"},{"districts":[],"postal_code":"0390200","city_en":"","city_jp":"三戸郡　田子町"},{"districts":[],"postal_code":"0390100","city_en":"","city_jp":"三戸郡　南部町"},{"districts":[],"postal_code":"0391200","city_en":"","city_jp":"三戸郡　階上町"},{"districts":[],"postal_code":"0391800","city_en":"Sannohe gun","city_jp":"三戸郡　新郷村"}],"prefecture_en":"Aomori ken","prefecture_jp":"青森県"},"Iwate ken":{"cities":[{"districts":[],"postal_code":"0200133","city_en":"Morioka","city_jp":"盛岡市"},{"districts":[],"postal_code":"0270000","city_en":"Miyako","city_jp":"宮古市"},{"districts":[],"postal_code":"0220000","city_en":"Ofunato","city_jp":"大船渡市"},{"districts":[],"postal_code":"0250000","city_en":"Hanamaki","city_jp":"花巻市"},{"districts":[],"postal_code":"0240000","city_en":"Kitakami","city_jp":"北上市"},{"districts":[],"postal_code":"0280000","city_en":"Kuji","city_jp":"久慈市"},{"districts":[],"postal_code":"0280500","city_en":"Tono","city_jp":"遠野市"},{"districts":[],"postal_code":"0210000","city_en":"Ichinoseki","city_jp":"一関市"},{"districts":[],"postal_code":"0292200","city_en":"Rikuzentakata","city_jp":"陸前高田市"},{"districts":[],"postal_code":"0260000","city_en":"Kamaishi","city_jp":"釜石市"},{"districts":[],"postal_code":"0286100","city_en":"Ninohe","city_jp":"二戸市"},{"districts":[],"postal_code":"0287100","city_en":"Hachimantai","city_jp":"八幡平市"},{"districts":[],"postal_code":"0230000","city_en":"Oshu","city_jp":"奥州市"},{"districts":[],"postal_code":"0200600","city_en":"Takizawa","city_jp":"滝沢市"},{"districts":[],"postal_code":"0200500","city_en":"Iwate gun","city_jp":"岩手郡　雫石町"},{"districts":[],"postal_code":"0285400","city_en":"","city_jp":"岩手郡　葛巻町"},{"districts":[],"postal_code":"0284300","city_en":"","city_jp":"岩手郡　岩手町"},{"districts":[],"postal_code":"0283300","city_en":"Shiwa gun","city_jp":"紫波郡　紫波町"},{"districts":[],"postal_code":"0283600","city_en":"","city_jp":"紫波郡　矢巾町"},{"districts":[],"postal_code":"0295500","city_en":"","city_jp":"和賀郡　西和賀町"},{"districts":[],"postal_code":"0294500","city_en":"","city_jp":"胆沢郡　金ケ崎町"},{"districts":[],"postal_code":"0294100","city_en":"","city_jp":"西磐井郡　平泉町"},{"districts":[],"postal_code":"0292300","city_en":"","city_jp":"気仙郡　住田町"},{"districts":[],"postal_code":"0281100","city_en":"","city_jp":"上閉伊郡　大槌町"},{"districts":[],"postal_code":"0281300","city_en":"","city_jp":"下閉伊郡　山田町"},{"districts":[],"postal_code":"0270500","city_en":"","city_jp":"下閉伊郡　岩泉町"},{"districts":[],"postal_code":"0288400","city_en":"","city_jp":"下閉伊郡　田野畑村"},{"districts":[],"postal_code":"0288300","city_en":"","city_jp":"下閉伊郡　普代村"},{"districts":[],"postal_code":"0286300","city_en":"","city_jp":"九戸郡　軽米町"},{"districts":[],"postal_code":"0288200","city_en":"","city_jp":"九戸郡　野田村"},{"districts":[],"postal_code":"0286500","city_en":"","city_jp":"九戸郡　九戸村"},{"districts":[],"postal_code":"0287900","city_en":"","city_jp":"九戸郡　洋野町"},{"districts":[],"postal_code":"0285300","city_en":"","city_jp":"二戸郡　一戸町"}],"prefecture_en":"Iwate ken","prefecture_jp":"岩手県"},"Miyagi ken":{"cities":[{"districts":[],"postal_code":"9810916","city_en":"Sendai","city_jp":"仙台市　青葉区"},{"districts":[],"postal_code":"9830000","city_en":"Sendai","city_jp":"仙台市　宮城野区"},{"districts":[],"postal_code":"9840000","city_en":"Sendai","city_jp":"仙台市　若林区"},{"districts":[],"postal_code":"9820000","city_en":"Sendai","city_jp":"仙台市　太白区"},{"districts":[],"postal_code":"9813100","city_en":"Sendai","city_jp":"仙台市　泉区"},{"districts":[],"postal_code":"9860000","city_en":"Ishinomaki","city_jp":"石巻市"},{"districts":[],"postal_code":"9850000","city_en":"Shiogama","city_jp":"塩竈市"},{"districts":[],"postal_code":"9880000","city_en":"Kesennuma","city_jp":"気仙沼市"},{"districts":[],"postal_code":"9890200","city_en":"Shiroishi","city_jp":"白石市"},{"districts":[],"postal_code":"9811200","city_en":"Natori","city_jp":"名取市"},{"districts":[],"postal_code":"9811500","city_en":"Kakuda","city_jp":"角田市"},{"districts":[],"postal_code":"9850000","city_en":"Tagajo","city_jp":"多賀城市"},{"districts":[],"postal_code":"9892400","city_en":"Iwanuma","city_jp":"岩沼市"},{"districts":[],"postal_code":"9870500","city_en":"Tome","city_jp":"登米市"},{"districts":[],"postal_code":"9872200","city_en":"Kurihara","city_jp":"栗原市"},{"districts":[],"postal_code":"9810500","city_en":"Higashimatsushima","city_jp":"東松島市"},{"districts":[],"postal_code":"9896100","city_en":"Osaki","city_jp":"大崎市"},{"districts":[],"postal_code":"9813300","city_en":"Tomiya","city_jp":"富谷市"},{"districts":[],"postal_code":"9890800","city_en":"","city_jp":"刈田郡　蔵王町"},{"districts":[],"postal_code":"9890500","city_en":"Katta gun","city_jp":"刈田郡　七ヶ宿町"},{"districts":[],"postal_code":"9891200","city_en":"","city_jp":"柴田郡　大河原町"},{"districts":[],"postal_code":"9891300","city_en":"","city_jp":"柴田郡　村田町"},{"districts":[],"postal_code":"9891600","city_en":"Shibata gun","city_jp":"柴田郡　柴田町"},{"districts":[],"postal_code":"9891500","city_en":"","city_jp":"柴田郡　川崎町"},{"districts":[],"postal_code":"9812100","city_en":"","city_jp":"伊具郡　丸森町"},{"districts":[],"postal_code":"9892300","city_en":"","city_jp":"亘理郡　亘理町"},{"districts":[],"postal_code":"9892200","city_en":"","city_jp":"亘理郡　山元町"},{"districts":[],"postal_code":"9810200","city_en":"","city_jp":"宮城郡　松島町"},{"districts":[],"postal_code":"9850000","city_en":"Miyagi gun","city_jp":"宮城郡　七ヶ浜町"},{"districts":[],"postal_code":"9810100","city_en":"","city_jp":"宮城郡　利府町"},{"districts":[],"postal_code":"9813600","city_en":"","city_jp":"黒川郡　大和町"},{"districts":[],"postal_code":"9813500","city_en":"","city_jp":"黒川郡　大郷町"},{"districts":[],"postal_code":"9813600","city_en":"","city_jp":"黒川郡　大衡村"},{"districts":[],"postal_code":"9814100","city_en":"Kami gun","city_jp":"加美郡　色麻町"},{"districts":[],"postal_code":"9814200","city_en":"","city_jp":"加美郡　加美町"},{"districts":[],"postal_code":"9870100","city_en":"","city_jp":"遠田郡　涌谷町"},{"districts":[],"postal_code":"9870000","city_en":"","city_jp":"遠田郡　美里町"},{"districts":[],"postal_code":"9862200","city_en":"","city_jp":"牡鹿郡　女川町"},{"districts":[],"postal_code":"9860700","city_en":"","city_jp":"本吉郡　南三陸町"}],"prefecture_en":"Miyagi ken","prefecture_jp":"宮城県"},"Akita ken":{"cities":[{"districts":[],"postal_code":"0100831","city_en":"Akita","city_jp":"秋田市"},{"districts":[],"postal_code":"0160000","city_en":"Noshiro","city_jp":"能代市"},{"districts":[],"postal_code":"0130000","city_en":"Yokote","city_jp":"横手市"},{"districts":[],"postal_code":"0170000","city_en":"Odate","city_jp":"大館市"},{"districts":[],"postal_code":"0100500","city_en":"Oga","city_jp":"男鹿市"},{"districts":[],"postal_code":"0120000","city_en":"Yuzawa","city_jp":"湯沢市"},{"districts":[],"postal_code":"0185200","city_en":"Kazuno","city_jp":"鹿角市"},{"districts":[],"postal_code":"0150000","city_en":"Yurihonjo","city_jp":"由利本荘市"},{"districts":[],"postal_code":"0181400","city_en":"Katagami","city_jp":"潟上市"},{"districts":[],"postal_code":"0140000","city_en":"Daisen","city_jp":"大仙市"},{"districts":[],"postal_code":"0183300","city_en":"Kitaakita","city_jp":"北秋田市"},{"districts":[],"postal_code":"0180400","city_en":"Nikaho","city_jp":"にかほ市"},{"districts":[],"postal_code":"0140300","city_en":"Semboku","city_jp":"仙北市"},{"districts":[],"postal_code":"0170200","city_en":"","city_jp":"鹿角郡　小坂町"},{"districts":[],"postal_code":"0184400","city_en":"","city_jp":"北秋田郡　上小阿仁村"},{"districts":[],"postal_code":"0183200","city_en":"","city_jp":"山本郡　藤里町"},{"districts":[],"postal_code":"0182400","city_en":"","city_jp":"山本郡　三種町"},{"districts":[],"postal_code":"0182500","city_en":"","city_jp":"山本郡　八峰町"},{"districts":[],"postal_code":"0181700","city_en":"","city_jp":"南秋田郡　五城目町"},{"districts":[],"postal_code":"0181600","city_en":"","city_jp":"南秋田郡　八郎潟町"},{"districts":[],"postal_code":"0181500","city_en":"","city_jp":"南秋田郡　井川町"},{"districts":[],"postal_code":"0100400","city_en":"","city_jp":"南秋田郡　大潟村"},{"districts":[],"postal_code":"0191400","city_en":"","city_jp":"仙北郡　美郷町"},{"districts":[],"postal_code":"0121100","city_en":"","city_jp":"雄勝郡　羽後町"},{"districts":[],"postal_code":"0190800","city_en":"","city_jp":"雄勝郡　東成瀬村"}],"prefecture_en":"Akita ken","prefecture_jp":"秋田県"},"Yamagata ken":{"cities":[{"districts":[],"postal_code":"9900055","city_en":"Yamagata","city_jp":"山形市"},{"districts":[],"postal_code":"9920000","city_en":"Yonezawa","city_jp":"米沢市"},{"districts":[],"postal_code":"9970000","city_en":"Tsuruoka","city_jp":"鶴岡市"},{"districts":[],"postal_code":"9980000","city_en":"Sakata","city_jp":"酒田市"},{"districts":[],"postal_code":"9960000","city_en":"Shinjo","city_jp":"新庄市"},{"districts":[],"postal_code":"9910000","city_en":"Sagae","city_jp":"寒河江市"},{"districts":[],"postal_code":"9993100","city_en":"Kaminoyama","city_jp":"上山市"},{"districts":[],"postal_code":"9950000","city_en":"Murayama","city_jp":"村山市"},{"districts":[],"postal_code":"9930000","city_en":"Nagai","city_jp":"長井市"},{"districts":[],"postal_code":"9940000","city_en":"Tendo","city_jp":"天童市"},{"districts":[],"postal_code":"9993700","city_en":"Higashine","city_jp":"東根市"},{"districts":[],"postal_code":"9994200","city_en":"Obanazawa","city_jp":"尾花沢市"},{"districts":[],"postal_code":"9992200","city_en":"Nanyo","city_jp":"南陽市"},{"districts":[],"postal_code":"9900300","city_en":"","city_jp":"東村山郡　山辺町"},{"districts":[],"postal_code":"9900400","city_en":"","city_jp":"東村山郡　中山町"},{"districts":[],"postal_code":"9993500","city_en":"","city_jp":"西村山郡　河北町"},{"districts":[],"postal_code":"9900700","city_en":"","city_jp":"西村山郡　西川町"},{"districts":[],"postal_code":"9901400","city_en":"","city_jp":"西村山郡　朝日町"},{"districts":[],"postal_code":"9901100","city_en":"","city_jp":"西村山郡　大江町"},{"districts":[],"postal_code":"9994100","city_en":"","city_jp":"北村山郡　大石田町"},{"districts":[],"postal_code":"9995400","city_en":"","city_jp":"最上郡　金山町"},{"districts":[],"postal_code":"9996100","city_en":"","city_jp":"最上郡　最上町"},{"districts":[],"postal_code":"9994600","city_en":"","city_jp":"最上郡　舟形町"},{"districts":[],"postal_code":"9995300","city_en":"","city_jp":"最上郡　真室川町"},{"districts":[],"postal_code":"9960200","city_en":"","city_jp":"最上郡　大蔵村"},{"districts":[],"postal_code":"9995200","city_en":"","city_jp":"最上郡　鮭川村"},{"districts":[],"postal_code":"9996400","city_en":"","city_jp":"最上郡　戸沢村"},{"districts":[],"postal_code":"9920300","city_en":"","city_jp":"東置賜郡　高畠町"},{"districts":[],"postal_code":"9990100","city_en":"","city_jp":"東置賜郡　川西町"},{"districts":[],"postal_code":"9991300","city_en":"","city_jp":"西置賜郡　小国町"},{"districts":[],"postal_code":"9920800","city_en":"Nishiokitama gun","city_jp":"西置賜郡　白鷹町"},{"districts":[],"postal_code":"9990600","city_en":"","city_jp":"西置賜郡　飯豊町"},{"districts":[],"postal_code":"9971300","city_en":"","city_jp":"東田川郡　三川町"},{"districts":[],"postal_code":"9997700","city_en":"","city_jp":"東田川郡　庄内町"},{"districts":[],"postal_code":"9998300","city_en":"","city_jp":"飽海郡　遊佐町"}],"prefecture_en":"Yamagata ken","prefecture_jp":"山形県"},"Fukushima ken":{"cities":[{"districts":[],"postal_code":"9608113","city_en":"Fukushima","city_jp":"福島市"},{"districts":[],"postal_code":"9650000","city_en":"Aizuwakamatsu","city_jp":"会津若松市"},{"districts":[],"postal_code":"9630000","city_en":"Koriyama","city_jp":"郡山市"},{"districts":[],"postal_code":"9700000","city_en":"Iwaki","city_jp":"いわき市"},{"districts":[],"postal_code":"9610000","city_en":"Shirakawa","city_jp":"白河市"},{"districts":[],"postal_code":"9620000","city_en":"Sukagawa","city_jp":"須賀川市"},{"districts":[],"postal_code":"9660000","city_en":"Kitakata","city_jp":"喜多方市"},{"districts":[],"postal_code":"9760000","city_en":"Soma","city_jp":"相馬市"},{"districts":[],"postal_code":"9640000","city_en":"Nihommatsu","city_jp":"二本松市"},{"districts":[],"postal_code":"9634300","city_en":"Tamura","city_jp":"田村市"},{"districts":[],"postal_code":"9750000","city_en":"Minamisoma","city_jp":"南相馬市"},{"districts":[],"postal_code":"9600600","city_en":"Date","city_jp":"伊達市"},{"districts":[],"postal_code":"9691100","city_en":"Motomiya","city_jp":"本宮市"},{"districts":[],"postal_code":"9691600","city_en":"","city_jp":"伊達郡　桑折町"},{"districts":[],"postal_code":"9691700","city_en":"","city_jp":"伊達郡　国見町"},{"districts":[],"postal_code":"9601400","city_en":"","city_jp":"伊達郡　川俣町"},{"districts":[],"postal_code":"9691300","city_en":"","city_jp":"安達郡　大玉村"},{"districts":[],"postal_code":"9690400","city_en":"","city_jp":"岩瀬郡　鏡石町"},{"districts":[],"postal_code":"9620500","city_en":"","city_jp":"岩瀬郡　天栄村"},{"districts":[],"postal_code":"9695300","city_en":"Minamiaizu gun","city_jp":"南会津郡　下郷町"},{"districts":[],"postal_code":"9670500","city_en":"","city_jp":"南会津郡　檜枝岐村"},{"districts":[],"postal_code":"9680400","city_en":"","city_jp":"南会津郡　只見町"},{"districts":[],"postal_code":"9670000","city_en":"","city_jp":"南会津郡　南会津町"},{"districts":[],"postal_code":"9660400","city_en":"","city_jp":"耶麻郡　北塩原村"},{"districts":[],"postal_code":"9694400","city_en":"","city_jp":"耶麻郡　西会津町"},{"districts":[],"postal_code":"9693300","city_en":"","city_jp":"耶麻郡　磐梯町"},{"districts":[],"postal_code":"9693100","city_en":"","city_jp":"耶麻郡　猪苗代町"},{"districts":[],"postal_code":"9696500","city_en":"","city_jp":"河沼郡　会津坂下町"},{"districts":[],"postal_code":"9693500","city_en":"","city_jp":"河沼郡　湯川村"},{"districts":[],"postal_code":"9697200","city_en":"","city_jp":"河沼郡　柳津町"},{"districts":[],"postal_code":"9697500","city_en":"","city_jp":"大沼郡　三島町"},{"districts":[],"postal_code":"9680000","city_en":"","city_jp":"大沼郡　金山町"},{"districts":[],"postal_code":"9680100","city_en":"","city_jp":"大沼郡　昭和村"},{"districts":[],"postal_code":"9696200","city_en":"","city_jp":"大沼郡　会津美里町"},{"districts":[],"postal_code":"9610000","city_en":"","city_jp":"西白河郡　西郷村"},{"districts":[],"postal_code":"9690100","city_en":"","city_jp":"西白河郡　泉崎村"},{"districts":[],"postal_code":"9610100","city_en":"","city_jp":"西白河郡　中島村"},{"districts":[],"postal_code":"9690200","city_en":"","city_jp":"西白河郡　矢吹町"},{"districts":[],"postal_code":"9636100","city_en":"","city_jp":"東白川郡　棚倉町"},{"districts":[],"postal_code":"9635100","city_en":"","city_jp":"東白川郡　矢祭町"},{"districts":[],"postal_code":"9635400","city_en":"","city_jp":"東白川郡　塙町"},{"districts":[],"postal_code":"9638400","city_en":"","city_jp":"東白川郡　鮫川村"},{"districts":[],"postal_code":"9637800","city_en":"","city_jp":"石川郡　石川町"},{"districts":[],"postal_code":"9636300","city_en":"","city_jp":"石川郡　玉川村"},{"districts":[],"postal_code":"9638100","city_en":"","city_jp":"石川郡　平田村"},{"districts":[],"postal_code":"9636200","city_en":"","city_jp":"石川郡　浅川町"},{"districts":[],"postal_code":"9638300","city_en":"","city_jp":"石川郡　古殿町"},{"districts":[],"postal_code":"9637700","city_en":"","city_jp":"田村郡　三春町"},{"districts":[],"postal_code":"9633400","city_en":"","city_jp":"田村郡　小野町"},{"districts":[],"postal_code":"9790400","city_en":"","city_jp":"双葉郡　広野町"},{"districts":[],"postal_code":"9790600","city_en":"","city_jp":"双葉郡　楢葉町"},{"districts":[],"postal_code":"9791100","city_en":"","city_jp":"双葉郡　富岡町"},{"districts":[],"postal_code":"9791200","city_en":"","city_jp":"双葉郡　川内村"},{"districts":[],"postal_code":"9791300","city_en":"","city_jp":"双葉郡　大熊町"},{"districts":[],"postal_code":"9791400","city_en":"","city_jp":"双葉郡　双葉町"},{"districts":[],"postal_code":"9791500","city_en":"","city_jp":"双葉郡　浪江町"},{"districts":[],"postal_code":"9791600","city_en":"","city_jp":"双葉郡　葛尾村"},{"districts":[],"postal_code":"9792700","city_en":"Soma gun","city_jp":"相馬郡　新地町"},{"districts":[],"postal_code":"9601600","city_en":"","city_jp":"相馬郡　飯舘村"}],"prefecture_en":"Fukushima ken","prefecture_jp":"福島県"},"Ibaraki ken":{"cities":[{"districts":[],"postal_code":"3100004","city_en":"Mito","city_jp":"水戸市"},{"districts":[],"postal_code":"3170000","city_en":"Hitachi","city_jp":"日立市"},{"districts":[],"postal_code":"3000000","city_en":"Tsuchiura","city_jp":"土浦市"},{"districts":[],"postal_code":"3060000","city_en":"Koga","city_jp":"古河市"},{"districts":[],"postal_code":"3150000","city_en":"Ishioka","city_jp":"石岡市"},{"districts":[],"postal_code":"3070000","city_en":"Yuki","city_jp":"結城市"},{"districts":[],"postal_code":"3010000","city_en":"Ryugasaki","city_jp":"龍ケ崎市"},{"districts":[],"postal_code":"3040000","city_en":"Shimotsuma","city_jp":"下妻市"},{"districts":[],"postal_code":"3030000","city_en":"Joso","city_jp":"常総市"},{"districts":[],"postal_code":"3130000","city_en":"Hitachiota","city_jp":"常陸太田市"},{"districts":[],"postal_code":"3180000","city_en":"Takahagi","city_jp":"高萩市"},{"districts":[],"postal_code":"3191500","city_en":"Kitaibaraki","city_jp":"北茨城市"},{"districts":[],"postal_code":"3091600","city_en":"Kasama","city_jp":"笠間市"},{"districts":[],"postal_code":"3020000","city_en":"Toride","city_jp":"取手市"},{"districts":[],"postal_code":"3001200","city_en":"Ushiku","city_jp":"牛久市"},{"districts":[],"postal_code":"3050000","city_en":"Tsukuba","city_jp":"つくば市"},{"districts":[],"postal_code":"3120000","city_en":"Hitachinaka","city_jp":"ひたちなか市"},{"districts":[],"postal_code":"3140000","city_en":"Kashima","city_jp":"鹿嶋市"},{"districts":[],"postal_code":"3112400","city_en":"Itako","city_jp":"潮来市"},{"districts":[],"postal_code":"3020100","city_en":"Moriya","city_jp":"守谷市"},{"districts":[],"postal_code":"3192200","city_en":"Hitachiomiya","city_jp":"常陸大宮市"},{"districts":[],"postal_code":"3110100","city_en":"Naka","city_jp":"那珂市"},{"districts":[],"postal_code":"3080000","city_en":"Chikusei","city_jp":"筑西市"},{"districts":[],"postal_code":"3060600","city_en":"Bando","city_jp":"坂東市"},{"districts":[],"postal_code":"3000500","city_en":"Inashiki","city_jp":"稲敷市"},{"districts":[],"postal_code":"3150000","city_en":"Kasumigaura","city_jp":"かすみがうら市"},{"districts":[],"postal_code":"3091200","city_en":"Sakuragawa","city_jp":"桜川市"},{"districts":[],"postal_code":"3140100","city_en":"Kamisu","city_jp":"神栖市"},{"districts":[],"postal_code":"3113800","city_en":"Namegata","city_jp":"行方市"},{"districts":[],"postal_code":"3111500","city_en":"Hokota","city_jp":"鉾田市"},{"districts":[],"postal_code":"3002300","city_en":"Tsukubamirai","city_jp":"つくばみらい市"},{"districts":[],"postal_code":"3190100","city_en":"Omitama","city_jp":"小美玉市"},{"districts":[],"postal_code":"3113100","city_en":"","city_jp":"東茨城郡　茨城町"},{"districts":[],"postal_code":"3111300","city_en":"","city_jp":"東茨城郡　大洗町"},{"districts":[],"postal_code":"3114300","city_en":"Higashiibaraki gun","city_jp":"東茨城郡　城里町"},{"districts":[],"postal_code":"3191100","city_en":"","city_jp":"那珂郡　東海村"},{"districts":[],"postal_code":"3193500","city_en":"","city_jp":"久慈郡　大子町"},{"districts":[],"postal_code":"3000400","city_en":"","city_jp":"稲敷郡　美浦村"},{"districts":[],"postal_code":"3000300","city_en":"","city_jp":"稲敷郡　阿見町"},{"districts":[],"postal_code":"3001300","city_en":"","city_jp":"稲敷郡　河内町"},{"districts":[],"postal_code":"3003500","city_en":"","city_jp":"結城郡　八千代町"},{"districts":[],"postal_code":"3060300","city_en":"","city_jp":"猿島郡　五霞町"},{"districts":[],"postal_code":"3060400","city_en":"","city_jp":"猿島郡　境町"},{"districts":[],"postal_code":"3001600","city_en":"","city_jp":"北相馬郡　利根町"}],"prefecture_en":"Ibaraki ken","prefecture_jp":"茨城県"},"Tochigi ken":{"cities":[{"districts":[],"postal_code":"3291113","city_en":"Utsunomiya","city_jp":"宇都宮市"},{"districts":[],"postal_code":"3260000","city_en":"Ashikaga","city_jp":"足利市"},{"districts":[],"postal_code":"3280000","city_en":"Tochigi","city_jp":"栃木市"},{"districts":[],"postal_code":"3270000","city_en":"Sano","city_jp":"佐野市"},{"districts":[],"postal_code":"3220000","city_en":"Kanuma","city_jp":"鹿沼市"},{"districts":[],"postal_code":"3211200","city_en":"Nikko","city_jp":"日光市"},{"districts":[],"postal_code":"3230000","city_en":"Oyama","city_jp":"小山市"},{"districts":[],"postal_code":"3214300","city_en":"Moka","city_jp":"真岡市"},{"districts":[],"postal_code":"3240000","city_en":"Otawara","city_jp":"大田原市"},{"districts":[],"postal_code":"3292100","city_en":"Yaita","city_jp":"矢板市"},{"districts":[],"postal_code":"3250000","city_en":"Nasushiobara","city_jp":"那須塩原市"},{"districts":[],"postal_code":"3291300","city_en":"Sakura","city_jp":"さくら市"},{"districts":[],"postal_code":"3210600","city_en":"Nasukarasuyama","city_jp":"那須烏山市"},{"districts":[],"postal_code":"3290400","city_en":"Shimotsuke","city_jp":"下野市"},{"districts":[],"postal_code":"3290600","city_en":"","city_jp":"河内郡　上三川町"},{"districts":[],"postal_code":"3214200","city_en":"","city_jp":"芳賀郡　益子町"},{"districts":[],"postal_code":"3213500","city_en":"","city_jp":"芳賀郡　茂木町"},{"districts":[],"postal_code":"3213400","city_en":"","city_jp":"芳賀郡　市貝町"},{"districts":[],"postal_code":"3213300","city_en":"","city_jp":"芳賀郡　芳賀町"},{"districts":[],"postal_code":"3210200","city_en":"","city_jp":"下都賀郡　壬生町"},{"districts":[],"postal_code":"3290100","city_en":"","city_jp":"下都賀郡　野木町"},{"districts":[],"postal_code":"3292200","city_en":"Shioya gun","city_jp":"塩谷郡　塩谷町"},{"districts":[],"postal_code":"3291200","city_en":"","city_jp":"塩谷郡　高根沢町"},{"districts":[],"postal_code":"3293200","city_en":"","city_jp":"那須郡　那須町"},{"districts":[],"postal_code":"3240600","city_en":"","city_jp":"那須郡　那珂川町"}],"prefecture_en":"Tochigi ken","prefecture_jp":"栃木県"},"Gumma ken":{"cities":[{"districts":[],"postal_code":"3703573","city_en":"Maebashi","city_jp":"前橋市"},{"districts":[],"postal_code":"3700000","city_en":"Takasaki","city_jp":"高崎市"},{"districts":[],"postal_code":"3760000","city_en":"Kiryu","city_jp":"桐生市"},{"districts":[],"postal_code":"3720000","city_en":"Isesaki","city_jp":"伊勢崎市"},{"districts":[],"postal_code":"3730000","city_en":"Ota","city_jp":"太田市"},{"districts":[],"postal_code":"3780000","city_en":"Numata","city_jp":"沼田市"},{"districts":[],"postal_code":"3740000","city_en":"Tatebayashi","city_jp":"館林市"},{"districts":[],"postal_code":"3770000","city_en":"Shibukawa","city_jp":"渋川市"},{"districts":[],"postal_code":"3750000","city_en":"Fujioka","city_jp":"藤岡市"},{"districts":[],"postal_code":"3702300","city_en":"Tomioka","city_jp":"富岡市"},{"districts":[],"postal_code":"3790100","city_en":"Annaka","city_jp":"安中市"},{"districts":[],"postal_code":"3760100","city_en":"Midori","city_jp":"みどり市"},{"districts":[],"postal_code":"3703500","city_en":"Kitagumma gun","city_jp":"北群馬郡　榛東村"},{"districts":[],"postal_code":"3703600","city_en":"","city_jp":"北群馬郡　吉岡町"},{"districts":[],"postal_code":"3701600","city_en":"","city_jp":"多野郡　上野村"},{"districts":[],"postal_code":"3701600","city_en":"","city_jp":"多野郡　神流町"},{"districts":[],"postal_code":"3702600","city_en":"Kanra gun","city_jp":"甘楽郡　下仁田町"},{"districts":[],"postal_code":"3702800","city_en":"","city_jp":"甘楽郡　南牧村"},{"districts":[],"postal_code":"3702200","city_en":"","city_jp":"甘楽郡　甘楽町"},{"districts":[],"postal_code":"3770400","city_en":"","city_jp":"吾妻郡　中之条町"},{"districts":[],"postal_code":"3771300","city_en":"","city_jp":"吾妻郡　長野原町"},{"districts":[],"postal_code":"3771500","city_en":"","city_jp":"吾妻郡　嬬恋村"},{"districts":[],"postal_code":"3771700","city_en":"","city_jp":"吾妻郡　草津町"},{"districts":[],"postal_code":"3770700","city_en":"","city_jp":"吾妻郡　高山村"},{"districts":[],"postal_code":"3770800","city_en":"","city_jp":"吾妻郡　東吾妻町"},{"districts":[],"postal_code":"3780400","city_en":"","city_jp":"利根郡　片品村"},{"districts":[],"postal_code":"3780100","city_en":"","city_jp":"利根郡　川場村"},{"districts":[],"postal_code":"3791200","city_en":"","city_jp":"利根郡　昭和村"},{"districts":[],"postal_code":"3791300","city_en":"","city_jp":"利根郡　みなかみ町"},{"districts":[],"postal_code":"3701100","city_en":"","city_jp":"佐波郡　玉村町"},{"districts":[],"postal_code":"3740100","city_en":"","city_jp":"邑楽郡　板倉町"},{"districts":[],"postal_code":"3700700","city_en":"","city_jp":"邑楽郡　明和町"},{"districts":[],"postal_code":"3700500","city_en":"","city_jp":"邑楽郡　千代田町"},{"districts":[],"postal_code":"3700500","city_en":"","city_jp":"邑楽郡　大泉町"},{"districts":[],"postal_code":"3700600","city_en":"","city_jp":"邑楽郡　邑楽町"}],"prefecture_en":"Gumma ken","prefecture_jp":"群馬県"},"Saitama ken":{"cities":[{"districts":[],"postal_code":"3310058","city_en":"Saitama","city_jp":"さいたま市　西区"},{"districts":[],"postal_code":"3310800","city_en":"Saitama","city_jp":"さいたま市　北区"},{"districts":[],"postal_code":"3300800","city_en":"Saitama","city_jp":"さいたま市　大宮区"},{"districts":[],"postal_code":"3370000","city_en":"Saitama","city_jp":"さいたま市　見沼区"},{"districts":[],"postal_code":"3300000","city_en":"Saitama","city_jp":"さいたま市　中央区"},{"districts":[],"postal_code":"3380800","city_en":"Saitama","city_jp":"さいたま市　桜区"},{"districts":[],"postal_code":"3300000","city_en":"Saitama","city_jp":"さいたま市　浦和区"},{"districts":[],"postal_code":"3360000","city_en":"Saitama","city_jp":"さいたま市　南区"},{"districts":[],"postal_code":"3360900","city_en":"Saitama","city_jp":"さいたま市　緑区"},{"districts":[],"postal_code":"3390000","city_en":"Saitama","city_jp":"さいたま市　岩槻区"},{"districts":[],"postal_code":"3501100","city_en":"Kawagoe","city_jp":"川越市"},{"districts":[],"postal_code":"3600000","city_en":"Kumagaya","city_jp":"熊谷市"},{"districts":[],"postal_code":"3320000","city_en":"Kawaguchi","city_jp":"川口市"},{"districts":[],"postal_code":"3610000","city_en":"Gyoda","city_jp":"行田市"},{"districts":[],"postal_code":"3680000","city_en":"Chichibu","city_jp":"秩父市"},{"districts":[],"postal_code":"3590000","city_en":"Tokorozawa","city_jp":"所沢市"},{"districts":[],"postal_code":"3570000","city_en":"Hanno","city_jp":"飯能市"},{"districts":[],"postal_code":"3470000","city_en":"Kazo","city_jp":"加須市"},{"districts":[],"postal_code":"3670000","city_en":"Honjo","city_jp":"本庄市"},{"districts":[],"postal_code":"3550000","city_en":"Higashimatsuyama","city_jp":"東松山市"},{"districts":[],"postal_code":"3440000","city_en":"Kasukabe","city_jp":"春日部市"},{"districts":[],"postal_code":"3501300","city_en":"Sayama","city_jp":"狭山市"},{"districts":[],"postal_code":"3480000","city_en":"Hanyu","city_jp":"羽生市"},{"districts":[],"postal_code":"3650000","city_en":"Konosu","city_jp":"鴻巣市"},{"districts":[],"postal_code":"3660000","city_en":"Fukaya","city_jp":"深谷市"},{"districts":[],"postal_code":"3620000","city_en":"Ageo","city_jp":"上尾市"},{"districts":[],"postal_code":"3400000","city_en":"Soka","city_jp":"草加市"},{"districts":[],"postal_code":"3430000","city_en":"Koshigaya","city_jp":"越谷市"},{"districts":[],"postal_code":"3350000","city_en":"Warabi","city_jp":"蕨市"},{"districts":[],"postal_code":"3350000","city_en":"Toda","city_jp":"戸田市"},{"districts":[],"postal_code":"3580000","city_en":"Iruma","city_jp":"入間市"},{"districts":[],"postal_code":"3510000","city_en":"Asaka","city_jp":"朝霞市"},{"districts":[],"postal_code":"3530000","city_en":"Shiki","city_jp":"志木市"},{"districts":[],"postal_code":"3510100","city_en":"Wako","city_jp":"和光市"},{"districts":[],"postal_code":"3520000","city_en":"Niiza","city_jp":"新座市"},{"districts":[],"postal_code":"3630000","city_en":"Okegawa","city_jp":"桶川市"},{"districts":[],"postal_code":"3460000","city_en":"Kuki","city_jp":"久喜市"},{"districts":[],"postal_code":"3640000","city_en":"Kitamoto","city_jp":"北本市"},{"districts":[],"postal_code":"3400800","city_en":"Yashio","city_jp":"八潮市"},{"districts":[],"postal_code":"3540000","city_en":"Fujimi","city_jp":"富士見市"},{"districts":[],"postal_code":"3410000","city_en":"Misato","city_jp":"三郷市"},{"districts":[],"postal_code":"3490100","city_en":"Hasuda","city_jp":"蓮田市"},{"districts":[],"postal_code":"3500200","city_en":"Sakado","city_jp":"坂戸市"},{"districts":[],"postal_code":"3400100","city_en":"Satte","city_jp":"幸手市"},{"districts":[],"postal_code":"3502200","city_en":"Tsurugashima","city_jp":"鶴ヶ島市"},{"districts":[],"postal_code":"3501200","city_en":"Hidaka","city_jp":"日高市"},{"districts":[],"postal_code":"3420000","city_en":"Yoshikawa","city_jp":"吉川市"},{"districts":[],"postal_code":"3560000","city_en":"Fujimino","city_jp":"ふじみ野市"},{"districts":[],"postal_code":"3490200","city_en":"Shiraoka","city_jp":"白岡市"},{"districts":[],"postal_code":"3620800","city_en":"","city_jp":"北足立郡　伊奈町"},{"districts":[],"postal_code":"3540000","city_en":"","city_jp":"入間郡　三芳町"},{"districts":[],"postal_code":"3500400","city_en":"","city_jp":"入間郡　毛呂山町"},{"districts":[],"postal_code":"3500400","city_en":"","city_jp":"入間郡　越生町"},{"districts":[],"postal_code":"3550800","city_en":"","city_jp":"比企郡　滑川町"},{"districts":[],"postal_code":"3550200","city_en":"","city_jp":"比企郡　嵐山町"},{"districts":[],"postal_code":"3550300","city_en":"","city_jp":"比企郡　小川町"},{"districts":[],"postal_code":"3500100","city_en":"","city_jp":"比企郡　川島町"},{"districts":[],"postal_code":"3550100","city_en":"","city_jp":"比企郡　吉見町"},{"districts":[],"postal_code":"3500300","city_en":"","city_jp":"比企郡　鳩山町"},{"districts":[],"postal_code":"3550300","city_en":"","city_jp":"比企郡　ときがわ町"},{"districts":[],"postal_code":"3680000","city_en":"","city_jp":"秩父郡　横瀬町"},{"districts":[],"postal_code":"3691400","city_en":"","city_jp":"秩父郡　皆野町"},{"districts":[],"postal_code":"3691300","city_en":"","city_jp":"秩父郡　長瀞町"},{"districts":[],"postal_code":"3680100","city_en":"","city_jp":"秩父郡　小鹿野町"},{"districts":[],"postal_code":"3550300","city_en":"","city_jp":"秩父郡　東秩父村"},{"districts":[],"postal_code":"3670100","city_en":"","city_jp":"児玉郡　美里町"},{"districts":[],"postal_code":"3670200","city_en":"","city_jp":"児玉郡　神川町"},{"districts":[],"postal_code":"3690300","city_en":"","city_jp":"児玉郡　上里町"},{"districts":[],"postal_code":"3691200","city_en":"","city_jp":"大里郡　寄居町"},{"districts":[],"postal_code":"3450000","city_en":"","city_jp":"南埼玉郡　宮代町"},{"districts":[],"postal_code":"3450000","city_en":"","city_jp":"北葛飾郡　杉戸町"},{"districts":[],"postal_code":"3430100","city_en":"","city_jp":"北葛飾郡　松伏町"}],"prefecture_en":"Saitama ken","prefecture_jp":"埼玉県"},"Chiba ken":{"cities":[{"districts":[],"postal_code":"2600852","city_en":"Chiba","city_jp":"千葉市　中央区"},{"districts":[],"postal_code":"2620000","city_en":"Chiba","city_jp":"千葉市　花見川区"},{"districts":[],"postal_code":"2630000","city_en":"Chiba","city_jp":"千葉市　稲毛区"},{"districts":[],"postal_code":"2640000","city_en":"Chiba","city_jp":"千葉市　若葉区"},{"districts":[],"postal_code":"2660000","city_en":"Chiba","city_jp":"千葉市　緑区"},{"districts":[],"postal_code":"2610000","city_en":"Chiba","city_jp":"千葉市　美浜区"},{"districts":[],"postal_code":"2880000","city_en":"Choshi","city_jp":"銚子市"},{"districts":[],"postal_code":"2720000","city_en":"Ichikawa","city_jp":"市川市"},{"districts":[],"postal_code":"2730000","city_en":"Funabashi","city_jp":"船橋市"},{"districts":[],"postal_code":"2940000","city_en":"Tateyama","city_jp":"館山市"},{"districts":[],"postal_code":"2920000","city_en":"Kisarazu","city_jp":"木更津市"},{"districts":[],"postal_code":"2700000","city_en":"Matsudo","city_jp":"松戸市"},{"districts":[],"postal_code":"2780000","city_en":"Noda","city_jp":"野田市"},{"districts":[],"postal_code":"2970000","city_en":"Mobara","city_jp":"茂原市"},{"districts":[],"postal_code":"2860000","city_en":"Narita","city_jp":"成田市"},{"districts":[],"postal_code":"2850000","city_en":"Sakura","city_jp":"佐倉市"},{"districts":[],"postal_code":"2830000","city_en":"Togane","city_jp":"東金市"},{"districts":[],"postal_code":"2892500","city_en":"Asahi","city_jp":"旭市"},{"districts":[],"postal_code":"2750000","city_en":"Narashino","city_jp":"習志野市"},{"districts":[],"postal_code":"2770000","city_en":"Kashiwa","city_jp":"柏市"},{"districts":[],"postal_code":"2995200","city_en":"Katsura","city_jp":"勝浦市"},{"districts":[],"postal_code":"2900000","city_en":"Ichihara","city_jp":"市原市"},{"districts":[],"postal_code":"2700100","city_en":"Nagareyama","city_jp":"流山市"},{"districts":[],"postal_code":"2760000","city_en":"Yachiyo","city_jp":"八千代市"},{"districts":[],"postal_code":"2701100","city_en":"Abiko","city_jp":"我孫子市"},{"districts":[],"postal_code":"2960000","city_en":"Kamogawa","city_jp":"鴨川市"},{"districts":[],"postal_code":"2730100","city_en":"Kamagaya","city_jp":"鎌ケ谷市"},{"districts":[],"postal_code":"2991100","city_en":"Kimitsu","city_jp":"君津市"},{"districts":[],"postal_code":"2930000","city_en":"Futtsu","city_jp":"富津市"},{"districts":[],"postal_code":"2790000","city_en":"Urayasu","city_jp":"浦安市"},{"districts":[],"postal_code":"2840000","city_en":"Yotsukaido","city_jp":"四街道市"},{"districts":[],"postal_code":"2990200","city_en":"Sodegaura","city_jp":"袖ケ浦市"},{"districts":[],"postal_code":"2891100","city_en":"Yachimata","city_jp":"八街市"},{"districts":[],"postal_code":"2701300","city_en":"Inzai","city_jp":"印西市"},{"districts":[],"postal_code":"2701400","city_en":"Shiroi","city_jp":"白井市"},{"districts":[],"postal_code":"2860200","city_en":"Tomisato","city_jp":"富里市"},{"districts":[],"postal_code":"2992400","city_en":"Minamiboso","city_jp":"南房総市"},{"districts":[],"postal_code":"2892100","city_en":"Sosa","city_jp":"匝瑳市"},{"districts":[],"postal_code":"2870000","city_en":"Katori","city_jp":"香取市"},{"districts":[],"postal_code":"2891300","city_en":"Sammu","city_jp":"山武市"},{"districts":[],"postal_code":"2980000","city_en":"Isumi","city_jp":"いすみ市"},{"districts":[],"postal_code":"2993200","city_en":"Oamishirasato","city_jp":"大網白里市"},{"districts":[],"postal_code":"2850900","city_en":"Imba gun","city_jp":"印旛郡　酒々井町"},{"districts":[],"postal_code":"2701500","city_en":"","city_jp":"印旛郡　栄町"},{"districts":[],"postal_code":"2890100","city_en":"","city_jp":"香取郡　神崎町"},{"districts":[],"postal_code":"2892200","city_en":"","city_jp":"香取郡　多古町"},{"districts":[],"postal_code":"2890600","city_en":"","city_jp":"香取郡　東庄町"},{"districts":[],"postal_code":"2830100","city_en":"","city_jp":"山武郡　九十九里町"},{"districts":[],"postal_code":"2891600","city_en":"Sambu gun","city_jp":"山武郡　芝山町"},{"districts":[],"postal_code":"2891700","city_en":"","city_jp":"山武郡　横芝光町"},{"districts":[],"postal_code":"2994300","city_en":"","city_jp":"長生郡　一宮町"},{"districts":[],"postal_code":"2994400","city_en":"","city_jp":"長生郡　睦沢町"},{"districts":[],"postal_code":"2994300","city_en":"","city_jp":"長生郡　長生村"},{"districts":[],"postal_code":"2994200","city_en":"Chosei gun","city_jp":"長生郡　白子町"},{"districts":[],"postal_code":"2970200","city_en":"","city_jp":"長生郡　長柄町"},{"districts":[],"postal_code":"2970100","city_en":"","city_jp":"長生郡　長南町"},{"districts":[],"postal_code":"2980200","city_en":"","city_jp":"夷隅郡　大多喜町"},{"districts":[],"postal_code":"2995100","city_en":"","city_jp":"夷隅郡　御宿町"},{"districts":[],"postal_code":"2992100","city_en":"","city_jp":"安房郡　鋸南町"}],"prefecture_en":"Chiba ken","prefecture_jp":"千葉県"},"Tokyo to":{"cities":[{"districts":[],"postal_code":"1020072","city_en":"","city_jp":"千代田区"},{"districts":[],"postal_code":"1030000","city_en":"","city_jp":"中央区"},{"districts":[],"postal_code":"1050000","city_en":"","city_jp":"港区"},{"districts":[],"postal_code":"1600000","city_en":"","city_jp":"新宿区"},{"districts":[],"postal_code":"1120000","city_en":"","city_jp":"文京区"},{"districts":[],"postal_code":"1100000","city_en":"","city_jp":"台東区"},{"districts":[],"postal_code":"1300000","city_en":"","city_jp":"墨田区"},{"districts":[],"postal_code":"1350000","city_en":"","city_jp":"江東区"},{"districts":[],"postal_code":"1400000","city_en":"","city_jp":"品川区"},{"districts":[],"postal_code":"1520000","city_en":"","city_jp":"目黒区"},{"districts":[],"postal_code":"1440000","city_en":"","city_jp":"大田区"},{"districts":[],"postal_code":"1540000","city_en":"","city_jp":"世田谷区"},{"districts":[],"postal_code":"1500000","city_en":"","city_jp":"渋谷区"},{"districts":[],"postal_code":"1640000","city_en":"","city_jp":"中野区"},{"districts":[],"postal_code":"1660000","city_en":"","city_jp":"杉並区"},{"districts":[],"postal_code":"1700000","city_en":"","city_jp":"豊島区"},{"districts":[],"postal_code":"1140000","city_en":"","city_jp":"北区"},{"districts":[],"postal_code":"1160000","city_en":"","city_jp":"荒川区"},{"districts":[],"postal_code":"1740000","city_en":"","city_jp":"板橋区"},{"districts":[],"postal_code":"1760000","city_en":"","city_jp":"練馬区"},{"districts":[],"postal_code":"1200000","city_en":"","city_jp":"足立区"},{"districts":[],"postal_code":"1240000","city_en":"","city_jp":"葛飾区"},{"districts":[],"postal_code":"1320000","city_en":"","city_jp":"江戸川区"},{"districts":[],"postal_code":"1920000","city_en":"Hachioji","city_jp":"八王子市"},{"districts":[],"postal_code":"1900000","city_en":"Tachikawa","city_jp":"立川市"},{"districts":[],"postal_code":"1800000","city_en":"Musashino","city_jp":"武蔵野市"},{"districts":[],"postal_code":"1810000","city_en":"Mitaka","city_jp":"三鷹市"},{"districts":[],"postal_code":"1980000","city_en":"Ome","city_jp":"青梅市"},{"districts":[],"postal_code":"1830000","city_en":"Fuchu","city_jp":"府中市"},{"districts":[],"postal_code":"1960000","city_en":"Akishima","city_jp":"昭島市"},{"districts":[],"postal_code":"1820000","city_en":"Chofu","city_jp":"調布市"},{"districts":[],"postal_code":"1940000","city_en":"Machida","city_jp":"町田市"},{"districts":[],"postal_code":"1840000","city_en":"Koganei","city_jp":"小金井市"},{"districts":[],"postal_code":"1870000","city_en":"Kodaira","city_jp":"小平市"},{"districts":[],"postal_code":"1910000","city_en":"Hino","city_jp":"日野市"},{"districts":[],"postal_code":"1890000","city_en":"Higashimurayama","city_jp":"東村山市"},{"districts":[],"postal_code":"1850000","city_en":"Kokubunji","city_jp":"国分寺市"},{"districts":[],"postal_code":"1860000","city_en":"Kunitachi","city_jp":"国立市"},{"districts":[],"postal_code":"1970000","city_en":"Fussa","city_jp":"福生市"},{"districts":[],"postal_code":"2010000","city_en":"Komae","city_jp":"狛江市"},{"districts":[],"postal_code":"2070000","city_en":"Higashiyamato","city_jp":"東大和市"},{"districts":[],"postal_code":"2040000","city_en":"Kiyose","city_jp":"清瀬市"},{"districts":[],"postal_code":"2030000","city_en":"Higashikurume","city_jp":"東久留米市"},{"districts":[],"postal_code":"2080000","city_en":"Musashimurayama","city_jp":"武蔵村山市"},{"districts":[],"postal_code":"2060000","city_en":"Tama","city_jp":"多摩市"},{"districts":[],"postal_code":"2060000","city_en":"Inagi","city_jp":"稲城市"},{"districts":[],"postal_code":"2050000","city_en":"Hamura","city_jp":"羽村市"},{"districts":[],"postal_code":"1900100","city_en":"Akiruno","city_jp":"あきる野市"},{"districts":[],"postal_code":"2020000","city_en":"Nishitokyo","city_jp":"西東京市"},{"districts":[],"postal_code":"1901200","city_en":"","city_jp":"西多摩郡　瑞穂町"},{"districts":[],"postal_code":"1900100","city_en":"","city_jp":"西多摩郡　日の出町"},{"districts":[],"postal_code":"1900200","city_en":"","city_jp":"西多摩郡　檜原村"},{"districts":[],"postal_code":"1980000","city_en":"","city_jp":"西多摩郡　奥多摩町"},{"districts":[],"postal_code":"1000100","city_en":"","city_jp":"大島町"},{"districts":{"postal_code":"1000301","district_en":"","district_jp":""},"postal_code":"1000301","city_en":"","city_jp":"利島村"},{"districts":[],"postal_code":"1000400","city_en":"","city_jp":"新島村"},{"districts":{"postal_code":"1000601","district_en":"","district_jp":""},"postal_code":"1000601","city_en":"","city_jp":"神津島村"},{"districts":[],"postal_code":"1001100","city_en":"","city_jp":"三宅島　三宅村"},{"districts":{"postal_code":"1001301","district_en":"","district_jp":""},"postal_code":"1001301","city_en":"","city_jp":"御蔵島村"},{"districts":[],"postal_code":"1001400","city_en":"","city_jp":"八丈島　八丈町"},{"districts":{"postal_code":"1001701","district_en":"","district_jp":""},"postal_code":"1001701","city_en":"","city_jp":"青ヶ島村"},{"districts":[],"postal_code":"1002100","city_en":"","city_jp":"小笠原村"}],"prefecture_en":"Tokyo to","prefecture_jp":"東京都"},"Kanagawa ken":{"cities":[{"districts":[],"postal_code":"2300033","city_en":"Yokohama","city_jp":"横浜市　鶴見区"},{"districts":[],"postal_code":"2210000","city_en":"Yokohama","city_jp":"横浜市　神奈川区"},{"districts":[],"postal_code":"2200000","city_en":"Yokohama","city_jp":"横浜市　西区"},{"districts":[],"postal_code":"2310000","city_en":"Yokohama","city_jp":"横浜市　中区"},{"districts":[],"postal_code":"2320000","city_en":"Yokohama","city_jp":"横浜市　南区"},{"districts":[],"postal_code":"2400000","city_en":"Yokohama","city_jp":"横浜市　保土ケ谷区"},{"districts":[],"postal_code":"2350000","city_en":"Yokohama","city_jp":"横浜市　磯子区"},{"districts":[],"postal_code":"2360000","city_en":"Yokohama","city_jp":"横浜市　金沢区"},{"districts":[],"postal_code":"2220000","city_en":"Yokohama","city_jp":"横浜市　港北区"},{"districts":[],"postal_code":"2440000","city_en":"Yokohama","city_jp":"横浜市　戸塚区"},{"districts":[],"postal_code":"2330000","city_en":"Yokohama","city_jp":"横浜市　港南区"},{"districts":[],"postal_code":"2410000","city_en":"Yokohama","city_jp":"横浜市　旭区"},{"districts":[],"postal_code":"2260000","city_en":"Yokohama","city_jp":"横浜市　緑区"},{"districts":[],"postal_code":"2460000","city_en":"Yokohama","city_jp":"横浜市　瀬谷区"},{"districts":[],"postal_code":"2470000","city_en":"Yokohama","city_jp":"横浜市　栄区"},{"districts":[],"postal_code":"2450000","city_en":"Yokohama","city_jp":"横浜市　泉区"},{"districts":[],"postal_code":"2270000","city_en":"Yokohama","city_jp":"横浜市　青葉区"},{"districts":[],"postal_code":"2240000","city_en":"Yokohama","city_jp":"横浜市　都筑区"},{"districts":[],"postal_code":"2100000","city_en":"Kawasaki","city_jp":"川崎市　川崎区"},{"districts":[],"postal_code":"2120000","city_en":"Kawasaki","city_jp":"川崎市　幸区"},{"districts":[],"postal_code":"2110000","city_en":"Kawasaki","city_jp":"川崎市　中原区"},{"districts":[],"postal_code":"2130000","city_en":"Kawasaki","city_jp":"川崎市　高津区"},{"districts":[],"postal_code":"2140000","city_en":"Kawasaki","city_jp":"川崎市　多摩区"},{"districts":[],"postal_code":"2160000","city_en":"Kawasaki","city_jp":"川崎市　宮前区"},{"districts":[],"postal_code":"2150000","city_en":"Kawasaki","city_jp":"川崎市　麻生区"},{"districts":[],"postal_code":"2520100","city_en":"Sagamihara","city_jp":"相模原市　緑区"},{"districts":[],"postal_code":"2520200","city_en":"Sagamihara","city_jp":"相模原市　中央区"},{"districts":[],"postal_code":"2520300","city_en":"Sagamihara","city_jp":"相模原市　南区"},{"districts":[],"postal_code":"2380000","city_en":"Yokosuka","city_jp":"横須賀市"},{"districts":[],"postal_code":"2540000","city_en":"Hiratsuka","city_jp":"平塚市"},{"districts":[],"postal_code":"2480000","city_en":"Kamakura","city_jp":"鎌倉市"},{"districts":[],"postal_code":"2510000","city_en":"Fujisawa","city_jp":"藤沢市"},{"districts":[],"postal_code":"2500000","city_en":"Odawara","city_jp":"小田原市"},{"districts":[],"postal_code":"2530000","city_en":"Chigasaki","city_jp":"茅ヶ崎市"},{"districts":[],"postal_code":"2490000","city_en":"Zushi","city_jp":"逗子市"},{"districts":[],"postal_code":"2380200","city_en":"Miura","city_jp":"三浦市"},{"districts":[],"postal_code":"2570000","city_en":"Hadano","city_jp":"秦野市"},{"districts":[],"postal_code":"2430000","city_en":"Atsugi","city_jp":"厚木市"},{"districts":[],"postal_code":"2420000","city_en":"Yamato","city_jp":"大和市"},{"districts":[],"postal_code":"2591100","city_en":"Isehara","city_jp":"伊勢原市"},{"districts":[],"postal_code":"2430400","city_en":"Ebina","city_jp":"海老名市"},{"districts":[],"postal_code":"2520000","city_en":"Zama","city_jp":"座間市"},{"districts":[],"postal_code":"2500100","city_en":"Minamiashigara","city_jp":"南足柄市"},{"districts":[],"postal_code":"2521100","city_en":"Ayase","city_jp":"綾瀬市"},{"districts":[],"postal_code":"2400100","city_en":"","city_jp":"三浦郡　葉山町"},{"districts":[],"postal_code":"2530100","city_en":"","city_jp":"高座郡　寒川町"},{"districts":[],"postal_code":"2550000","city_en":"","city_jp":"中郡　大磯町"},{"districts":[],"postal_code":"2590100","city_en":"","city_jp":"中郡　二宮町"},{"districts":[],"postal_code":"2590100","city_en":"","city_jp":"足柄上郡　中井町"},{"districts":[],"postal_code":"2580000","city_en":"","city_jp":"足柄上郡　大井町"},{"districts":[],"postal_code":"2580000","city_en":"","city_jp":"足柄上郡　松田町"},{"districts":[],"postal_code":"2580100","city_en":"","city_jp":"足柄上郡　山北町"},{"districts":[],"postal_code":"2580000","city_en":"","city_jp":"足柄上郡　開成町"},{"districts":[],"postal_code":"2500500","city_en":"","city_jp":"足柄下郡　箱根町"},{"districts":[],"postal_code":"2590200","city_en":"","city_jp":"足柄下郡　真鶴町"},{"districts":[],"postal_code":"2590300","city_en":"","city_jp":"足柄下郡　湯河原町"},{"districts":[],"postal_code":"2430300","city_en":"","city_jp":"愛甲郡　愛川町"},{"districts":[],"postal_code":"2430100","city_en":"","city_jp":"愛甲郡　清川村"}],"prefecture_en":"Kanagawa ken","prefecture_jp":"神奈川県"},"Niigata ken":{"cities":[{"districts":[],"postal_code":"9503315","city_en":"Niigata","city_jp":"新潟市　北区"},{"districts":[],"postal_code":"9500000","city_en":"Niigata","city_jp":"新潟市　東区"},{"districts":[],"postal_code":"9500000","city_en":"Niigata","city_jp":"新潟市　中央区"},{"districts":[],"postal_code":"9500000","city_en":"Niigata","city_jp":"新潟市　江南区"},{"districts":[],"postal_code":"9560000","city_en":"Niigata","city_jp":"新潟市　秋葉区"},{"districts":[],"postal_code":"9501200","city_en":"Niigata","city_jp":"新潟市　南区"},{"districts":[],"postal_code":"9500000","city_en":"Niigata","city_jp":"新潟市　西区"},{"districts":[],"postal_code":"9500000","city_en":"Niigata","city_jp":"新潟市　西蒲区"},{"districts":[],"postal_code":"9400000","city_en":"Nagaoka","city_jp":"長岡市"},{"districts":[],"postal_code":"9550000","city_en":"Sanjo","city_jp":"三条市"},{"districts":[],"postal_code":"9450000","city_en":"Kashiwazaki","city_jp":"柏崎市"},{"districts":[],"postal_code":"9570000","city_en":"Shibata","city_jp":"新発田市"},{"districts":[],"postal_code":"9470000","city_en":"Ojiya","city_jp":"小千谷市"},{"districts":[],"postal_code":"9591300","city_en":"Kamo","city_jp":"加茂市"},{"districts":[],"postal_code":"9480000","city_en":"Tokamachi","city_jp":"十日町市"},{"districts":[],"postal_code":"9540000","city_en":"Mitsuke","city_jp":"見附市"},{"districts":[],"postal_code":"9580000","city_en":"Murakami","city_jp":"村上市"},{"districts":[],"postal_code":"9591200","city_en":"Tsubame","city_jp":"燕市"},{"districts":[],"postal_code":"9410000","city_en":"Itoigawa","city_jp":"糸魚川市"},{"districts":[],"postal_code":"9440000","city_en":"Myoko","city_jp":"妙高市"},{"districts":[],"postal_code":"9591600","city_en":"Gosen","city_jp":"五泉市"},{"districts":[],"postal_code":"9430000","city_en":"Joetsu","city_jp":"上越市"},{"districts":[],"postal_code":"9592000","city_en":"Agano","city_jp":"阿賀野市"},{"districts":[],"postal_code":"9520000","city_en":"Sado","city_jp":"佐渡市"},{"districts":[],"postal_code":"9460000","city_en":"Uonuma","city_jp":"魚沼市"},{"districts":[],"postal_code":"9496600","city_en":"Minamiuonuma","city_jp":"南魚沼市"},{"districts":[],"postal_code":"9592600","city_en":"Tainai","city_jp":"胎内市"},{"districts":[],"postal_code":"9570100","city_en":"","city_jp":"北蒲原郡　聖籠町"},{"districts":[],"postal_code":"9590300","city_en":"","city_jp":"西蒲原郡　弥彦村"},{"districts":[],"postal_code":"9591500","city_en":"","city_jp":"南蒲原郡　田上町"},{"districts":[],"postal_code":"9594400","city_en":"","city_jp":"東蒲原郡　阿賀町"},{"districts":[],"postal_code":"9494300","city_en":"","city_jp":"三島郡　出雲崎町"},{"districts":[],"postal_code":"9496100","city_en":"","city_jp":"南魚沼郡　湯沢町"},{"districts":[],"postal_code":"9498200","city_en":"","city_jp":"中魚沼郡　津南町"},{"districts":[],"postal_code":"9450300","city_en":"","city_jp":"刈羽郡　刈羽村"},{"districts":[],"postal_code":"9593200","city_en":"","city_jp":"岩船郡　関川村"},{"districts":{"postal_code":"9580061","district_en":"","district_jp":""},"postal_code":"9580061","city_en":"","city_jp":"岩船郡　粟島浦村"}],"prefecture_en":"Niigata ken","prefecture_jp":"新潟県"},"Toyama ken":{"cities":[{"districts":[],"postal_code":"9300075","city_en":"Toyama","city_jp":"富山市"},{"districts":[],"postal_code":"9330000","city_en":"Takaoka","city_jp":"高岡市"},{"districts":[],"postal_code":"9370000","city_en":"Uozu","city_jp":"魚津市"},{"districts":[],"postal_code":"9350000","city_en":"Himi","city_jp":"氷見市"},{"districts":[],"postal_code":"9360000","city_en":"Namerikawa","city_jp":"滑川市"},{"districts":[],"postal_code":"9380000","city_en":"Kurobe","city_jp":"黒部市"},{"districts":[],"postal_code":"9391300","city_en":"Tonami","city_jp":"砺波市"},{"districts":[],"postal_code":"9320000","city_en":"Oyabe","city_jp":"小矢部市"},{"districts":[],"postal_code":"9391600","city_en":"Nanto","city_jp":"南砺市"},{"districts":[],"postal_code":"9390300","city_en":"Imizu","city_jp":"射水市"},{"districts":[],"postal_code":"9300200","city_en":"","city_jp":"中新川郡　舟橋村"},{"districts":[],"postal_code":"9300300","city_en":"","city_jp":"中新川郡　上市町"},{"districts":[],"postal_code":"9300200","city_en":"","city_jp":"中新川郡　立山町"},{"districts":[],"postal_code":"9390600","city_en":"","city_jp":"下新川郡　入善町"},{"districts":[],"postal_code":"9390700","city_en":"","city_jp":"下新川郡　朝日町"}],"prefecture_en":"Toyama ken","prefecture_jp":"富山県"},"Ishikawa ken":{"cities":[{"districts":[],"postal_code":"9200907","city_en":"Kanazawa","city_jp":"金沢市"},{"districts":[],"postal_code":"9260000","city_en":"Nanao","city_jp":"七尾市"},{"districts":[],"postal_code":"9230000","city_en":"Komatsu","city_jp":"小松市"},{"districts":[],"postal_code":"9280000","city_en":"Wajima","city_jp":"輪島市"},{"districts":[],"postal_code":"9271200","city_en":"Suzu","city_jp":"珠洲市"},{"districts":[],"postal_code":"9220000","city_en":"Kaga","city_jp":"加賀市"},{"districts":[],"postal_code":"9250000","city_en":"Hakui","city_jp":"羽咋市"},{"districts":[],"postal_code":"9291100","city_en":"Kahoku","city_jp":"かほく市"},{"districts":[],"postal_code":"9240000","city_en":"Hakusan","city_jp":"白山市"},{"districts":[],"postal_code":"9231100","city_en":"Nomi","city_jp":"能美市"},{"districts":[],"postal_code":"9210000","city_en":"Nonoichi","city_jp":"野々市市"},{"districts":[],"postal_code":"9231200","city_en":"","city_jp":"能美郡　川北町"},{"districts":[],"postal_code":"9290300","city_en":"","city_jp":"河北郡　津幡町"},{"districts":[],"postal_code":"9200200","city_en":"","city_jp":"河北郡　内灘町"},{"districts":[],"postal_code":"9250100","city_en":"Hakui gun","city_jp":"羽咋郡　志賀町"},{"districts":[],"postal_code":"9291300","city_en":"","city_jp":"羽咋郡　宝達志水町"},{"districts":[],"postal_code":"9291700","city_en":"","city_jp":"鹿島郡　中能登町"},{"districts":[],"postal_code":"9270000","city_en":"","city_jp":"鳳珠郡　穴水町"},{"districts":[],"postal_code":"9270400","city_en":"","city_jp":"鳳珠郡　能登町"}],"prefecture_en":"Ishikawa ken","prefecture_jp":"石川県"},"Fukui ken":{"cities":[{"districts":[],"postal_code":"9103614","city_en":"Fukui","city_jp":"福井市"},{"districts":[],"postal_code":"9140000","city_en":"Tsuruga","city_jp":"敦賀市"},{"districts":[],"postal_code":"9170000","city_en":"Obama","city_jp":"小浜市"},{"districts":[],"postal_code":"9120000","city_en":"Ono","city_jp":"大野市"},{"districts":[],"postal_code":"9110000","city_en":"Katsuyama","city_jp":"勝山市"},{"districts":[],"postal_code":"9160000","city_en":"Sabae","city_jp":"鯖江市"},{"districts":[],"postal_code":"9190600","city_en":"Awara","city_jp":"あわら市"},{"districts":[],"postal_code":"9150000","city_en":"Echizen","city_jp":"越前市"},{"districts":[],"postal_code":"9100200","city_en":"Sakai","city_jp":"坂井市"},{"districts":[],"postal_code":"9101100","city_en":"","city_jp":"吉田郡　永平寺町"},{"districts":[],"postal_code":"9102500","city_en":"","city_jp":"今立郡　池田町"},{"districts":[],"postal_code":"9190200","city_en":"","city_jp":"南条郡　南越前町"},{"districts":[],"postal_code":"9160200","city_en":"","city_jp":"丹生郡　越前町"},{"districts":[],"postal_code":"9191100","city_en":"","city_jp":"三方郡　美浜町"},{"districts":[],"postal_code":"9192200","city_en":"","city_jp":"大飯郡　高浜町"},{"districts":[],"postal_code":"9192100","city_en":"","city_jp":"大飯郡　おおい町"},{"districts":[],"postal_code":"9191300","city_en":"","city_jp":"三方上中郡　若狭町"}],"prefecture_en":"Fukui ken","prefecture_jp":"福井県"},"Yamanashi ken":{"cities":[{"districts":[],"postal_code":"4000858","city_en":"Kofu","city_jp":"甲府市"},{"districts":[],"postal_code":"4030000","city_en":"Fujiyoshida","city_jp":"富士吉田市"},{"districts":[],"postal_code":"4020000","city_en":"Tsuru","city_jp":"都留市"},{"districts":[],"postal_code":"4050000","city_en":"Yamanashi","city_jp":"山梨市"},{"districts":[],"postal_code":"4010000","city_en":"Otsuki","city_jp":"大月市"},{"districts":[],"postal_code":"4070000","city_en":"Nirasaki","city_jp":"韮崎市"},{"districts":[],"postal_code":"4000400","city_en":"Minamiarupusu","city_jp":"南アルプス市"},{"districts":[],"postal_code":"4080000","city_en":"Hokuto","city_jp":"北杜市"},{"districts":[],"postal_code":"4000100","city_en":"Kai","city_jp":"甲斐市"},{"districts":[],"postal_code":"4060000","city_en":"Fuefuki","city_jp":"笛吹市"},{"districts":[],"postal_code":"4090100","city_en":"Uenohara","city_jp":"上野原市"},{"districts":[],"postal_code":"4040000","city_en":"Koshu","city_jp":"甲州市"},{"districts":[],"postal_code":"4093800","city_en":"Chuo","city_jp":"中央市"},{"districts":[],"postal_code":"4093600","city_en":"","city_jp":"西八代郡　市川三郷町"},{"districts":[],"postal_code":"4092700","city_en":"","city_jp":"南巨摩郡　早川町"},{"districts":[],"postal_code":"4092500","city_en":"","city_jp":"南巨摩郡　身延町"},{"districts":[],"postal_code":"4092100","city_en":"","city_jp":"南巨摩郡　南部町"},{"districts":[],"postal_code":"4000500","city_en":"","city_jp":"南巨摩郡　富士川町"},{"districts":[],"postal_code":"4093800","city_en":"","city_jp":"中巨摩郡　昭和町"},{"districts":[],"postal_code":"4020200","city_en":"","city_jp":"南都留郡　道志村"},{"districts":[],"postal_code":"4030000","city_en":"","city_jp":"南都留郡　西桂町"},{"districts":[],"postal_code":"4010500","city_en":"","city_jp":"南都留郡　忍野村"},{"districts":[],"postal_code":"4010500","city_en":"","city_jp":"南都留郡　山中湖村"},{"districts":{"postal_code":"4010320","district_en":"","district_jp":""},"postal_code":"4010320","city_en":"","city_jp":"南都留郡　鳴沢村"},{"districts":[],"postal_code":"4010300","city_en":"","city_jp":"南都留郡　富士河口湖町"},{"districts":[],"postal_code":"4090200","city_en":"","city_jp":"北都留郡　小菅村"},{"districts":[],"postal_code":"4090300","city_en":"","city_jp":"北都留郡　丹波山村"}],"prefecture_en":"Yamanashi ken","prefecture_jp":"山梨県"},"Nagano ken":{"cities":[{"districts":[],"postal_code":"3800918","city_en":"Nagano","city_jp":"長野市"},{"districts":[],"postal_code":"3990000","city_en":"Matsumoto","city_jp":"松本市"},{"districts":[],"postal_code":"3860000","city_en":"Ueda","city_jp":"上田市"},{"districts":[],"postal_code":"3940000","city_en":"Okaya","city_jp":"岡谷市"},{"districts":[],"postal_code":"3950000","city_en":"Iida","city_jp":"飯田市"},{"districts":[],"postal_code":"3920000","city_en":"Suwa","city_jp":"諏訪市"},{"districts":[],"postal_code":"3820000","city_en":"Suzaka","city_jp":"須坂市"},{"districts":[],"postal_code":"3840000","city_en":"Komoro","city_jp":"小諸市"},{"districts":[],"postal_code":"3960000","city_en":"Ina","city_jp":"伊那市"},{"districts":[],"postal_code":"3994100","city_en":"Komagane","city_jp":"駒ヶ根市"},{"districts":[],"postal_code":"3830000","city_en":"Nakano","city_jp":"中野市"},{"districts":[],"postal_code":"3980000","city_en":"Omachi","city_jp":"大町市"},{"districts":[],"postal_code":"3892200","city_en":"Iiyama","city_jp":"飯山市"},{"districts":[],"postal_code":"3910000","city_en":"Chino","city_jp":"茅野市"},{"districts":[],"postal_code":"3990700","city_en":"Shiojiri","city_jp":"塩尻市"},{"districts":[],"postal_code":"3850000","city_en":"Saku","city_jp":"佐久市"},{"districts":[],"postal_code":"3870000","city_en":"Chikuma","city_jp":"千曲市"},{"districts":[],"postal_code":"3890500","city_en":"Tomi","city_jp":"東御市"},{"districts":[],"postal_code":"3998200","city_en":"Azumino","city_jp":"安曇野市"},{"districts":[],"postal_code":"3841100","city_en":"","city_jp":"南佐久郡　小海町"},{"districts":[],"postal_code":"3841400","city_en":"","city_jp":"南佐久郡　川上村"},{"districts":[],"postal_code":"3841300","city_en":"","city_jp":"南佐久郡　南牧村"},{"districts":{"postal_code":"3841211","district_en":"","district_jp":""},"postal_code":"3841211","city_en":"","city_jp":"南佐久郡　南相木村"},{"districts":{"postal_code":"3841201","district_en":"","district_jp":""},"postal_code":"3841201","city_en":"","city_jp":"南佐久郡　北相木村"},{"districts":[],"postal_code":"3840600","city_en":"","city_jp":"南佐久郡　佐久穂町"},{"districts":[],"postal_code":"3890100","city_en":"","city_jp":"北佐久郡　軽井沢町"},{"districts":[],"postal_code":"3890200","city_en":"","city_jp":"北佐久郡　御代田町"},{"districts":[],"postal_code":"3842300","city_en":"","city_jp":"北佐久郡　立科町"},{"districts":[],"postal_code":"3861600","city_en":"","city_jp":"小県郡　青木村"},{"districts":[],"postal_code":"3860600","city_en":"","city_jp":"小県郡　長和町"},{"districts":[],"postal_code":"3930000","city_en":"Suwa gun","city_jp":"諏訪郡　下諏訪町"},{"districts":[],"postal_code":"3990200","city_en":"","city_jp":"諏訪郡　富士見町"},{"districts":[],"postal_code":"3910100","city_en":"","city_jp":"諏訪郡　原村"},{"districts":[],"postal_code":"3990400","city_en":"","city_jp":"上伊那郡　辰野町"},{"districts":[],"postal_code":"3994600","city_en":"","city_jp":"上伊那郡　箕輪町"},{"districts":[],"postal_code":"3993700","city_en":"","city_jp":"上伊那郡　飯島町"},{"districts":{"postal_code":"3994511","district_en":"","district_jp":""},"postal_code":"3994511","city_en":"","city_jp":"上伊那郡　南箕輪村"},{"districts":[],"postal_code":"3993800","city_en":"","city_jp":"上伊那郡　中川村"},{"districts":{"postal_code":"3994301","district_en":"","district_jp":""},"postal_code":"3994301","city_en":"","city_jp":"上伊那郡　宮田村"},{"districts":[],"postal_code":"3993300","city_en":"","city_jp":"下伊那郡　松川町"},{"districts":[],"postal_code":"3993100","city_en":"","city_jp":"下伊那郡　高森町"},{"districts":[],"postal_code":"3991500","city_en":"","city_jp":"下伊那郡　阿南町"},{"districts":[],"postal_code":"3950300","city_en":"","city_jp":"下伊那郡　阿智村"},{"districts":{"postal_code":"3950601","district_en":"","district_jp":""},"postal_code":"3950601","city_en":"","city_jp":"下伊那郡　平谷村"},{"districts":{"postal_code":"3950701","district_en":"","district_jp":""},"postal_code":"3950701","city_en":"","city_jp":"下伊那郡　根羽村"},{"districts":[],"postal_code":"3992100","city_en":"Shimoina gun","city_jp":"下伊那郡　下條村"},{"districts":{"postal_code":"3991601","district_en":"","district_jp":""},"postal_code":"3991601","city_en":"","city_jp":"下伊那郡　売木村"},{"districts":[],"postal_code":"3991200","city_en":"","city_jp":"下伊那郡　天龍村"},{"districts":{"postal_code":"3991801","district_en":"","district_jp":""},"postal_code":"3991801","city_en":"","city_jp":"下伊那郡　泰阜村"},{"districts":[],"postal_code":"3951100","city_en":"","city_jp":"下伊那郡　喬木村"},{"districts":[],"postal_code":"3993200","city_en":"","city_jp":"下伊那郡　豊丘村"},{"districts":[],"postal_code":"3993500","city_en":"","city_jp":"下伊那郡　大鹿村"},{"districts":[],"postal_code":"3995600","city_en":"","city_jp":"木曽郡　上松町"},{"districts":[],"postal_code":"3995300","city_en":"","city_jp":"木曽郡　南木曽町"},{"districts":[],"postal_code":"3996200","city_en":"","city_jp":"木曽郡　木祖村"},{"districts":{"postal_code":"3970201","district_en":"","district_jp":""},"postal_code":"3970201","city_en":"","city_jp":"木曽郡　王滝村"},{"districts":[],"postal_code":"3995500","city_en":"","city_jp":"木曽郡　大桑村"},{"districts":[],"postal_code":"3970000","city_en":"","city_jp":"木曽郡　木曽町"},{"districts":[],"postal_code":"3997700","city_en":"","city_jp":"東筑摩郡　麻績村"},{"districts":[],"postal_code":"3997200","city_en":"","city_jp":"東筑摩郡　生坂村"},{"districts":{"postal_code":"3901301","district_en":"","district_jp":""},"postal_code":"3901301","city_en":"","city_jp":"東筑摩郡　山形村"},{"districts":[],"postal_code":"3901100","city_en":"","city_jp":"東筑摩郡　朝日村"},{"districts":[],"postal_code":"3997500","city_en":"","city_jp":"東筑摩郡　筑北村"},{"districts":[],"postal_code":"3998600","city_en":"","city_jp":"北安曇郡　池田町"},{"districts":{"postal_code":"3998501","district_en":"","district_jp":""},"postal_code":"3998501","city_en":"","city_jp":"北安曇郡　松川村"},{"districts":[],"postal_code":"3999300","city_en":"","city_jp":"北安曇郡　白馬村"},{"districts":[],"postal_code":"3999400","city_en":"","city_jp":"北安曇郡　小谷村"},{"districts":[],"postal_code":"3890600","city_en":"","city_jp":"埴科郡　坂城町"},{"districts":[],"postal_code":"3810200","city_en":"","city_jp":"上高井郡　小布施町"},{"districts":[],"postal_code":"3820800","city_en":"","city_jp":"上高井郡　高山村"},{"districts":[],"postal_code":"3810400","city_en":"","city_jp":"下高井郡　山ノ内町"},{"districts":[],"postal_code":"3892300","city_en":"","city_jp":"下高井郡　木島平村"},{"districts":[],"postal_code":"3892500","city_en":"","city_jp":"下高井郡　野沢温泉村"},{"districts":[],"postal_code":"3891300","city_en":"Kamiminochi gun","city_jp":"上水内郡　信濃町"},{"districts":[],"postal_code":"3813300","city_en":"","city_jp":"上水内郡　小川村"},{"districts":[],"postal_code":"3891200","city_en":"","city_jp":"上水内郡　飯綱町"},{"districts":[],"postal_code":"3892700","city_en":"","city_jp":"下水内郡　栄村"}],"prefecture_en":"Nagano ken","prefecture_jp":"長野県"},"Gifu ken":{"cities":[{"districts":[],"postal_code":"5008103","city_en":"Gifu","city_jp":"岐阜市"},{"districts":[],"postal_code":"5030000","city_en":"Ogaki","city_jp":"大垣市"},{"districts":[],"postal_code":"5060000","city_en":"Takayama","city_jp":"高山市"},{"districts":[],"postal_code":"5070000","city_en":"Tajimi","city_jp":"多治見市"},{"districts":[],"postal_code":"5013200","city_en":"Seki","city_jp":"関市"},{"districts":[],"postal_code":"5080000","city_en":"Nakatsugawa","city_jp":"中津川市"},{"districts":[],"postal_code":"5013700","city_en":"Mino","city_jp":"美濃市"},{"districts":[],"postal_code":"5096100","city_en":"Mizunami","city_jp":"瑞浪市"},{"districts":[],"postal_code":"5016200","city_en":"Hashima","city_jp":"羽島市"},{"districts":[],"postal_code":"5097200","city_en":"Ena","city_jp":"恵那市"},{"districts":[],"postal_code":"5050000","city_en":"Minokamo","city_jp":"美濃加茂市"},{"districts":[],"postal_code":"5095100","city_en":"Toki","city_jp":"土岐市"},{"districts":[],"postal_code":"5040000","city_en":"Kakamigahara","city_jp":"各務原市"},{"districts":[],"postal_code":"5090200","city_en":"Kani","city_jp":"可児市"},{"districts":[],"postal_code":"5012100","city_en":"Yamagata","city_jp":"山県市"},{"districts":[],"postal_code":"5010200","city_en":"Mizuho","city_jp":"瑞穂市"},{"districts":[],"postal_code":"5061100","city_en":"Hida","city_jp":"飛騨市"},{"districts":[],"postal_code":"5010400","city_en":"Motosu","city_jp":"本巣市"},{"districts":[],"postal_code":"5014200","city_en":"Gujo","city_jp":"郡上市"},{"districts":[],"postal_code":"5092200","city_en":"Gero","city_jp":"下呂市"},{"districts":[],"postal_code":"5030600","city_en":"Kaizu","city_jp":"海津市"},{"districts":[],"postal_code":"5016100","city_en":"","city_jp":"羽島郡　岐南町"},{"districts":[],"postal_code":"5016100","city_en":"","city_jp":"羽島郡　笠松町"},{"districts":[],"postal_code":"5031300","city_en":"","city_jp":"養老郡　養老町"},{"districts":[],"postal_code":"5032100","city_en":"","city_jp":"不破郡　垂井町"},{"districts":[],"postal_code":"5031500","city_en":"","city_jp":"不破郡　関ケ原町"},{"districts":[],"postal_code":"5032300","city_en":"","city_jp":"安八郡　神戸町"},{"districts":[],"postal_code":"5030200","city_en":"","city_jp":"安八郡　輪之内町"},{"districts":[],"postal_code":"5030100","city_en":"","city_jp":"安八郡　安八町"},{"districts":[],"postal_code":"5010600","city_en":"","city_jp":"揖斐郡　揖斐川町"},{"districts":[],"postal_code":"5010500","city_en":"","city_jp":"揖斐郡　大野町"},{"districts":[],"postal_code":"5032400","city_en":"","city_jp":"揖斐郡　池田町"},{"districts":[],"postal_code":"5010400","city_en":"","city_jp":"本巣郡　北方町"},{"districts":[],"postal_code":"5050000","city_en":"","city_jp":"加茂郡　坂祝町"},{"districts":[],"postal_code":"5013300","city_en":"","city_jp":"加茂郡　富加町"},{"districts":[],"postal_code":"5090300","city_en":"","city_jp":"加茂郡　川辺町"},{"districts":[],"postal_code":"5090400","city_en":"","city_jp":"加茂郡　七宗町"},{"districts":[],"postal_code":"5050300","city_en":"","city_jp":"加茂郡　八百津町"},{"districts":[],"postal_code":"5091100","city_en":"Kamo gun","city_jp":"加茂郡　白川町"},{"districts":[],"postal_code":"5091300","city_en":"","city_jp":"加茂郡　東白川村"},{"districts":[],"postal_code":"5050100","city_en":"","city_jp":"可児郡　御嵩町"},{"districts":[],"postal_code":"5015600","city_en":"Ono gun","city_jp":"大野郡　白川村"}],"prefecture_en":"Gifu ken","prefecture_jp":"岐阜県"},"Shizuoka ken":{"cities":[{"districts":[],"postal_code":"4200838","city_en":"Shizuoka","city_jp":"静岡市　葵区"},{"districts":[],"postal_code":"4220000","city_en":"Shizuoka","city_jp":"静岡市　駿河区"},{"districts":[],"postal_code":"4220000","city_en":"Shizuoka shi","city_jp":"静岡市　清水区"},{"districts":[],"postal_code":"4320000","city_en":"Hamamatsu","city_jp":"浜松市　中区"},{"districts":[],"postal_code":"4320000","city_en":"Hamamatsu","city_jp":"浜松市　東区"},{"districts":[],"postal_code":"4320000","city_en":"Hamamatsu","city_jp":"浜松市　西区"},{"districts":[],"postal_code":"4320000","city_en":"Hamamatsu","city_jp":"浜松市　南区"},{"districts":[],"postal_code":"4320000","city_en":"Hamamatsu","city_jp":"浜松市　北区"},{"districts":[],"postal_code":"4340000","city_en":"Hamamatsu","city_jp":"浜松市　浜北区"},{"districts":[],"postal_code":"4320000","city_en":"Hamamatsu","city_jp":"浜松市　天竜区"},{"districts":[],"postal_code":"4100000","city_en":"Numazu","city_jp":"沼津市"},{"districts":[],"postal_code":"4130000","city_en":"Atami","city_jp":"熱海市"},{"districts":[],"postal_code":"4110000","city_en":"Mishima","city_jp":"三島市"},{"districts":[],"postal_code":"4180000","city_en":"Fujinomiya","city_jp":"富士宮市"},{"districts":[],"postal_code":"4140000","city_en":"Ito","city_jp":"伊東市"},{"districts":[],"postal_code":"4270000","city_en":"Shimada","city_jp":"島田市"},{"districts":[],"postal_code":"4170000","city_en":"Fuji","city_jp":"富士市"},{"districts":[],"postal_code":"4380000","city_en":"Iwata","city_jp":"磐田市"},{"districts":[],"postal_code":"4250000","city_en":"Yaizu","city_jp":"焼津市"},{"districts":[],"postal_code":"4360000","city_en":"Kakegawa","city_jp":"掛川市"},{"districts":[],"postal_code":"4260000","city_en":"Fujieda","city_jp":"藤枝市"},{"districts":[],"postal_code":"4120000","city_en":"Gotemba","city_jp":"御殿場市"},{"districts":[],"postal_code":"4370000","city_en":"Fukuroi","city_jp":"袋井市"},{"districts":[],"postal_code":"4150000","city_en":"Shimoda","city_jp":"下田市"},{"districts":[],"postal_code":"4101100","city_en":"Susono","city_jp":"裾野市"},{"districts":[],"postal_code":"4310400","city_en":"Kosai","city_jp":"湖西市"},{"districts":[],"postal_code":"4102400","city_en":"Izu","city_jp":"伊豆市"},{"districts":[],"postal_code":"4371600","city_en":"Omaezaki","city_jp":"御前崎市"},{"districts":[],"postal_code":"4390000","city_en":"Kikugawa","city_jp":"菊川市"},{"districts":[],"postal_code":"4102200","city_en":"Izunokuni","city_jp":"伊豆の国市"},{"districts":[],"postal_code":"4210500","city_en":"Makinohara","city_jp":"牧之原市"},{"districts":[],"postal_code":"4130300","city_en":"","city_jp":"賀茂郡　東伊豆町"},{"districts":[],"postal_code":"4130500","city_en":"","city_jp":"賀茂郡　河津町"},{"districts":[],"postal_code":"4150300","city_en":"","city_jp":"賀茂郡　南伊豆町"},{"districts":[],"postal_code":"4103600","city_en":"","city_jp":"賀茂郡　松崎町"},{"districts":[],"postal_code":"4103500","city_en":"","city_jp":"賀茂郡　西伊豆町"},{"districts":[],"postal_code":"4190100","city_en":"","city_jp":"田方郡　函南町"},{"districts":[],"postal_code":"4110000","city_en":"Sunto gun","city_jp":"駿東郡　清水町"},{"districts":[],"postal_code":"4110000","city_en":"","city_jp":"駿東郡　長泉町"},{"districts":[],"postal_code":"4101300","city_en":"","city_jp":"駿東郡　小山町"},{"districts":[],"postal_code":"4210300","city_en":"","city_jp":"榛原郡　吉田町"},{"districts":[],"postal_code":"4280300","city_en":"","city_jp":"榛原郡　川根本町"},{"districts":[],"postal_code":"4370200","city_en":"","city_jp":"周智郡　森町"}],"prefecture_en":"Shizuoka ken","prefecture_jp":"静岡県"},"Aichi ken":{"cities":[{"districts":[],"postal_code":"4640852","city_en":"Nagoya","city_jp":"名古屋市　千種区"},{"districts":[],"postal_code":"4610000","city_en":"Nagoya","city_jp":"名古屋市　東区"},{"districts":[],"postal_code":"4620000","city_en":"Nagoya","city_jp":"名古屋市　北区"},{"districts":[],"postal_code":"4510000","city_en":"Nagoya","city_jp":"名古屋市　西区"},{"districts":[],"postal_code":"4530000","city_en":"Nagoya","city_jp":"名古屋市　中村区"},{"districts":[],"postal_code":"4600000","city_en":"Nagoya","city_jp":"名古屋市　中区"},{"districts":[],"postal_code":"4660000","city_en":"Nagoya","city_jp":"名古屋市　昭和区"},{"districts":[],"postal_code":"4670000","city_en":"Nagoya","city_jp":"名古屋市　瑞穂区"},{"districts":[],"postal_code":"4560000","city_en":"Nagoya","city_jp":"名古屋市　熱田区"},{"districts":[],"postal_code":"4540000","city_en":"Nagoya","city_jp":"名古屋市　中川区"},{"districts":[],"postal_code":"4550000","city_en":"Nagoya","city_jp":"名古屋市　港区"},{"districts":[],"postal_code":"4570000","city_en":"Nagoya","city_jp":"名古屋市　南区"},{"districts":[],"postal_code":"4630000","city_en":"Nagoya","city_jp":"名古屋市　守山区"},{"districts":[],"postal_code":"4580000","city_en":"Nagoya","city_jp":"名古屋市　緑区"},{"districts":[],"postal_code":"4650000","city_en":"Nagoya","city_jp":"名古屋市　名東区"},{"districts":[],"postal_code":"4680000","city_en":"Nagoya","city_jp":"名古屋市　天白区"},{"districts":[],"postal_code":"4410000","city_en":"Toyohashi","city_jp":"豊橋市"},{"districts":[],"postal_code":"4440000","city_en":"Okazaki","city_jp":"岡崎市"},{"districts":[],"postal_code":"4910000","city_en":"Ichinomiya","city_jp":"一宮市"},{"districts":[],"postal_code":"4890000","city_en":"Seto","city_jp":"瀬戸市"},{"districts":[],"postal_code":"4750000","city_en":"Handa","city_jp":"半田市"},{"districts":[],"postal_code":"4860000","city_en":"Kasugai","city_jp":"春日井市"},{"districts":[],"postal_code":"4420000","city_en":"Toyokawa","city_jp":"豊川市"},{"districts":[],"postal_code":"4960000","city_en":"Tsushima","city_jp":"津島市"},{"districts":[],"postal_code":"4470000","city_en":"Hekinan","city_jp":"碧南市"},{"districts":[],"postal_code":"4480000","city_en":"Kariya","city_jp":"刈谷市"},{"districts":[],"postal_code":"4710000","city_en":"Toyota","city_jp":"豊田市"},{"districts":[],"postal_code":"4460000","city_en":"Anjo","city_jp":"安城市"},{"districts":[],"postal_code":"4450000","city_en":"Nishio","city_jp":"西尾市"},{"districts":[],"postal_code":"4430000","city_en":"Gamagori","city_jp":"蒲郡市"},{"districts":[],"postal_code":"4840000","city_en":"Inuyama","city_jp":"犬山市"},{"districts":[],"postal_code":"4790000","city_en":"Tokoname","city_jp":"常滑市"},{"districts":[],"postal_code":"4830000","city_en":"Konan","city_jp":"江南市"},{"districts":[],"postal_code":"4850000","city_en":"Komaki","city_jp":"小牧市"},{"districts":[],"postal_code":"4920000","city_en":"Inazawa","city_jp":"稲沢市"},{"districts":[],"postal_code":"4411300","city_en":"Shinshiro","city_jp":"新城市"},{"districts":[],"postal_code":"4760000","city_en":"Tokai","city_jp":"東海市"},{"districts":[],"postal_code":"4740000","city_en":"Obu","city_jp":"大府市"},{"districts":[],"postal_code":"4780000","city_en":"Chita","city_jp":"知多市"},{"districts":[],"postal_code":"4720000","city_en":"Chiryu","city_jp":"知立市"},{"districts":[],"postal_code":"4880000","city_en":"Owariasahi","city_jp":"尾張旭市"},{"districts":[],"postal_code":"4441300","city_en":"Takahama","city_jp":"高浜市"},{"districts":[],"postal_code":"4820000","city_en":"Iwakura","city_jp":"岩倉市"},{"districts":[],"postal_code":"4701100","city_en":"Toyoake","city_jp":"豊明市"},{"districts":[],"postal_code":"4700100","city_en":"Nisshin","city_jp":"日進市"},{"districts":[],"postal_code":"4413400","city_en":"Tahara","city_jp":"田原市"},{"districts":[],"postal_code":"4960000","city_en":"Aisai","city_jp":"愛西市"},{"districts":[],"postal_code":"4520000","city_en":"Kiyosu","city_jp":"清須市"},{"districts":[],"postal_code":"4810000","city_en":"Kitanagoya","city_jp":"北名古屋市"},{"districts":[],"postal_code":"4980000","city_en":"Yatomi","city_jp":"弥富市"},{"districts":[],"postal_code":"4700200","city_en":"Miyoshi","city_jp":"みよし市"},{"districts":[],"postal_code":"4901200","city_en":"Ama","city_jp":"あま市"},{"districts":[],"postal_code":"4801100","city_en":"Nagakute","city_jp":"長久手市"},{"districts":[],"postal_code":"4700100","city_en":"","city_jp":"愛知郡　東郷町"},{"districts":[],"postal_code":"4800200","city_en":"","city_jp":"西春日井郡　豊山町"},{"districts":[],"postal_code":"4800100","city_en":"","city_jp":"丹羽郡　大口町"},{"districts":[],"postal_code":"4800100","city_en":"","city_jp":"丹羽郡　扶桑町"},{"districts":[],"postal_code":"4901100","city_en":"","city_jp":"海部郡　大治町"},{"districts":[],"postal_code":"4970000","city_en":"","city_jp":"海部郡　蟹江町"},{"districts":[],"postal_code":"4901400","city_en":"","city_jp":"海部郡　飛島村"},{"districts":[],"postal_code":"4702200","city_en":"","city_jp":"知多郡　阿久比町"},{"districts":[],"postal_code":"4702100","city_en":"","city_jp":"知多郡　東浦町"},{"districts":[],"postal_code":"4703300","city_en":"","city_jp":"知多郡　南知多町"},{"districts":[],"postal_code":"4703200","city_en":"","city_jp":"知多郡　美浜町"},{"districts":[],"postal_code":"4702300","city_en":"","city_jp":"知多郡　武豊町"},{"districts":[],"postal_code":"4440100","city_en":"","city_jp":"額田郡　幸田町"},{"districts":[],"postal_code":"4412300","city_en":"Kitashitara gun","city_jp":"北設楽郡　設楽町"},{"districts":[],"postal_code":"4490200","city_en":"","city_jp":"北設楽郡　東栄町"},{"districts":[],"postal_code":"4490400","city_en":"","city_jp":"北設楽郡　豊根村"}],"prefecture_en":"Aichi ken","prefecture_jp":"愛知県"},"Mie ken":{"cities":[{"districts":[],"postal_code":"5140017","city_en":"Tsu","city_jp":"津市"},{"districts":[],"postal_code":"5100000","city_en":"Yokkaichi","city_jp":"四日市市"},{"districts":[],"postal_code":"5160000","city_en":"Ise","city_jp":"伊勢市"},{"districts":[],"postal_code":"5150000","city_en":"Matsusaka","city_jp":"松阪市"},{"districts":[],"postal_code":"5110000","city_en":"Kuwana","city_jp":"桑名市"},{"districts":[],"postal_code":"5130000","city_en":"Suzuka","city_jp":"鈴鹿市"},{"districts":[],"postal_code":"5180400","city_en":"Nabari","city_jp":"名張市"},{"districts":[],"postal_code":"5193600","city_en":"Owase","city_jp":"尾鷲市"},{"districts":[],"postal_code":"5190100","city_en":"Kameyama","city_jp":"亀山市"},{"districts":[],"postal_code":"5170000","city_en":"Toba","city_jp":"鳥羽市"},{"districts":[],"postal_code":"5194300","city_en":"Kumano","city_jp":"熊野市"},{"districts":[],"postal_code":"5110200","city_en":"Inabe","city_jp":"いなべ市"},{"districts":[],"postal_code":"5170500","city_en":"Shima","city_jp":"志摩市"},{"districts":[],"postal_code":"5180000","city_en":"Iga","city_jp":"伊賀市"},{"districts":[],"postal_code":"4980000","city_en":"","city_jp":"桑名郡　木曽岬町"},{"districts":[],"postal_code":"5110200","city_en":"","city_jp":"員弁郡　東員町"},{"districts":[],"postal_code":"5101200","city_en":"","city_jp":"三重郡　菰野町"},{"districts":[],"postal_code":"5100000","city_en":"","city_jp":"三重郡　朝日町"},{"districts":[],"postal_code":"5100000","city_en":"","city_jp":"三重郡　川越町"},{"districts":[],"postal_code":"5192100","city_en":"","city_jp":"多気郡　多気町"},{"districts":[],"postal_code":"5150300","city_en":"","city_jp":"多気郡　明和町"},{"districts":[],"postal_code":"5192400","city_en":"","city_jp":"多気郡　大台町"},{"districts":[],"postal_code":"5190400","city_en":"","city_jp":"度会郡　玉城町"},{"districts":[],"postal_code":"5162100","city_en":"","city_jp":"度会郡　度会町"},{"districts":[],"postal_code":"5192700","city_en":"","city_jp":"度会郡　大紀町"},{"districts":[],"postal_code":"5160100","city_en":"","city_jp":"度会郡　南伊勢町"},{"districts":[],"postal_code":"5193400","city_en":"","city_jp":"北牟婁郡　紀北町"},{"districts":[],"postal_code":"5195200","city_en":"","city_jp":"南牟婁郡　御浜町"},{"districts":[],"postal_code":"5195700","city_en":"","city_jp":"南牟婁郡　紀宝町"}],"prefecture_en":"Mie ken","prefecture_jp":"三重県"},"Shiga ken":{"cities":[{"districts":[],"postal_code":"5202101","city_en":"Otsu","city_jp":"大津市"},{"districts":[],"postal_code":"5220000","city_en":"Hikone","city_jp":"彦根市"},{"districts":[],"postal_code":"5260000","city_en":"Nagahama","city_jp":"長浜市"},{"districts":[],"postal_code":"5230000","city_en":"Omihachiman","city_jp":"近江八幡市"},{"districts":[],"postal_code":"5250000","city_en":"Kusatsu","city_jp":"草津市"},{"districts":[],"postal_code":"5240000","city_en":"Moriyama","city_jp":"守山市"},{"districts":[],"postal_code":"5203000","city_en":"Ritto","city_jp":"栗東市"},{"districts":[],"postal_code":"5280000","city_en":"Koka","city_jp":"甲賀市"},{"districts":[],"postal_code":"5202300","city_en":"Yasu","city_jp":"野洲市"},{"districts":[],"postal_code":"5203200","city_en":"Konan","city_jp":"湖南市"},{"districts":[],"postal_code":"5201100","city_en":"Takashima","city_jp":"高島市"},{"districts":[],"postal_code":"5270000","city_en":"Higashiomi","city_jp":"東近江市"},{"districts":[],"postal_code":"5210000","city_en":"Maibara","city_jp":"米原市"},{"districts":[],"postal_code":"5291600","city_en":"","city_jp":"蒲生郡　日野町"},{"districts":[],"postal_code":"5202500","city_en":"","city_jp":"蒲生郡　竜王町"},{"districts":[],"postal_code":"5291300","city_en":"","city_jp":"愛知郡　愛荘町"},{"districts":[],"postal_code":"5291100","city_en":"","city_jp":"犬上郡　豊郷町"},{"districts":[],"postal_code":"5220200","city_en":"","city_jp":"犬上郡　甲良町"},{"districts":[],"postal_code":"5220300","city_en":"","city_jp":"犬上郡　多賀町"}],"prefecture_en":"Shiga ken","prefecture_jp":"滋賀県"},"Kyoto fu":{"cities":[{"districts":[],"postal_code":"6038136","city_en":"Kyoto","city_jp":"京都市　北区"},{"districts":[],"postal_code":"6020000","city_en":"Kyoto","city_jp":"京都市　上京区"},{"districts":[],"postal_code":"6060000","city_en":"Kyoto","city_jp":"京都市　左京区"},{"districts":[],"postal_code":"6040000","city_en":"Kyoto","city_jp":"京都市　中京区"},{"districts":[],"postal_code":"6050000","city_en":"Kyoto","city_jp":"京都市　東山区"},{"districts":[],"postal_code":"6000000","city_en":"Kyoto shi","city_jp":"京都市　下京区"},{"districts":[],"postal_code":"6010000","city_en":"Kyoto","city_jp":"京都市　南区"},{"districts":[],"postal_code":"6160000","city_en":"Kyoto","city_jp":"京都市　右京区"},{"districts":[],"postal_code":"6120000","city_en":"Kyoto","city_jp":"京都市　伏見区"},{"districts":[],"postal_code":"6070000","city_en":"Kyoto","city_jp":"京都市　山科区"},{"districts":[],"postal_code":"6100000","city_en":"Kyoto","city_jp":"京都市　西京区"},{"districts":[],"postal_code":"6200000","city_en":"Fukuchiyama","city_jp":"福知山市"},{"districts":[],"postal_code":"6250000","city_en":"Maizuru","city_jp":"舞鶴市"},{"districts":[],"postal_code":"6230000","city_en":"Ayabe","city_jp":"綾部市"},{"districts":[],"postal_code":"6110000","city_en":"Uji","city_jp":"宇治市"},{"districts":[],"postal_code":"6260000","city_en":"Miyazu","city_jp":"宮津市"},{"districts":[],"postal_code":"6210000","city_en":"Kameoka","city_jp":"亀岡市"},{"districts":[],"postal_code":"6100100","city_en":"Joyo","city_jp":"城陽市"},{"districts":[],"postal_code":"6170000","city_en":"Muko","city_jp":"向日市"},{"districts":[],"postal_code":"6170000","city_en":"Nagaokakyo","city_jp":"長岡京市"},{"districts":[],"postal_code":"6140000","city_en":"Yawata","city_jp":"八幡市"},{"districts":[],"postal_code":"6100300","city_en":"Kyotanabe","city_jp":"京田辺市"},{"districts":[],"postal_code":"6270000","city_en":"Kyotango","city_jp":"京丹後市"},{"districts":[],"postal_code":"6220000","city_en":"Nantan","city_jp":"南丹市"},{"districts":[],"postal_code":"6190200","city_en":"Kizugawa","city_jp":"木津川市"},{"districts":[],"postal_code":"6180000","city_en":"","city_jp":"乙訓郡　大山崎町"},{"districts":[],"postal_code":"6130000","city_en":"","city_jp":"久世郡　久御山町"},{"districts":[],"postal_code":"6100300","city_en":"","city_jp":"綴喜郡　井手町"},{"districts":[],"postal_code":"6100200","city_en":"","city_jp":"綴喜郡　宇治田原町"},{"districts":[],"postal_code":"6191300","city_en":"","city_jp":"相楽郡　笠置町"},{"districts":[],"postal_code":"6191200","city_en":"","city_jp":"相楽郡　和束町"},{"districts":[],"postal_code":"6190200","city_en":"","city_jp":"相楽郡　精華町"},{"districts":[],"postal_code":"6191400","city_en":"","city_jp":"相楽郡　南山城村"},{"districts":[],"postal_code":"6220200","city_en":"","city_jp":"船井郡　京丹波町"},{"districts":[],"postal_code":"6260400","city_en":"","city_jp":"与謝郡　伊根町"},{"districts":[],"postal_code":"6292200","city_en":"","city_jp":"与謝郡　与謝野町"}],"prefecture_en":"Kyoto fu","prefecture_jp":"京都府"},"Osaka fu":{"cities":[{"districts":[],"postal_code":"5340026","city_en":"Osaka","city_jp":"大阪市　都島区"},{"districts":[],"postal_code":"5530000","city_en":"Osaka","city_jp":"大阪市　福島区"},{"districts":[],"postal_code":"5540000","city_en":"Osaka","city_jp":"大阪市　此花区"},{"districts":[],"postal_code":"5500000","city_en":"Osaka","city_jp":"大阪市　西区"},{"districts":[],"postal_code":"5520000","city_en":"Osaka","city_jp":"大阪市　港区"},{"districts":[],"postal_code":"5510000","city_en":"Osaka","city_jp":"大阪市　大正区"},{"districts":[],"postal_code":"5430000","city_en":"Osaka","city_jp":"大阪市　天王寺区"},{"districts":[],"postal_code":"5560000","city_en":"Osaka","city_jp":"大阪市　浪速区"},{"districts":[],"postal_code":"5550000","city_en":"Osaka","city_jp":"大阪市　西淀川区"},{"districts":[],"postal_code":"5330000","city_en":"Osaka","city_jp":"大阪市　東淀川区"},{"districts":[],"postal_code":"5370000","city_en":"Osaka","city_jp":"大阪市　東成区"},{"districts":[],"postal_code":"5440000","city_en":"Osaka","city_jp":"大阪市　生野区"},{"districts":[],"postal_code":"5350000","city_en":"Osaka","city_jp":"大阪市　旭区"},{"districts":[],"postal_code":"5360000","city_en":"Osaka","city_jp":"大阪市　城東区"},{"districts":[],"postal_code":"5450000","city_en":"Osaka","city_jp":"大阪市　阿倍野区"},{"districts":[],"postal_code":"5580000","city_en":"Osaka","city_jp":"大阪市　住吉区"},{"districts":[],"postal_code":"5460000","city_en":"Osaka","city_jp":"大阪市　東住吉区"},{"districts":[],"postal_code":"5570000","city_en":"Osaka","city_jp":"大阪市　西成区"},{"districts":[],"postal_code":"5320000","city_en":"Osaka","city_jp":"大阪市　淀川区"},{"districts":[],"postal_code":"5380000","city_en":"Osaka","city_jp":"大阪市　鶴見区"},{"districts":[],"postal_code":"5590000","city_en":"Osaka","city_jp":"大阪市　住之江区"},{"districts":[],"postal_code":"5470000","city_en":"Osaka","city_jp":"大阪市　平野区"},{"districts":[],"postal_code":"5300000","city_en":"Osaka","city_jp":"大阪市　北区"},{"districts":[],"postal_code":"5390000","city_en":"Osaka","city_jp":"大阪市　中央区"},{"districts":[],"postal_code":"5900000","city_en":"Sakai","city_jp":"堺市　堺区"},{"districts":[],"postal_code":"5990000","city_en":"Sakai","city_jp":"堺市　中区"},{"districts":[],"postal_code":"5990000","city_en":"Sakai","city_jp":"堺市　東区"},{"districts":[],"postal_code":"5930000","city_en":"Sakai","city_jp":"堺市　西区"},{"districts":[],"postal_code":"5900100","city_en":"Sakai","city_jp":"堺市　南区"},{"districts":[],"postal_code":"5910000","city_en":"Sakai","city_jp":"堺市　北区"},{"districts":[],"postal_code":"5870000","city_en":"Sakai","city_jp":"堺市　美原区"},{"districts":[],"postal_code":"5960000","city_en":"Kishiwada","city_jp":"岸和田市"},{"districts":[],"postal_code":"5600000","city_en":"Toyonaka","city_jp":"豊中市"},{"districts":[],"postal_code":"5630000","city_en":"Ikeda","city_jp":"池田市"},{"districts":[],"postal_code":"5640000","city_en":"Suita","city_jp":"吹田市"},{"districts":[],"postal_code":"5950000","city_en":"Izumiotsu","city_jp":"泉大津市"},{"districts":[],"postal_code":"5690000","city_en":"Takatsuki","city_jp":"高槻市"},{"districts":[],"postal_code":"5970000","city_en":"Kaizuka","city_jp":"貝塚市"},{"districts":[],"postal_code":"5700000","city_en":"Moriguchi","city_jp":"守口市"},{"districts":[],"postal_code":"5730000","city_en":"Hirakata","city_jp":"枚方市"},{"districts":[],"postal_code":"5670000","city_en":"Ibaraki","city_jp":"茨木市"},{"districts":[],"postal_code":"5810000","city_en":"Yao","city_jp":"八尾市"},{"districts":[],"postal_code":"5980000","city_en":"Izumisano","city_jp":"泉佐野市"},{"districts":[],"postal_code":"5840000","city_en":"Tondabayashi","city_jp":"富田林市"},{"districts":[],"postal_code":"5720000","city_en":"Neyagawa","city_jp":"寝屋川市"},{"districts":[],"postal_code":"5860000","city_en":"Kawachinagano","city_jp":"河内長野市"},{"districts":[],"postal_code":"5800000","city_en":"Matsubara","city_jp":"松原市"},{"districts":[],"postal_code":"5740000","city_en":"Daito","city_jp":"大東市"},{"districts":[],"postal_code":"5940000","city_en":"Izumi","city_jp":"和泉市"},{"districts":[],"postal_code":"5620000","city_en":"Mino","city_jp":"箕面市"},{"districts":[],"postal_code":"5820000","city_en":"Kashiwara","city_jp":"柏原市"},{"districts":[],"postal_code":"5830000","city_en":"Habikino","city_jp":"羽曳野市"},{"districts":[],"postal_code":"5710000","city_en":"Kadoma","city_jp":"門真市"},{"districts":[],"postal_code":"5660000","city_en":"Settsu","city_jp":"摂津市"},{"districts":[],"postal_code":"5920000","city_en":"Takaishi","city_jp":"高石市"},{"districts":[],"postal_code":"5830000","city_en":"Fujiidera","city_jp":"藤井寺市"},{"districts":[],"postal_code":"5770000","city_en":"Higashiosaka","city_jp":"東大阪市"},{"districts":[],"postal_code":"5900500","city_en":"Sennan","city_jp":"泉南市"},{"districts":[],"postal_code":"5750000","city_en":"Shijonawate","city_jp":"四條畷市"},{"districts":[],"postal_code":"5760000","city_en":"Katano","city_jp":"交野市"},{"districts":[],"postal_code":"5890000","city_en":"Osakasayama","city_jp":"大阪狭山市"},{"districts":[],"postal_code":"5990200","city_en":"Hannan","city_jp":"阪南市"},{"districts":[],"postal_code":"6180000","city_en":"Mishima gun","city_jp":"三島郡　島本町"},{"districts":[],"postal_code":"5630100","city_en":"","city_jp":"豊能郡　豊能町"},{"districts":[],"postal_code":"5630300","city_en":"","city_jp":"豊能郡　能勢町"},{"districts":[],"postal_code":"5950000","city_en":"","city_jp":"泉北郡　忠岡町"},{"districts":[],"postal_code":"5900400","city_en":"","city_jp":"泉南郡　熊取町"},{"districts":[],"postal_code":"5980000","city_en":"","city_jp":"泉南郡　田尻町"},{"districts":[],"postal_code":"5990300","city_en":"","city_jp":"泉南郡　岬町"},{"districts":[],"postal_code":"5830000","city_en":"","city_jp":"南河内郡　太子町"},{"districts":[],"postal_code":"5850000","city_en":"","city_jp":"南河内郡　河南町"},{"districts":[],"postal_code":"5850000","city_en":"","city_jp":"南河内郡　千早赤阪村"}],"prefecture_en":"Osaka fu","prefecture_jp":"大阪府"},"Hyogo ken":{"cities":[{"districts":[],"postal_code":"6580083","city_en":"Kobe","city_jp":"神戸市　東灘区"},{"districts":[],"postal_code":"6570000","city_en":"Kobe","city_jp":"神戸市　灘区"},{"districts":[],"postal_code":"6520000","city_en":"Kobe","city_jp":"神戸市　兵庫区"},{"districts":[],"postal_code":"6530000","city_en":"Kobe","city_jp":"神戸市　長田区"},{"districts":[],"postal_code":"6540000","city_en":"Kobe","city_jp":"神戸市　須磨区"},{"districts":[],"postal_code":"6550000","city_en":"Kobe","city_jp":"神戸市　垂水区"},{"districts":[],"postal_code":"6511100","city_en":"Kobe","city_jp":"神戸市　北区"},{"districts":[],"postal_code":"6500000","city_en":"Kobe","city_jp":"神戸市　中央区"},{"districts":[],"postal_code":"6500000","city_en":"Kobe","city_jp":"神戸市　西区"},{"districts":[],"postal_code":"6700000","city_en":"Himeji","city_jp":"姫路市"},{"districts":[],"postal_code":"6600000","city_en":"Amagasaki","city_jp":"尼崎市"},{"districts":[],"postal_code":"6730000","city_en":"Akashi","city_jp":"明石市"},{"districts":[],"postal_code":"6620000","city_en":"Nishinomiya","city_jp":"西宮市"},{"districts":[],"postal_code":"6560000","city_en":"Sumoto","city_jp":"洲本市"},{"districts":[],"postal_code":"6590000","city_en":"Ashiya","city_jp":"芦屋市"},{"districts":[],"postal_code":"6640000","city_en":"Itami","city_jp":"伊丹市"},{"districts":[],"postal_code":"6780000","city_en":"Aioi","city_jp":"相生市"},{"districts":[],"postal_code":"6680000","city_en":"Toyoka","city_jp":"豊岡市"},{"districts":[],"postal_code":"6750000","city_en":"Kakogawa","city_jp":"加古川市"},{"districts":[],"postal_code":"6780200","city_en":"Ako","city_jp":"赤穂市"},{"districts":[],"postal_code":"6770000","city_en":"Nishiwaki","city_jp":"西脇市"},{"districts":[],"postal_code":"6650000","city_en":"Takarazuka","city_jp":"宝塚市"},{"districts":[],"postal_code":"6730400","city_en":"Miki","city_jp":"三木市"},{"districts":[],"postal_code":"6760000","city_en":"Takasago","city_jp":"高砂市"},{"districts":[],"postal_code":"6660000","city_en":"Kawanishi","city_jp":"川西市"},{"districts":[],"postal_code":"6751300","city_en":"Ono","city_jp":"小野市"},{"districts":[],"postal_code":"6691300","city_en":"Sanda","city_jp":"三田市"},{"districts":[],"postal_code":"6750000","city_en":"Kasai","city_jp":"加西市"},{"districts":[],"postal_code":"6692300","city_en":"Sasayama","city_jp":"篠山市"},{"districts":[],"postal_code":"6670000","city_en":"Yabu","city_jp":"養父市"},{"districts":[],"postal_code":"6693300","city_en":"Tamba","city_jp":"丹波市"},{"districts":[],"postal_code":"6560400","city_en":"Minamiawaji","city_jp":"南あわじ市"},{"districts":[],"postal_code":"6695200","city_en":"Asago","city_jp":"朝来市"},{"districts":[],"postal_code":"6562100","city_en":"Awaji","city_jp":"淡路市"},{"districts":[],"postal_code":"6712500","city_en":"Shiso","city_jp":"宍粟市"},{"districts":[],"postal_code":"6731400","city_en":"Kato","city_jp":"加東市"},{"districts":[],"postal_code":"6794100","city_en":"Tatsuno","city_jp":"たつの市"},{"districts":[],"postal_code":"6660200","city_en":"","city_jp":"川辺郡　猪名川町"},{"districts":[],"postal_code":"6791100","city_en":"","city_jp":"多可郡　多可町"},{"districts":[],"postal_code":"6751100","city_en":"","city_jp":"加古郡　稲美町"},{"districts":[],"postal_code":"6750100","city_en":"","city_jp":"加古郡　播磨町"},{"districts":[],"postal_code":"6792300","city_en":"","city_jp":"神崎郡　市川町"},{"districts":[],"postal_code":"6792200","city_en":"","city_jp":"神崎郡　福崎町"},{"districts":[],"postal_code":"6793100","city_en":"","city_jp":"神崎郡　神河町"},{"districts":[],"postal_code":"6711500","city_en":"","city_jp":"揖保郡　太子町"},{"districts":[],"postal_code":"6781200","city_en":"","city_jp":"赤穂郡　上郡町"},{"districts":[],"postal_code":"6795300","city_en":"","city_jp":"佐用郡　佐用町"},{"districts":[],"postal_code":"6696500","city_en":"","city_jp":"美方郡　香美町"},{"districts":[],"postal_code":"6696700","city_en":"Mikata gun","city_jp":"美方郡　新温泉町"}],"prefecture_en":"Hyogo ken","prefecture_jp":"兵庫県"},"Nara ken":{"cities":[{"districts":[],"postal_code":"6310053","city_en":"Nara","city_jp":"奈良市"},{"districts":[],"postal_code":"6350000","city_en":"Yamatotakada","city_jp":"大和高田市"},{"districts":[],"postal_code":"6391100","city_en":"Yamatokoriyama","city_jp":"大和郡山市"},{"districts":[],"postal_code":"6320000","city_en":"Tenri","city_jp":"天理市"},{"districts":[],"postal_code":"6340000","city_en":"Kashihara","city_jp":"橿原市"},{"districts":[],"postal_code":"6330000","city_en":"Sakurai","city_jp":"桜井市"},{"districts":[],"postal_code":"6370000","city_en":"Gojo","city_jp":"五條市"},{"districts":[],"postal_code":"6392200","city_en":"Gose","city_jp":"御所市"},{"districts":[],"postal_code":"6300200","city_en":"Ikoma","city_jp":"生駒市"},{"districts":[],"postal_code":"6390200","city_en":"Kashiba","city_jp":"香芝市"},{"districts":[],"postal_code":"6392100","city_en":"Katsuragi","city_jp":"葛城市"},{"districts":[],"postal_code":"6330200","city_en":"Uda","city_jp":"宇陀市"},{"districts":[],"postal_code":"6300000","city_en":"","city_jp":"山辺郡　山添村"},{"districts":[],"postal_code":"6360000","city_en":"","city_jp":"生駒郡　平群町"},{"districts":[],"postal_code":"6360000","city_en":"","city_jp":"生駒郡　三郷町"},{"districts":[],"postal_code":"6360100","city_en":"","city_jp":"生駒郡　斑鳩町"},{"districts":[],"postal_code":"6391100","city_en":"","city_jp":"生駒郡　安堵町"},{"districts":[],"postal_code":"6360300","city_en":"","city_jp":"磯城郡　川西町"},{"districts":[],"postal_code":"6360300","city_en":"","city_jp":"磯城郡　三宅町"},{"districts":[],"postal_code":"6360300","city_en":"","city_jp":"磯城郡　田原本町"},{"districts":[],"postal_code":"6331200","city_en":"","city_jp":"宇陀郡　曽爾村"},{"districts":[],"postal_code":"6331300","city_en":"","city_jp":"宇陀郡　御杖村"},{"districts":[],"postal_code":"6350100","city_en":"","city_jp":"高市郡　高取町"},{"districts":[],"postal_code":"6340100","city_en":"","city_jp":"高市郡　明日香村"},{"districts":[],"postal_code":"6390200","city_en":"","city_jp":"北葛城郡　上牧町"},{"districts":[],"postal_code":"6360000","city_en":"","city_jp":"北葛城郡　王寺町"},{"districts":[],"postal_code":"6350000","city_en":"","city_jp":"北葛城郡　広陵町"},{"districts":[],"postal_code":"6360000","city_en":"","city_jp":"北葛城郡　河合町"},{"districts":[],"postal_code":"6393100","city_en":"","city_jp":"吉野郡　吉野町"},{"districts":[],"postal_code":"6380000","city_en":"","city_jp":"吉野郡　大淀町"},{"districts":[],"postal_code":"6380000","city_en":"Yoshino gun","city_jp":"吉野郡　下市町"},{"districts":[],"postal_code":"6380200","city_en":"","city_jp":"吉野郡　黒滝村"},{"districts":[],"postal_code":"6380300","city_en":"","city_jp":"吉野郡　天川村"},{"districts":[],"postal_code":"6480300","city_en":"","city_jp":"吉野郡　野迫川村"},{"districts":[],"postal_code":"6371500","city_en":"","city_jp":"吉野郡　十津川村"},{"districts":[],"postal_code":"6393800","city_en":"Yoshino gun","city_jp":"吉野郡　下北山村"},{"districts":[],"postal_code":"6393700","city_en":"","city_jp":"吉野郡　上北山村"},{"districts":[],"postal_code":"6393500","city_en":"","city_jp":"吉野郡　川上村"},{"districts":[],"postal_code":"6332400","city_en":"","city_jp":"吉野郡　東吉野村"}],"prefecture_en":"Nara ken","prefecture_jp":"奈良県"},"Wakayama ken":{"cities":[{"districts":[],"postal_code":"6408273","city_en":"Wakayama","city_jp":"和歌山市"},{"districts":[],"postal_code":"6420000","city_en":"Kainan","city_jp":"海南市"},{"districts":[],"postal_code":"6480000","city_en":"Hashimoto","city_jp":"橋本市"},{"districts":[],"postal_code":"6490300","city_en":"Arida","city_jp":"有田市"},{"districts":[],"postal_code":"6440000","city_en":"Gobo","city_jp":"御坊市"},{"districts":[],"postal_code":"6460000","city_en":"Tanabe","city_jp":"田辺市"},{"districts":[],"postal_code":"6470000","city_en":"Shingu","city_jp":"新宮市"},{"districts":[],"postal_code":"6496400","city_en":"Kinokawa","city_jp":"紀の川市"},{"districts":[],"postal_code":"6496200","city_en":"Iwade","city_jp":"岩出市"},{"districts":[],"postal_code":"6401100","city_en":"","city_jp":"海草郡　紀美野町"},{"districts":[],"postal_code":"6497100","city_en":"","city_jp":"伊都郡　かつらぎ町"},{"districts":[],"postal_code":"6480100","city_en":"","city_jp":"伊都郡　九度山町"},{"districts":[],"postal_code":"6480200","city_en":"","city_jp":"伊都郡　高野町"},{"districts":[],"postal_code":"6430000","city_en":"","city_jp":"有田郡　湯浅町"},{"districts":[],"postal_code":"6430000","city_en":"","city_jp":"有田郡　広川町"},{"districts":[],"postal_code":"6430000","city_en":"","city_jp":"有田郡　有田川町"},{"districts":[],"postal_code":"6440000","city_en":"","city_jp":"日高郡　美浜町"},{"districts":[],"postal_code":"6491200","city_en":"","city_jp":"日高郡　日高町"},{"districts":[],"postal_code":"6491100","city_en":"","city_jp":"日高郡　由良町"},{"districts":[],"postal_code":"6491500","city_en":"","city_jp":"日高郡　印南町"},{"districts":[],"postal_code":"6450000","city_en":"","city_jp":"日高郡　みなべ町"},{"districts":[],"postal_code":"6491300","city_en":"","city_jp":"日高郡　日高川町"},{"districts":[],"postal_code":"6492200","city_en":"Nishimuro gun","city_jp":"西牟婁郡　白浜町"},{"districts":[],"postal_code":"6492100","city_en":"","city_jp":"西牟婁郡　上富田町"},{"districts":[],"postal_code":"6492600","city_en":"","city_jp":"西牟婁郡　すさみ町"},{"districts":[],"postal_code":"6495300","city_en":"","city_jp":"東牟婁郡　那智勝浦町"},{"districts":[],"postal_code":"6495100","city_en":"","city_jp":"東牟婁郡　太地町"},{"districts":[],"postal_code":"6494100","city_en":"","city_jp":"東牟婁郡　古座川町"},{"districts":[],"postal_code":"6471600","city_en":"","city_jp":"東牟婁郡　北山村"},{"districts":[],"postal_code":"6493500","city_en":"","city_jp":"東牟婁郡　串本町"}],"prefecture_en":"Wakayama ken","prefecture_jp":"和歌山県"},"Tottori ken":{"cities":[{"districts":[],"postal_code":"6800805","city_en":"Tottori","city_jp":"鳥取市"},{"districts":[],"postal_code":"6830000","city_en":"Yonago","city_jp":"米子市"},{"districts":[],"postal_code":"6820000","city_en":"Kurayoshi","city_jp":"倉吉市"},{"districts":[],"postal_code":"6840000","city_en":"Sakaiminato","city_jp":"境港市"},{"districts":[],"postal_code":"6810000","city_en":"","city_jp":"岩美郡　岩美町"},{"districts":[],"postal_code":"6800700","city_en":"","city_jp":"八頭郡　若桜町"},{"districts":[],"postal_code":"6891400","city_en":"","city_jp":"八頭郡　智頭町"},{"districts":[],"postal_code":"6800400","city_en":"","city_jp":"八頭郡　八頭町"},{"districts":[],"postal_code":"6820100","city_en":"","city_jp":"東伯郡　三朝町"},{"districts":[],"postal_code":"6820700","city_en":"","city_jp":"東伯郡　湯梨浜町"},{"districts":[],"postal_code":"6892300","city_en":"","city_jp":"東伯郡　琴浦町"},{"districts":[],"postal_code":"6892200","city_en":"","city_jp":"東伯郡　北栄町"},{"districts":[],"postal_code":"6893500","city_en":"","city_jp":"西伯郡　日吉津村"},{"districts":[],"postal_code":"6893200","city_en":"","city_jp":"西伯郡　大山町"},{"districts":[],"postal_code":"6830300","city_en":"","city_jp":"西伯郡　南部町"},{"districts":[],"postal_code":"6894100","city_en":"","city_jp":"西伯郡　伯耆町"},{"districts":[],"postal_code":"6895200","city_en":"","city_jp":"日野郡　日南町"},{"districts":[],"postal_code":"6894500","city_en":"","city_jp":"日野郡　日野町"},{"districts":[],"postal_code":"6894400","city_en":"","city_jp":"日野郡　江府町"}],"prefecture_en":"Tottori ken","prefecture_jp":"鳥取県"},"Shimane ken":{"cities":[{"districts":[],"postal_code":"6900261","city_en":"Matsue","city_jp":"松江市"},{"districts":[],"postal_code":"6970000","city_en":"Hamada","city_jp":"浜田市"},{"districts":[],"postal_code":"6930000","city_en":"Izumo","city_jp":"出雲市"},{"districts":[],"postal_code":"6980000","city_en":"Masuda","city_jp":"益田市"},{"districts":[],"postal_code":"6940000","city_en":"Oda","city_jp":"大田市"},{"districts":[],"postal_code":"6920000","city_en":"Yasugi","city_jp":"安来市"},{"districts":[],"postal_code":"6950000","city_en":"Gotsu","city_jp":"江津市"},{"districts":[],"postal_code":"6902400","city_en":"Unnan","city_jp":"雲南市"},{"districts":[],"postal_code":"6991500","city_en":"","city_jp":"仁多郡　奥出雲町"},{"districts":[],"postal_code":"6903200","city_en":"","city_jp":"飯石郡　飯南町"},{"districts":[],"postal_code":"6960000","city_en":"","city_jp":"邑智郡　川本町"},{"districts":[],"postal_code":"6994600","city_en":"","city_jp":"邑智郡　美郷町"},{"districts":[],"postal_code":"6960100","city_en":"","city_jp":"邑智郡　邑南町"},{"districts":[],"postal_code":"6995600","city_en":"","city_jp":"鹿足郡　津和野町"},{"districts":[],"postal_code":"6995500","city_en":"","city_jp":"鹿足郡　吉賀町"},{"districts":[],"postal_code":"6840400","city_en":"","city_jp":"隠岐郡　海士町"},{"districts":[],"postal_code":"6840300","city_en":"","city_jp":"隠岐郡　西ノ島町"},{"districts":[],"postal_code":"6840100","city_en":"","city_jp":"隠岐郡　知夫村"},{"districts":[],"postal_code":"6850000","city_en":"","city_jp":"隠岐郡　隠岐の島町"}],"prefecture_en":"Shimane ken","prefecture_jp":"島根県"},"Okayama ken":{"cities":[{"districts":[],"postal_code":"7000045","city_en":"Okayama","city_jp":"岡山市　北区"},{"districts":[],"postal_code":"7000000","city_en":"Okayama","city_jp":"岡山市　中区"},{"districts":[],"postal_code":"7000000","city_en":"Okayama","city_jp":"岡山市　東区"},{"districts":[],"postal_code":"7000000","city_en":"Okayama","city_jp":"岡山市　南区"},{"districts":[],"postal_code":"7100000","city_en":"Kurashiki","city_jp":"倉敷市"},{"districts":[],"postal_code":"7080000","city_en":"Tsuyama","city_jp":"津山市"},{"districts":[],"postal_code":"7060000","city_en":"Tamano","city_jp":"玉野市"},{"districts":[],"postal_code":"7140000","city_en":"Kasaoka","city_jp":"笠岡市"},{"districts":[],"postal_code":"7150000","city_en":"Ibara","city_jp":"井原市"},{"districts":[],"postal_code":"7191100","city_en":"Soja","city_jp":"総社市"},{"districts":[],"postal_code":"7160000","city_en":"Takahashi","city_jp":"高梁市"},{"districts":[],"postal_code":"7180000","city_en":"Niimi","city_jp":"新見市"},{"districts":[],"postal_code":"7050000","city_en":"Bizen","city_jp":"備前市"},{"districts":[],"postal_code":"7014200","city_en":"Setochi","city_jp":"瀬戸内市"},{"districts":[],"postal_code":"7090800","city_en":"Akaiwa","city_jp":"赤磐市"},{"districts":[],"postal_code":"7193100","city_en":"Maniwa","city_jp":"真庭市"},{"districts":[],"postal_code":"7070000","city_en":"Mimasaka","city_jp":"美作市"},{"districts":[],"postal_code":"7190200","city_en":"Asakuchi","city_jp":"浅口市"},{"districts":[],"postal_code":"7090400","city_en":"","city_jp":"和気郡　和気町"},{"districts":[],"postal_code":"7010300","city_en":"","city_jp":"都窪郡　早島町"},{"districts":[],"postal_code":"7190300","city_en":"","city_jp":"浅口郡　里庄町"},{"districts":[],"postal_code":"7141200","city_en":"","city_jp":"小田郡　矢掛町"},{"districts":{"postal_code":"7170201","district_en":"","district_jp":""},"postal_code":"7170201","city_en":"Maniwa gun","city_jp":"真庭郡　新庄村"},{"districts":[],"postal_code":"7080300","city_en":"","city_jp":"苫田郡　鏡野町"},{"districts":[],"postal_code":"7094300","city_en":"","city_jp":"勝田郡　勝央町"},{"districts":[],"postal_code":"7081300","city_en":"","city_jp":"勝田郡　奈義町"},{"districts":[],"postal_code":"7070500","city_en":"","city_jp":"英田郡　西粟倉村"},{"districts":[],"postal_code":"7093600","city_en":"","city_jp":"久米郡　久米南町"},{"districts":[],"postal_code":"7093700","city_en":"","city_jp":"久米郡　美咲町"},{"districts":[],"postal_code":"7161100","city_en":"","city_jp":"加賀郡　吉備中央町"}],"prefecture_en":"Okayama ken","prefecture_jp":"岡山県"},"Hiroshima ken":{"cities":[{"districts":[],"postal_code":"7300851","city_en":"Hiroshima","city_jp":"広島市　中区"},{"districts":[],"postal_code":"7320000","city_en":"Hiroshima","city_jp":"広島市　東区"},{"districts":[],"postal_code":"7340000","city_en":"Hiroshima","city_jp":"広島市　南区"},{"districts":[],"postal_code":"7330000","city_en":"Hiroshima","city_jp":"広島市　西区"},{"districts":[],"postal_code":"7310100","city_en":"Hiroshima","city_jp":"広島市　安佐南区"},{"districts":[],"postal_code":"7391700","city_en":"Hiroshima","city_jp":"広島市　安佐北区"},{"districts":[],"postal_code":"7360000","city_en":"Hiroshima","city_jp":"広島市　安芸区"},{"districts":[],"postal_code":"7315100","city_en":"Hiroshima","city_jp":"広島市　佐伯区"},{"districts":[],"postal_code":"7370000","city_en":"Kure","city_jp":"呉市"},{"districts":[],"postal_code":"7250000","city_en":"Takehara","city_jp":"竹原市"},{"districts":[],"postal_code":"7230000","city_en":"Mihara","city_jp":"三原市"},{"districts":[],"postal_code":"7220000","city_en":"Onomichi","city_jp":"尾道市"},{"districts":[],"postal_code":"7210000","city_en":"Fukuyama","city_jp":"福山市"},{"districts":[],"postal_code":"7260000","city_en":"Fuchu","city_jp":"府中市"},{"districts":[],"postal_code":"7280000","city_en":"Miyoshi","city_jp":"三次市"},{"districts":[],"postal_code":"7270000","city_en":"Shobara","city_jp":"庄原市"},{"districts":[],"postal_code":"7390600","city_en":"Otake","city_jp":"大竹市"},{"districts":[],"postal_code":"7390000","city_en":"Higashihiroshima","city_jp":"東広島市"},{"districts":[],"postal_code":"7380000","city_en":"Hatsukaichi","city_jp":"廿日市市"},{"districts":[],"postal_code":"7310500","city_en":"Akitakata","city_jp":"安芸高田市"},{"districts":[],"postal_code":"7372100","city_en":"Etajima","city_jp":"江田島市"},{"districts":[],"postal_code":"7350000","city_en":"","city_jp":"安芸郡　府中町"},{"districts":[],"postal_code":"7360000","city_en":"","city_jp":"安芸郡　海田町"},{"districts":[],"postal_code":"7314200","city_en":"","city_jp":"安芸郡　熊野町"},{"districts":[],"postal_code":"7314300","city_en":"","city_jp":"安芸郡　坂町"},{"districts":[],"postal_code":"7313500","city_en":"","city_jp":"山県郡　安芸太田町"},{"districts":[],"postal_code":"7311500","city_en":"","city_jp":"山県郡　北広島町"},{"districts":[],"postal_code":"7250200","city_en":"","city_jp":"豊田郡　大崎上島町"},{"districts":[],"postal_code":"7221100","city_en":"","city_jp":"世羅郡　世羅町"},{"districts":[],"postal_code":"7201800","city_en":"","city_jp":"神石郡　神石高原町"}],"prefecture_en":"Hiroshima ken","prefecture_jp":"広島県"},"Yamaguchi ken":{"cities":[{"districts":[],"postal_code":"7520902","city_en":"Shimonoseki","city_jp":"下関市"},{"districts":[],"postal_code":"7550000","city_en":"Ube","city_jp":"宇部市"},{"districts":[],"postal_code":"7530000","city_en":"Yamaguchi","city_jp":"山口市"},{"districts":[],"postal_code":"7580000","city_en":"Hagi","city_jp":"萩市"},{"districts":[],"postal_code":"7470000","city_en":"Hofu","city_jp":"防府市"},{"districts":[],"postal_code":"7440000","city_en":"Kudamatsu","city_jp":"下松市"},{"districts":[],"postal_code":"7400000","city_en":"Iwakuni","city_jp":"岩国市"},{"districts":[],"postal_code":"7430000","city_en":"Hikari","city_jp":"光市"},{"districts":[],"postal_code":"7594100","city_en":"Nagato","city_jp":"長門市"},{"districts":[],"postal_code":"7420000","city_en":"Yanai","city_jp":"柳井市"},{"districts":[],"postal_code":"7592200","city_en":"Mine","city_jp":"美祢市"},{"districts":[],"postal_code":"7450000","city_en":"Shunan","city_jp":"周南市"},{"districts":[],"postal_code":"7560000","city_en":"Sanyoonoda","city_jp":"山陽小野田市"},{"districts":[],"postal_code":"7422100","city_en":"","city_jp":"大島郡　周防大島町"},{"districts":[],"postal_code":"7400000","city_en":"","city_jp":"玖珂郡　和木町"},{"districts":[],"postal_code":"7421400","city_en":"","city_jp":"熊毛郡　上関町"},{"districts":[],"postal_code":"7421500","city_en":"","city_jp":"熊毛郡　田布施町"},{"districts":[],"postal_code":"7421100","city_en":"","city_jp":"熊毛郡　平生町"},{"districts":[],"postal_code":"7593600","city_en":"","city_jp":"阿武郡　阿武町"}],"prefecture_en":"Yamaguchi ken","prefecture_jp":"山口県"},"Tokushima ken":{"cities":[{"districts":[],"postal_code":"7700835","city_en":"Tokushima","city_jp":"徳島市"},{"districts":[],"postal_code":"7720000","city_en":"Naruto","city_jp":"鳴門市"},{"districts":[],"postal_code":"7730000","city_en":"Komatsushima","city_jp":"小松島市"},{"districts":[],"postal_code":"7740000","city_en":"Anan","city_jp":"阿南市"},{"districts":[],"postal_code":"7760000","city_en":"Yoshinogawa","city_jp":"吉野川市"},{"districts":[],"postal_code":"7711700","city_en":"Awa","city_jp":"阿波市"},{"districts":[],"postal_code":"7793600","city_en":"Mima","city_jp":"美馬市"},{"districts":[],"postal_code":"7780000","city_en":"Miyoshi","city_jp":"三好市"},{"districts":[],"postal_code":"7714300","city_en":"","city_jp":"勝浦郡　勝浦町"},{"districts":[],"postal_code":"7714500","city_en":"","city_jp":"勝浦郡　上勝町"},{"districts":[],"postal_code":"7714100","city_en":"","city_jp":"名東郡　佐那河内村"},{"districts":[],"postal_code":"7793200","city_en":"","city_jp":"名西郡　石井町"},{"districts":[],"postal_code":"7713200","city_en":"","city_jp":"名西郡　神山町"},{"districts":[],"postal_code":"7715200","city_en":"","city_jp":"那賀郡　那賀町"},{"districts":[],"postal_code":"7750000","city_en":"","city_jp":"海部郡　牟岐町"},{"districts":[],"postal_code":"7792300","city_en":"","city_jp":"海部郡　美波町"},{"districts":[],"postal_code":"7750200","city_en":"","city_jp":"海部郡　海陽町"},{"districts":[],"postal_code":"7710200","city_en":"","city_jp":"板野郡　松茂町"},{"districts":[],"postal_code":"7710200","city_en":"","city_jp":"板野郡　北島町"},{"districts":[],"postal_code":"7711200","city_en":"","city_jp":"板野郡　藍住町"},{"districts":[],"postal_code":"7790100","city_en":"","city_jp":"板野郡　板野町"},{"districts":[],"postal_code":"7711300","city_en":"","city_jp":"板野郡　上板町"},{"districts":[],"postal_code":"7794100","city_en":"","city_jp":"美馬郡　つるぎ町"},{"districts":[],"postal_code":"7794700","city_en":"","city_jp":"三好郡　東みよし町"}],"prefecture_en":"Tokushima ken","prefecture_jp":"徳島県"},"Kagawa ken":{"cities":[{"districts":[],"postal_code":"7600002","city_en":"Takamatsu","city_jp":"高松市"},{"districts":[],"postal_code":"7630000","city_en":"Marugame","city_jp":"丸亀市"},{"districts":[],"postal_code":"7620000","city_en":"Sakaide","city_jp":"坂出市"},{"districts":[],"postal_code":"7650000","city_en":"Zentsuji","city_jp":"善通寺市"},{"districts":[],"postal_code":"7680000","city_en":"Kanonji","city_jp":"観音寺市"},{"districts":[],"postal_code":"7692300","city_en":"Sanuki","city_jp":"さぬき市"},{"districts":[],"postal_code":"7692700","city_en":"Higashikagawa","city_jp":"東かがわ市"},{"districts":[],"postal_code":"7670000","city_en":"Mitoyo","city_jp":"三豊市"},{"districts":[],"postal_code":"7614100","city_en":"","city_jp":"小豆郡　土庄町"},{"districts":[],"postal_code":"7614300","city_en":"","city_jp":"小豆郡　小豆島町"},{"districts":[],"postal_code":"7610700","city_en":"","city_jp":"木田郡　三木町"},{"districts":{"postal_code":"7613110","district_en":"","district_jp":""},"postal_code":"7613110","city_en":"","city_jp":"香川郡　直島町"},{"districts":[],"postal_code":"7690200","city_en":"","city_jp":"綾歌郡　宇多津町"},{"districts":[],"postal_code":"7612300","city_en":"","city_jp":"綾歌郡　綾川町"},{"districts":[],"postal_code":"7660000","city_en":"","city_jp":"仲多度郡　琴平町"},{"districts":[],"postal_code":"7640000","city_en":"","city_jp":"仲多度郡　多度津町"},{"districts":[],"postal_code":"7660000","city_en":"","city_jp":"仲多度郡　まんのう町"}],"prefecture_en":"Kagawa ken","prefecture_jp":"香川県"},"Ehime ken":{"cities":[{"districts":[],"postal_code":"7900064","city_en":"Matsuyama","city_jp":"松山市"},{"districts":[],"postal_code":"7940000","city_en":"Imabari","city_jp":"今治市"},{"districts":[],"postal_code":"7980000","city_en":"Uwajima","city_jp":"宇和島市"},{"districts":[],"postal_code":"7960000","city_en":"Yawatahama","city_jp":"八幡浜市"},{"districts":[],"postal_code":"7920000","city_en":"Niihama","city_jp":"新居浜市"},{"districts":[],"postal_code":"7930000","city_en":"Saijo","city_jp":"西条市"},{"districts":[],"postal_code":"7950000","city_en":"Ozu","city_jp":"大洲市"},{"districts":[],"postal_code":"7993100","city_en":"Iyo","city_jp":"伊予市"},{"districts":[],"postal_code":"7990400","city_en":"Shikokuchuo","city_jp":"四国中央市"},{"districts":[],"postal_code":"7970000","city_en":"Seiyo","city_jp":"西予市"},{"districts":[],"postal_code":"7910200","city_en":"Toon","city_jp":"東温市"},{"districts":[],"postal_code":"7942500","city_en":"","city_jp":"越智郡　上島町"},{"districts":[],"postal_code":"7911200","city_en":"","city_jp":"上浮穴郡　久万高原町"},{"districts":[],"postal_code":"7913100","city_en":"","city_jp":"伊予郡　松前町"},{"districts":[],"postal_code":"7912100","city_en":"","city_jp":"伊予郡　砥部町"},{"districts":[],"postal_code":"7913300","city_en":"","city_jp":"喜多郡　内子町"},{"districts":[],"postal_code":"7960300","city_en":"","city_jp":"西宇和郡　伊方町"},{"districts":[],"postal_code":"7982100","city_en":"","city_jp":"北宇和郡　松野町"},{"districts":[],"postal_code":"7981300","city_en":"","city_jp":"北宇和郡　鬼北町"},{"districts":[],"postal_code":"7984100","city_en":"","city_jp":"南宇和郡　愛南町"}],"prefecture_en":"Ehime ken","prefecture_jp":"愛媛県"},"Kochi ken":{"cities":[{"districts":[],"postal_code":"7800054","city_en":"Kochi","city_jp":"高知市"},{"districts":[],"postal_code":"7817100","city_en":"Muroto","city_jp":"室戸市"},{"districts":[],"postal_code":"7840000","city_en":"Aki","city_jp":"安芸市"},{"districts":[],"postal_code":"7830000","city_en":"Nankoku","city_jp":"南国市"},{"districts":[],"postal_code":"7811100","city_en":"Tosa","city_jp":"土佐市"},{"districts":[],"postal_code":"7850000","city_en":"Susaki","city_jp":"須崎市"},{"districts":[],"postal_code":"7880000","city_en":"Sukumo","city_jp":"宿毛市"},{"districts":[],"postal_code":"7870300","city_en":"Tosashimizu","city_jp":"土佐清水市"},{"districts":[],"postal_code":"7870000","city_en":"Shimanto","city_jp":"四万十市"},{"districts":[],"postal_code":"7815200","city_en":"Konan","city_jp":"香南市"},{"districts":[],"postal_code":"7820000","city_en":"Kami","city_jp":"香美市"},{"districts":[],"postal_code":"7817300","city_en":"","city_jp":"安芸郡　東洋町"},{"districts":[],"postal_code":"7816400","city_en":"","city_jp":"安芸郡　奈半利町"},{"districts":{"postal_code":"7816410","district_en":"","district_jp":""},"postal_code":"7816410","city_en":"","city_jp":"安芸郡　田野町"},{"districts":[],"postal_code":"7816400","city_en":"","city_jp":"安芸郡　安田町"},{"districts":[],"postal_code":"7816400","city_en":"","city_jp":"安芸郡　北川村"},{"districts":[],"postal_code":"7816200","city_en":"","city_jp":"安芸郡　馬路村"},{"districts":[],"postal_code":"7815700","city_en":"","city_jp":"安芸郡　芸西村"},{"districts":[],"postal_code":"7813600","city_en":"","city_jp":"長岡郡　本山町"},{"districts":[],"postal_code":"7890300","city_en":"","city_jp":"長岡郡　大豊町"},{"districts":[],"postal_code":"7813400","city_en":"","city_jp":"土佐郡　土佐町"},{"districts":[],"postal_code":"7813700","city_en":"","city_jp":"土佐郡　大川村"},{"districts":[],"postal_code":"7812100","city_en":"","city_jp":"吾川郡　いの町"},{"districts":[],"postal_code":"7811500","city_en":"","city_jp":"吾川郡　仁淀川町"},{"districts":[],"postal_code":"7891300","city_en":"","city_jp":"高岡郡　中土佐町"},{"districts":[],"postal_code":"7891200","city_en":"","city_jp":"高岡郡　佐川町"},{"districts":[],"postal_code":"7811300","city_en":"","city_jp":"高岡郡　越知町"},{"districts":[],"postal_code":"7850600","city_en":"","city_jp":"高岡郡　檮原町"},{"districts":[],"postal_code":"7812100","city_en":"","city_jp":"高岡郡　日高村"},{"districts":[],"postal_code":"7850200","city_en":"","city_jp":"高岡郡　津野町"},{"districts":[],"postal_code":"7860000","city_en":"Takaoka gun","city_jp":"高岡郡　四万十町"},{"districts":[],"postal_code":"7880300","city_en":"","city_jp":"幡多郡　大月町"},{"districts":[],"postal_code":"7870800","city_en":"","city_jp":"幡多郡　三原村"},{"districts":[],"postal_code":"7891900","city_en":"","city_jp":"幡多郡　黒潮町"}],"prefecture_en":"Kochi ken","prefecture_jp":"高知県"},"Fukuoka ken":{"cities":[{"districts":[],"postal_code":"8000045","city_en":"Kitakyushu","city_jp":"北九州市　門司区"},{"districts":[],"postal_code":"8080000","city_en":"Kitakyushu","city_jp":"北九州市　若松区"},{"districts":[],"postal_code":"8040000","city_en":"Kitakyushu","city_jp":"北九州市　戸畑区"},{"districts":[],"postal_code":"8020000","city_en":"Kitakyushu","city_jp":"北九州市　小倉北区"},{"districts":[],"postal_code":"8020000","city_en":"Kitakyushu","city_jp":"北九州市　小倉南区"},{"districts":[],"postal_code":"8050000","city_en":"Kitakyushu","city_jp":"北九州市　八幡東区"},{"districts":[],"postal_code":"8060000","city_en":"Kitakyushu","city_jp":"北九州市　八幡西区"},{"districts":[],"postal_code":"8130000","city_en":"Fukuoka","city_jp":"福岡市　東区"},{"districts":[],"postal_code":"8120000","city_en":"Fukuoka","city_jp":"福岡市　博多区"},{"districts":[],"postal_code":"8100000","city_en":"Fukuoka","city_jp":"福岡市　中央区"},{"districts":[],"postal_code":"8150000","city_en":"Fukuoka","city_jp":"福岡市　南区"},{"districts":[],"postal_code":"8190000","city_en":"Fukuoka","city_jp":"福岡市　西区"},{"districts":[],"postal_code":"8140100","city_en":"Fukuoka","city_jp":"福岡市　城南区"},{"districts":[],"postal_code":"8140000","city_en":"Fukuoka","city_jp":"福岡市　早良区"},{"districts":[],"postal_code":"8360000","city_en":"Omuta","city_jp":"大牟田市"},{"districts":[],"postal_code":"8390000","city_en":"Kurume","city_jp":"久留米市"},{"districts":[],"postal_code":"8220000","city_en":"Nogata","city_jp":"直方市"},{"districts":[],"postal_code":"8200000","city_en":"Iizuka","city_jp":"飯塚市"},{"districts":[],"postal_code":"8250000","city_en":"Tagawa","city_jp":"田川市"},{"districts":[],"postal_code":"8320000","city_en":"Yanagawa","city_jp":"柳川市"},{"districts":[],"postal_code":"8340000","city_en":"Yame","city_jp":"八女市"},{"districts":[],"postal_code":"8330000","city_en":"Chikugo","city_jp":"筑後市"},{"districts":[],"postal_code":"8310000","city_en":"Okawa","city_jp":"大川市"},{"districts":[],"postal_code":"8240000","city_en":"Yukuhashi","city_jp":"行橋市"},{"districts":[],"postal_code":"8280000","city_en":"Buzen","city_jp":"豊前市"},{"districts":[],"postal_code":"8090000","city_en":"Nakama","city_jp":"中間市"},{"districts":[],"postal_code":"8380100","city_en":"Ogori","city_jp":"小郡市"},{"districts":[],"postal_code":"8180000","city_en":"Chikushino","city_jp":"筑紫野市"},{"districts":[],"postal_code":"8160000","city_en":"Kasuga","city_jp":"春日市"},{"districts":[],"postal_code":"8160000","city_en":"Onojo","city_jp":"大野城市"},{"districts":[],"postal_code":"8113400","city_en":"Munakata","city_jp":"宗像市"},{"districts":[],"postal_code":"8180100","city_en":"Dazaifu","city_jp":"太宰府市"},{"districts":[],"postal_code":"8113100","city_en":"Koga","city_jp":"古賀市"},{"districts":[],"postal_code":"8113200","city_en":"Fukutsu","city_jp":"福津市"},{"districts":[],"postal_code":"8391400","city_en":"Ukiha","city_jp":"うきは市"},{"districts":[],"postal_code":"8230000","city_en":"Miyawaka","city_jp":"宮若市"},{"districts":[],"postal_code":"8200200","city_en":"Kama","city_jp":"嘉麻市"},{"districts":[],"postal_code":"8380000","city_en":"Asakura","city_jp":"朝倉市"},{"districts":[],"postal_code":"8350000","city_en":"Miyama","city_jp":"みやま市"},{"districts":[],"postal_code":"8191100","city_en":"Itoshima","city_jp":"糸島市"},{"districts":[],"postal_code":"8111200","city_en":"","city_jp":"筑紫郡　那珂川町"},{"districts":[],"postal_code":"8112100","city_en":"","city_jp":"糟屋郡　宇美町"},{"districts":[],"postal_code":"8112400","city_en":"","city_jp":"糟屋郡　篠栗町"},{"districts":[],"postal_code":"8112200","city_en":"Kasuya gun","city_jp":"糟屋郡　志免町"},{"districts":[],"postal_code":"8112100","city_en":"","city_jp":"糟屋郡　須惠町"},{"districts":[],"postal_code":"8110100","city_en":"Kasuya gun","city_jp":"糟屋郡　新宮町"},{"districts":[],"postal_code":"8112500","city_en":"","city_jp":"糟屋郡　久山町"},{"districts":[],"postal_code":"8112300","city_en":"","city_jp":"糟屋郡　粕屋町"},{"districts":[],"postal_code":"8070100","city_en":"","city_jp":"遠賀郡　芦屋町"},{"districts":[],"postal_code":"8070000","city_en":"","city_jp":"遠賀郡　水巻町"},{"districts":[],"postal_code":"8114200","city_en":"","city_jp":"遠賀郡　岡垣町"},{"districts":[],"postal_code":"8114300","city_en":"","city_jp":"遠賀郡　遠賀町"},{"districts":[],"postal_code":"8201100","city_en":"","city_jp":"鞍手郡　小竹町"},{"districts":[],"postal_code":"8071300","city_en":"","city_jp":"鞍手郡　鞍手町"},{"districts":[],"postal_code":"8200600","city_en":"","city_jp":"嘉穂郡　桂川町"},{"districts":[],"postal_code":"8380000","city_en":"","city_jp":"朝倉郡　筑前町"},{"districts":[],"postal_code":"8381700","city_en":"","city_jp":"朝倉郡　東峰村"},{"districts":[],"postal_code":"8301200","city_en":"","city_jp":"三井郡　大刀洗町"},{"districts":[],"postal_code":"8300400","city_en":"","city_jp":"三潴郡　大木町"},{"districts":[],"postal_code":"8340100","city_en":"","city_jp":"八女郡　広川町"},{"districts":[],"postal_code":"8221400","city_en":"","city_jp":"田川郡　香春町"},{"districts":[],"postal_code":"8240600","city_en":"","city_jp":"田川郡　添田町"},{"districts":[],"postal_code":"8221300","city_en":"","city_jp":"田川郡　糸田町"},{"districts":[],"postal_code":"8270000","city_en":"","city_jp":"田川郡　川崎町"},{"districts":[],"postal_code":"8240500","city_en":"","city_jp":"田川郡　大任町"},{"districts":[],"postal_code":"8240400","city_en":"","city_jp":"田川郡　赤村"},{"districts":[],"postal_code":"8221200","city_en":"","city_jp":"田川郡　福智町"},{"districts":[],"postal_code":"8000300","city_en":"","city_jp":"京都郡　苅田町"},{"districts":[],"postal_code":"8240800","city_en":"","city_jp":"京都郡　みやこ町"},{"districts":[],"postal_code":"8710000","city_en":"","city_jp":"築上郡　吉富町"},{"districts":[],"postal_code":"8710900","city_en":"","city_jp":"築上郡　上毛町"},{"districts":[],"postal_code":"8290100","city_en":"","city_jp":"築上郡　築上町"}],"prefecture_en":"Fukuoka ken","prefecture_jp":"福岡県"},"Saga ken":{"cities":[{"districts":[],"postal_code":"8400812","city_en":"Saga","city_jp":"佐賀市"},{"districts":[],"postal_code":"8470000","city_en":"Karatsu","city_jp":"唐津市"},{"districts":[],"postal_code":"8410000","city_en":"Tosu","city_jp":"鳥栖市"},{"districts":[],"postal_code":"8460000","city_en":"Taku","city_jp":"多久市"},{"districts":[],"postal_code":"8480000","city_en":"Imari","city_jp":"伊万里市"},{"districts":[],"postal_code":"8430000","city_en":"Takeo","city_jp":"武雄市"},{"districts":[],"postal_code":"8491300","city_en":"Kashima","city_jp":"鹿島市"},{"districts":[],"postal_code":"8450000","city_en":"Ogi","city_jp":"小城市"},{"districts":[],"postal_code":"8430300","city_en":"Ureshino","city_jp":"嬉野市"},{"districts":[],"postal_code":"8420000","city_en":"Kanzaki","city_jp":"神埼市"},{"districts":[],"postal_code":"8420000","city_en":"","city_jp":"神埼郡　吉野ヶ里町"},{"districts":[],"postal_code":"8410200","city_en":"","city_jp":"三養基郡　基山町"},{"districts":[],"postal_code":"8490100","city_en":"","city_jp":"三養基郡　上峰町"},{"districts":[],"postal_code":"8490100","city_en":"","city_jp":"三養基郡　みやき町"},{"districts":[],"postal_code":"8471400","city_en":"","city_jp":"東松浦郡　玄海町"},{"districts":[],"postal_code":"8440000","city_en":"","city_jp":"西松浦郡　有田町"},{"districts":[],"postal_code":"8492100","city_en":"","city_jp":"杵島郡　大町町"},{"districts":[],"postal_code":"8490500","city_en":"","city_jp":"杵島郡　江北町"},{"districts":[],"postal_code":"8491100","city_en":"Kishima gun","city_jp":"杵島郡　白石町"},{"districts":[],"postal_code":"8491600","city_en":"","city_jp":"藤津郡　太良町"}],"prefecture_en":"Saga ken","prefecture_jp":"佐賀県"},"Nagasaki ken":{"cities":[{"districts":[],"postal_code":"8500922","city_en":"Nagasaki","city_jp":"長崎市"},{"districts":[],"postal_code":"8570000","city_en":"Sasebo","city_jp":"佐世保市"},{"districts":[],"postal_code":"8550000","city_en":"Shimabara","city_jp":"島原市"},{"districts":[],"postal_code":"8540000","city_en":"Isahaya","city_jp":"諫早市"},{"districts":[],"postal_code":"8560000","city_en":"Omura","city_jp":"大村市"},{"districts":[],"postal_code":"8595100","city_en":"Hirado","city_jp":"平戸市"},{"districts":[],"postal_code":"8594500","city_en":"Matsura","city_jp":"松浦市"},{"districts":[],"postal_code":"8170000","city_en":"Tsushima","city_jp":"対馬市"},{"districts":[],"postal_code":"8115100","city_en":"Iki","city_jp":"壱岐市"},{"districts":[],"postal_code":"8530000","city_en":"Goto","city_jp":"五島市"},{"districts":[],"postal_code":"8513500","city_en":"Saikai","city_jp":"西海市"},{"districts":[],"postal_code":"8540500","city_en":"Unzen","city_jp":"雲仙市"},{"districts":[],"postal_code":"8592600","city_en":"Minamishimabara","city_jp":"南島原市"},{"districts":[],"postal_code":"8512100","city_en":"","city_jp":"西彼杵郡　長与町"},{"districts":[],"postal_code":"8512100","city_en":"","city_jp":"西彼杵郡　時津町"},{"districts":[],"postal_code":"8593800","city_en":"","city_jp":"東彼杵郡　東彼杵町"},{"districts":[],"postal_code":"8593600","city_en":"","city_jp":"東彼杵郡　川棚町"},{"districts":[],"postal_code":"8593700","city_en":"","city_jp":"東彼杵郡　波佐見町"},{"districts":[],"postal_code":"8574700","city_en":"","city_jp":"北松浦郡　小値賀町"},{"districts":[],"postal_code":"8570300","city_en":"","city_jp":"北松浦郡　佐々町"},{"districts":[],"postal_code":"8574400","city_en":"Minamimatsura gun","city_jp":"南松浦郡　新上五島町"}],"prefecture_en":"Nagasaki ken","prefecture_jp":"長崎県"},"Kumamoto ken":{"cities":[{"districts":[],"postal_code":"8600801","city_en":"Kumamoto","city_jp":"熊本市　中央区"},{"districts":[],"postal_code":"8610000","city_en":"Kumamoto","city_jp":"熊本市　東区"},{"districts":[],"postal_code":"8610000","city_en":"Kumamoto","city_jp":"熊本市　西区"},{"districts":[],"postal_code":"8610000","city_en":"Kumamoto","city_jp":"熊本市　南区"},{"districts":[],"postal_code":"8610000","city_en":"Kumamoto","city_jp":"熊本市　北区"},{"districts":[],"postal_code":"8660000","city_en":"Yatsushiro","city_jp":"八代市"},{"districts":[],"postal_code":"8680000","city_en":"Hitoyoshi","city_jp":"人吉市"},{"districts":[],"postal_code":"8640000","city_en":"Arao","city_jp":"荒尾市"},{"districts":[],"postal_code":"8670000","city_en":"Minamata","city_jp":"水俣市"},{"districts":[],"postal_code":"8650000","city_en":"Tamana","city_jp":"玉名市"},{"districts":[],"postal_code":"8610500","city_en":"Yamaga","city_jp":"山鹿市"},{"districts":[],"postal_code":"8611300","city_en":"Kikuchi","city_jp":"菊池市"},{"districts":[],"postal_code":"8690400","city_en":"Uto","city_jp":"宇土市"},{"districts":[],"postal_code":"8693600","city_en":"Kamiamakusa","city_jp":"上天草市"},{"districts":[],"postal_code":"8690500","city_en":"Uki","city_jp":"宇城市"},{"districts":[],"postal_code":"8692600","city_en":"Aso","city_jp":"阿蘇市"},{"districts":[],"postal_code":"8630000","city_en":"Amakusa","city_jp":"天草市"},{"districts":[],"postal_code":"8611100","city_en":"Koshi","city_jp":"合志市"},{"districts":[],"postal_code":"8614700","city_en":"","city_jp":"下益城郡　美里町"},{"districts":[],"postal_code":"8690300","city_en":"","city_jp":"玉名郡　玉東町"},{"districts":[],"postal_code":"8610800","city_en":"","city_jp":"玉名郡　南関町"},{"districts":[],"postal_code":"8690100","city_en":"","city_jp":"玉名郡　長洲町"},{"districts":[],"postal_code":"8650100","city_en":"","city_jp":"玉名郡　和水町"},{"districts":[],"postal_code":"8691200","city_en":"","city_jp":"菊池郡　大津町"},{"districts":[],"postal_code":"8691100","city_en":"","city_jp":"菊池郡　菊陽町"},{"districts":[],"postal_code":"8692400","city_en":"","city_jp":"阿蘇郡　南小国町"},{"districts":[],"postal_code":"8692500","city_en":"","city_jp":"阿蘇郡　小国町"},{"districts":[],"postal_code":"8692700","city_en":"","city_jp":"阿蘇郡　産山村"},{"districts":[],"postal_code":"8691600","city_en":"","city_jp":"阿蘇郡　高森町"},{"districts":[],"postal_code":"8612400","city_en":"","city_jp":"阿蘇郡　西原村"},{"districts":[],"postal_code":"8691400","city_en":"","city_jp":"阿蘇郡　南阿蘇村"},{"districts":[],"postal_code":"8613200","city_en":"","city_jp":"上益城郡　御船町"},{"districts":[],"postal_code":"8613100","city_en":"","city_jp":"上益城郡　嘉島町"},{"districts":[],"postal_code":"8612200","city_en":"","city_jp":"上益城郡　益城町"},{"districts":[],"postal_code":"8614600","city_en":"","city_jp":"上益城郡　甲佐町"},{"districts":[],"postal_code":"8613500","city_en":"","city_jp":"上益城郡　山都町"},{"districts":[],"postal_code":"8694600","city_en":"","city_jp":"八代郡　氷川町"},{"districts":[],"postal_code":"8695400","city_en":"","city_jp":"葦北郡　芦北町"},{"districts":[],"postal_code":"8695600","city_en":"","city_jp":"葦北郡　津奈木町"},{"districts":[],"postal_code":"8680300","city_en":"","city_jp":"球磨郡　錦町"},{"districts":[],"postal_code":"8680500","city_en":"","city_jp":"球磨郡　多良木町"},{"districts":[],"postal_code":"8680600","city_en":"","city_jp":"球磨郡　湯前町"},{"districts":[],"postal_code":"8680700","city_en":"","city_jp":"球磨郡　水上村"},{"districts":[],"postal_code":"8680000","city_en":"","city_jp":"球磨郡　相良村"},{"districts":[],"postal_code":"8680200","city_en":"","city_jp":"球磨郡　五木村"},{"districts":[],"postal_code":"8680000","city_en":"","city_jp":"球磨郡　山江村"},{"districts":[],"postal_code":"8696400","city_en":"","city_jp":"球磨郡　球磨村"},{"districts":[],"postal_code":"8680400","city_en":"","city_jp":"球磨郡　あさぎり町"},{"districts":[],"postal_code":"8632500","city_en":"","city_jp":"天草郡　苓北町"}],"prefecture_en":"Kumamoto ken","prefecture_jp":"熊本県"},"Oita ken":{"cities":[{"districts":[],"postal_code":"8700278","city_en":"Oita","city_jp":"大分市"},{"districts":[],"postal_code":"8740000","city_en":"Beppu","city_jp":"別府市"},{"districts":[],"postal_code":"8710000","city_en":"Nakatsu","city_jp":"中津市"},{"districts":[],"postal_code":"8770000","city_en":"Hita","city_jp":"日田市"},{"districts":[],"postal_code":"8760000","city_en":"Saiki","city_jp":"佐伯市"},{"districts":[],"postal_code":"8750000","city_en":"Usuki","city_jp":"臼杵市"},{"districts":[],"postal_code":"8792400","city_en":"Tsukumi","city_jp":"津久見市"},{"districts":[],"postal_code":"8780000","city_en":"Taketa","city_jp":"竹田市"},{"districts":[],"postal_code":"8790600","city_en":"Bungotakada","city_jp":"豊後高田市"},{"districts":[],"postal_code":"8730000","city_en":"Kitsuki","city_jp":"杵築市"},{"districts":[],"postal_code":"8720000","city_en":"Usa","city_jp":"宇佐市"},{"districts":[],"postal_code":"8797100","city_en":"Bungoono","city_jp":"豊後大野市"},{"districts":[],"postal_code":"8795400","city_en":"Yufu","city_jp":"由布市"},{"districts":[],"postal_code":"8730500","city_en":"Kunisaki","city_jp":"国東市"},{"districts":{"postal_code":"8721501","district_en":"","district_jp":""},"postal_code":"8721501","city_en":"","city_jp":"東国東郡　姫島村"},{"districts":[],"postal_code":"8791500","city_en":"","city_jp":"速見郡　日出町"},{"districts":[],"postal_code":"8794800","city_en":"","city_jp":"玖珠郡　九重町"},{"districts":[],"postal_code":"8794400","city_en":"","city_jp":"玖珠郡　玖珠町"}],"prefecture_en":"Oita ken","prefecture_jp":"大分県"},"Miyazaki ken":{"cities":[{"districts":[],"postal_code":"8892162","city_en":"Miyazaki","city_jp":"宮崎市"},{"districts":[],"postal_code":"8850000","city_en":"Miyakonojo","city_jp":"都城市"},{"districts":[],"postal_code":"8820000","city_en":"Nobeoka","city_jp":"延岡市"},{"districts":[],"postal_code":"8870000","city_en":"Nichinan","city_jp":"日南市"},{"districts":[],"postal_code":"8860000","city_en":"Kobayashi","city_jp":"小林市"},{"districts":[],"postal_code":"8830000","city_en":"Hyuga","city_jp":"日向市"},{"districts":[],"postal_code":"8880000","city_en":"Kushima","city_jp":"串間市"},{"districts":[],"postal_code":"8810000","city_en":"Saito","city_jp":"西都市"},{"districts":[],"postal_code":"8894300","city_en":"Ebino","city_jp":"えびの市"},{"districts":[],"postal_code":"8891900","city_en":"","city_jp":"北諸県郡　三股町"},{"districts":[],"postal_code":"8894400","city_en":"","city_jp":"西諸県郡　高原町"},{"districts":[],"postal_code":"8801100","city_en":"","city_jp":"東諸県郡　国富町"},{"districts":[],"postal_code":"8801300","city_en":"","city_jp":"東諸県郡　綾町"},{"districts":[],"postal_code":"8840000","city_en":"","city_jp":"児湯郡　高鍋町"},{"districts":[],"postal_code":"8891400","city_en":"Koyu gun","city_jp":"児湯郡　新富町"},{"districts":[],"postal_code":"8811400","city_en":"","city_jp":"児湯郡　西米良村"},{"districts":[],"postal_code":"8840100","city_en":"","city_jp":"児湯郡　木城町"},{"districts":[],"postal_code":"8891300","city_en":"","city_jp":"児湯郡　川南町"},{"districts":[],"postal_code":"8891200","city_en":"","city_jp":"児湯郡　都農町"},{"districts":[],"postal_code":"8890600","city_en":"","city_jp":"東臼杵郡　門川町"},{"districts":[],"postal_code":"8831300","city_en":"","city_jp":"東臼杵郡　諸塚村"},{"districts":[],"postal_code":"8831600","city_en":"Higashiusuki gun","city_jp":"東臼杵郡　椎葉村"},{"districts":[],"postal_code":"8831100","city_en":"","city_jp":"東臼杵郡　美郷町"},{"districts":[],"postal_code":"8821100","city_en":"","city_jp":"西臼杵郡　高千穂町"},{"districts":[],"postal_code":"8820400","city_en":"","city_jp":"西臼杵郡　日之影町"},{"districts":[],"postal_code":"8821200","city_en":"","city_jp":"西臼杵郡　五ヶ瀬町"}],"prefecture_en":"Miyazaki ken","prefecture_jp":"宮崎県"},"Kagoshima ken":{"cities":[{"districts":[],"postal_code":"8900054","city_en":"Kagoshima","city_jp":"鹿児島市"},{"districts":[],"postal_code":"8930000","city_en":"Kanoya","city_jp":"鹿屋市"},{"districts":[],"postal_code":"8980000","city_en":"Makurazaki","city_jp":"枕崎市"},{"districts":[],"postal_code":"8991600","city_en":"Akune","city_jp":"阿久根市"},{"districts":[],"postal_code":"8990200","city_en":"Izumi","city_jp":"出水市"},{"districts":[],"postal_code":"8910400","city_en":"Ibusuki","city_jp":"指宿市"},{"districts":[],"postal_code":"8913100","city_en":"Nishinomote","city_jp":"西之表市"},{"districts":[],"postal_code":"8912100","city_en":"Tarumizu","city_jp":"垂水市"},{"districts":[],"postal_code":"8950000","city_en":"Satsumasendai","city_jp":"薩摩川内市"},{"districts":[],"postal_code":"8992500","city_en":"Hioki","city_jp":"日置市"},{"districts":[],"postal_code":"8998600","city_en":"So","city_jp":"曽於市"},{"districts":[],"postal_code":"8994300","city_en":"Kirishima","city_jp":"霧島市"},{"districts":[],"postal_code":"8960000","city_en":"Ichikikushikino","city_jp":"いちき串木野市"},{"districts":[],"postal_code":"8970000","city_en":"Minamisatsuma","city_jp":"南さつま市"},{"districts":[],"postal_code":"8997100","city_en":"Shibushi","city_jp":"志布志市"},{"districts":[],"postal_code":"8940000","city_en":"Amami","city_jp":"奄美市"},{"districts":[],"postal_code":"8970200","city_en":"Minamikyushu","city_jp":"南九州市"},{"districts":[],"postal_code":"8952500","city_en":"Isa","city_jp":"伊佐市"},{"districts":[],"postal_code":"8995400","city_en":"Aira","city_jp":"姶良市"},{"districts":[],"postal_code":"8900000","city_en":"","city_jp":"鹿児島郡　三島村"},{"districts":[],"postal_code":"8915200","city_en":"","city_jp":"鹿児島郡　十島村"},{"districts":[],"postal_code":"8951800","city_en":"","city_jp":"薩摩郡　さつま町"},{"districts":[],"postal_code":"8991400","city_en":"","city_jp":"出水郡　長島町"},{"districts":[],"postal_code":"8996200","city_en":"","city_jp":"姶良郡　湧水町"},{"districts":[],"postal_code":"8997300","city_en":"","city_jp":"曽於郡　大崎町"},{"districts":[],"postal_code":"8931600","city_en":"","city_jp":"肝属郡　東串良町"},{"districts":[],"postal_code":"8932300","city_en":"","city_jp":"肝属郡　錦江町"},{"districts":[],"postal_code":"8932500","city_en":"","city_jp":"肝属郡　南大隅町"},{"districts":[],"postal_code":"8931200","city_en":"","city_jp":"肝属郡　肝付町"},{"districts":[],"postal_code":"8913600","city_en":"","city_jp":"熊毛郡　中種子町"},{"districts":[],"postal_code":"8913700","city_en":"","city_jp":"熊毛郡　南種子町"},{"districts":[],"postal_code":"8914200","city_en":"","city_jp":"熊毛郡　屋久島町"},{"districts":[],"postal_code":"8943100","city_en":"","city_jp":"大島郡　大和村"},{"districts":[],"postal_code":"8943300","city_en":"","city_jp":"大島郡　宇検村"},{"districts":[],"postal_code":"8941500","city_en":"","city_jp":"大島郡　瀬戸内町"},{"districts":[],"postal_code":"8940100","city_en":"","city_jp":"大島郡　龍郷町"},{"districts":[],"postal_code":"8916200","city_en":"","city_jp":"大島郡　喜界町"},{"districts":[],"postal_code":"8917100","city_en":"","city_jp":"大島郡　徳之島町"},{"districts":[],"postal_code":"8917600","city_en":"","city_jp":"大島郡　天城町"},{"districts":[],"postal_code":"8918300","city_en":"","city_jp":"大島郡　伊仙町"},{"districts":[],"postal_code":"8919100","city_en":"","city_jp":"大島郡　和泊町"},{"districts":[],"postal_code":"8919200","city_en":"","city_jp":"大島郡　知名町"},{"districts":[],"postal_code":"8919300","city_en":"","city_jp":"大島郡　与論町"}],"prefecture_en":"Kagoshima ken","prefecture_jp":"鹿児島県"},"Okinawa ken":{"cities":[{"districts":[],"postal_code":"9010154","city_en":"Naha","city_jp":"那覇市"},{"districts":[],"postal_code":"9012200","city_en":"Ginowan","city_jp":"宜野湾市"},{"districts":[],"postal_code":"9070000","city_en":"Ishigaki","city_jp":"石垣市"},{"districts":[],"postal_code":"9012100","city_en":"Urasoe","city_jp":"浦添市"},{"districts":[],"postal_code":"9050000","city_en":"Nago","city_jp":"名護市"},{"districts":[],"postal_code":"9010300","city_en":"Itoman","city_jp":"糸満市"},{"districts":[],"postal_code":"9040000","city_en":"Okinawa","city_jp":"沖縄市"},{"districts":[],"postal_code":"9010200","city_en":"Tomigusuku","city_jp":"豊見城市"},{"districts":[],"postal_code":"9042200","city_en":"Uruma","city_jp":"うるま市"},{"districts":[],"postal_code":"9060000","city_en":"Miyakojima","city_jp":"宮古島市"},{"districts":[],"postal_code":"9011400","city_en":"Nanjo","city_jp":"南城市"},{"districts":[],"postal_code":"9051400","city_en":"","city_jp":"国頭郡　国頭村"},{"districts":[],"postal_code":"9051300","city_en":"","city_jp":"国頭郡　大宜味村"},{"districts":[],"postal_code":"9051200","city_en":"","city_jp":"国頭郡　東村"},{"districts":[],"postal_code":"9050400","city_en":"","city_jp":"国頭郡　今帰仁村"},{"districts":[],"postal_code":"9050200","city_en":"","city_jp":"国頭郡　本部町"},{"districts":[],"postal_code":"9040400","city_en":"","city_jp":"国頭郡　恩納村"},{"districts":[],"postal_code":"9041300","city_en":"","city_jp":"国頭郡　宜野座村"},{"districts":[],"postal_code":"9041200","city_en":"","city_jp":"国頭郡　金武町"},{"districts":[],"postal_code":"9050500","city_en":"","city_jp":"国頭郡　伊江村"},{"districts":[],"postal_code":"9040300","city_en":"","city_jp":"中頭郡　読谷村"},{"districts":[],"postal_code":"9040200","city_en":"","city_jp":"中頭郡　嘉手納町"},{"districts":[],"postal_code":"9040100","city_en":"","city_jp":"中頭郡　北谷町"},{"districts":[],"postal_code":"9012300","city_en":"","city_jp":"中頭郡　北中城村"},{"districts":[],"postal_code":"9012400","city_en":"","city_jp":"中頭郡　中城村"},{"districts":[],"postal_code":"9030100","city_en":"","city_jp":"中頭郡　西原町"},{"districts":[],"postal_code":"9011300","city_en":"","city_jp":"島尻郡　与那原町"},{"districts":[],"postal_code":"9011100","city_en":"","city_jp":"島尻郡　南風原町"},{"districts":[],"postal_code":"9013500","city_en":"","city_jp":"島尻郡　渡嘉敷村"},{"districts":[],"postal_code":"9013400","city_en":"","city_jp":"島尻郡　座間味村"},{"districts":[],"postal_code":"9013700","city_en":"","city_jp":"島尻郡　粟国村"},{"districts":{"postal_code":"9013601","district_en":"","district_jp":""},"postal_code":"9013601","city_en":"","city_jp":"島尻郡　渡名喜村"},{"districts":[],"postal_code":"9013800","city_en":"","city_jp":"島尻郡　南大東村"},{"districts":[],"postal_code":"9013900","city_en":"","city_jp":"島尻郡　北大東村"},{"districts":[],"postal_code":"9050700","city_en":"","city_jp":"島尻郡　伊平屋村"},{"districts":[],"postal_code":"9050600","city_en":"","city_jp":"島尻郡　伊是名村"},{"districts":[],"postal_code":"9013100","city_en":"","city_jp":"島尻郡　久米島町"},{"districts":[],"postal_code":"9010400","city_en":"","city_jp":"島尻郡　八重瀬町"},{"districts":[],"postal_code":"9060600","city_en":"","city_jp":"宮古郡　多良間村"},{"districts":[],"postal_code":"9070000","city_en":"","city_jp":"八重山郡　竹富町"},{"districts":[],"postal_code":"9071800","city_en":"","city_jp":"八重山郡　与那国町"}],"prefecture_en":"Okinawa ken","prefecture_jp":"沖縄県"}}